{"type":"FeatureCollection","metadata":{"fonte":"IBGE, via github.com/tbrugz/geodata-br"},"features":[{"type":"Feature","properties":{"nome":"Água Branca","cod":"2700102","uf":"AL"},"geometry":{"type":"Polygon","coordinates":[[[-37.9185,-9.1449],[-37.8746,-9.1892],[-37.8744,-9.1894],[-37.8562,-9.2077],[-37.842,-9.222],[-37.8248,-9.2394],[-37.781,-9.2825],[-37.7706,-9.2926],[-37.7768,-9.3073],[-37.7792,-9.3247],[-37.7946,-9.3289],[-37.8066,-9.328],[-37.8149,-9.3354],[-37.8204,-9.3353],[-37.8275,-9.3507],[-37.8337,-9.3521],[-37.834,-9.3523],[-37.8368,-9.3637],[-37.8482,-9.374],[-37.8517,-9.3908],[-37.8615,-9.3971],[-37.8616,-9.4015],[-37.8664,-9.4016],[-37.8703,-9.4064],[-37.875,-9.4046],[-37.8762,-9.4125],[-37.9404,-9.3761],[-38.0071,-9.3382],[-38.0023,-9.3364],[-37.9855,-9.3303],[-37.979,-9.3066],[-37.9816,-9.301],[-37.9776,-9.2985],[-37.9841,-9.2842],[-37.9787,-9.2678],[-37.9716,-9.2565],[-37.9598,-9.2463],[-37.9871,-9.2423],[-37.9772,-9.2316],[-37.9727,-9.2208],[-37.9741,-9.2162],[-37.9711,-9.213],[-37.985,-9.1786],[-37.9996,-9.1735],[-38.0029,-9.1615],[-38.0107,-9.1556],[-37.9991,-9.1518],[-37.9906,-9.155],[-37.979,-9.1479],[-37.9711,-9.1253],[-37.9572,-9.1152],[-37.954,-9.1091],[-37.9185,-9.1449]]]}},{"type":"Feature","properties":{"nome":"Anadia","cod":"2700201","uf":"AL"},"geometry":{"type":"Polygon","coordinates":[[[-36.3508,-9.6068],[-36.3201,-9.6078],[-36.3176,-9.6071],[-36.2935,-9.6011],[-36.2876,-9.6087],[-36.2536,-9.6235],[-36.2431,-9.6623],[-36.2397,-9.6772],[-36.2398,-9.6784],[-36.2463,-9.732],[-36.2536,-9.7293],[-36.2786,-9.7336],[-36.3174,-9.7228],[-36.3228,-9.7181],[-36.3235,-9.713],[-36.3321,-9.7121],[-36.3352,-9.7286],[-36.3424,-9.7381],[-36.3428,-9.7128],[-36.3704,-9.6975],[-36.3719,-9.6796],[-36.3791,-9.6573],[-36.3845,-9.6544],[-36.388,-9.6513],[-36.3938,-9.6479],[-36.3805,-9.6349],[-36.3883,-9.6283],[-36.3914,-9.6054],[-36.3918,-9.6025],[-36.3505,-9.5919],[-36.3465,-9.5935],[-36.3442,-9.5999],[-36.3508,-9.6068]]]}},{"type":"Feature","properties":{"nome":"Arapiraca","cod":"2700300","uf":"AL"},"geometry":{"type":"Polygon","coordinates":[[[-36.6784,-9.6367],[-36.6584,-9.6414],[-36.6372,-9.6361],[-36.6313,-9.6437],[-36.6226,-9.655],[-36.6091,-9.6538],[-36.6097,-9.6651],[-36.5987,-9.6799],[-36.5944,-9.6852],[-36.5945,-9.6918],[-36.5872,-9.6918],[-36.5842,-9.6992],[-36.5832,-9.6999],[-36.5701,-9.7084],[-36.5812,-9.7078],[-36.5833,-9.7141],[-36.5753,-9.7272],[-36.5775,-9.7367],[-36.5726,-9.7491],[-36.5555,-9.7676],[-36.5524,-9.7705],[-36.5624,-9.7908],[-36.5649,-9.8031],[-36.5555,-9.8047],[-36.5483,-9.8085],[-36.5491,-9.811],[-36.5543,-9.8332],[-36.5546,-9.8386],[-36.5546,-9.8389],[-36.5545,-9.8418],[-36.5551,-9.8505],[-36.5503,-9.8596],[-36.5411,-9.8712],[-36.5414,-9.8818],[-36.5602,-9.874],[-36.5734,-9.8771],[-36.5737,-9.8772],[-36.5844,-9.8809],[-36.5908,-9.8781],[-36.5918,-9.8723],[-36.5979,-9.8725],[-36.6039,-9.8722],[-36.6183,-9.8624],[-36.6299,-9.8364],[-36.6308,-9.8337],[-36.6308,-9.8337],[-36.6315,-9.8333],[-36.6413,-9.8269],[-36.6653,-9.812],[-36.6905,-9.8037],[-36.6983,-9.7918],[-36.7166,-9.764],[-36.7209,-9.7574],[-36.734,-9.7375],[-36.7346,-9.7366],[-36.7525,-9.7094],[-36.7424,-9.6966],[-36.734,-9.6859],[-36.7337,-9.6854],[-36.7271,-9.677],[-36.7163,-9.6633],[-36.6963,-9.638],[-36.6927,-9.6334],[-36.6784,-9.6367]]]}},{"type":"Feature","properties":{"nome":"Atalaia","cod":"2700409","uf":"AL"},"geometry":{"type":"Polygon","coordinates":[[[-35.9342,-9.4469],[-35.9326,-9.4798],[-35.9401,-9.4976],[-35.9594,-9.5276],[-35.9793,-9.55],[-35.9768,-9.5557],[-36.0004,-9.5752],[-36.0056,-9.5858],[-36.0174,-9.5755],[-36.081,-9.5982],[-36.0924,-9.6008],[-36.1196,-9.5952],[-36.1262,-9.5981],[-36.1303,-9.6042],[-36.1382,-9.6126],[-36.1497,-9.6116],[-36.1584,-9.6184],[-36.1736,-9.6118],[-36.1814,-9.6124],[-36.1815,-9.6122],[-36.1912,-9.5994],[-36.2137,-9.5698],[-36.2183,-9.5637],[-36.2277,-9.5152],[-36.2167,-9.4736],[-36.2077,-9.455],[-36.1551,-9.4717],[-36.1436,-9.4608],[-36.138,-9.4599],[-36.1327,-9.4553],[-36.1042,-9.4557],[-36.0997,-9.4523],[-36.0668,-9.4287],[-36.0539,-9.4229],[-36.0537,-9.4228],[-36.014,-9.4005],[-35.957,-9.3828],[-35.9483,-9.3802],[-35.9284,-9.3742],[-35.9366,-9.401],[-35.9342,-9.4469]]]}},{"type":"Feature","properties":{"nome":"Barra de Santo Antônio","cod":"2700508","uf":"AL"},"geometry":{"type":"Polygon","coordinates":[[[-35.4634,-9.3473],[-35.4871,-9.3742],[-35.4954,-9.3909],[-35.4957,-9.4006],[-35.4973,-9.4193],[-35.5025,-9.418],[-35.5131,-9.4399],[-35.5249,-9.4425],[-35.528,-9.4362],[-35.5297,-9.4376],[-35.5338,-9.4301],[-35.5369,-9.4232],[-35.5457,-9.4164],[-35.5442,-9.4101],[-35.5486,-9.4036],[-35.5539,-9.4039],[-35.5637,-9.404],[-35.5709,-9.401],[-35.5919,-9.4054],[-35.595,-9.4082],[-35.5998,-9.4058],[-35.6105,-9.4063],[-35.6107,-9.4041],[-35.6159,-9.4066],[-35.6207,-9.4095],[-35.6232,-9.4069],[-35.6407,-9.4013],[-35.6504,-9.4044],[-35.6658,-9.3982],[-35.6765,-9.398],[-35.6874,-9.3704],[-35.6861,-9.3703],[-35.5887,-9.3597],[-35.5673,-9.355],[-35.5626,-9.3565],[-35.536,-9.3464],[-35.523,-9.3544],[-35.5175,-9.3541],[-35.5139,-9.3464],[-35.5197,-9.323],[-35.5133,-9.3138],[-35.5133,-9.3073],[-35.4748,-9.3381],[-35.4634,-9.3473]]]}},{"type":"Feature","properties":{"nome":"Barra de São Miguel","cod":"2700607","uf":"AL"},"geometry":{"type":"Polygon","coordinates":[[[-35.9909,-9.7814],[-35.98,-9.7859],[-35.9732,-9.784],[-35.9611,-9.7896],[-35.9562,-9.7863],[-35.9411,-9.7875],[-35.9371,-9.7943],[-35.9262,-9.7953],[-35.9144,-9.8091],[-35.9053,-9.8115],[-35.8622,-9.7913],[-35.8547,-9.7878],[-35.8734,-9.8165],[-35.879,-9.8259],[-35.8893,-9.8395],[-35.9025,-9.8696],[-35.9026,-9.8599],[-35.9102,-9.846],[-35.9144,-9.8415],[-35.9224,-9.8375],[-35.9379,-9.8444],[-35.9498,-9.8448],[-35.9604,-9.8363],[-35.9609,-9.8354],[-35.9671,-9.8304],[-35.9743,-9.8264],[-35.9836,-9.8255],[-35.9907,-9.818],[-35.9974,-9.8191],[-36.0053,-9.8107],[-36.015,-9.8074],[-36.0263,-9.8108],[-36.0263,-9.8099],[-36.0042,-9.7667],[-36.0004,-9.7741],[-35.9909,-9.7814]]]}},{"type":"Feature","properties":{"nome":"Batalha","cod":"2700706","uf":"AL"},"geometry":{"type":"Polygon","coordinates":[[[-37.0314,-9.688],[-37.0076,-9.7081],[-36.9931,-9.7203],[-37.0023,-9.733],[-36.9987,-9.7398],[-36.998,-9.7627],[-37.0106,-9.769],[-37.0109,-9.7692],[-37.0173,-9.7749],[-37.022,-9.7867],[-37.0288,-9.7882],[-37.0325,-9.7929],[-37.0369,-9.8047],[-37.0352,-9.8102],[-37.0408,-9.8083],[-37.0409,-9.8078],[-37.0679,-9.79],[-37.0824,-9.794],[-37.1027,-9.7909],[-37.151,-9.7617],[-37.1625,-9.7533],[-37.1622,-9.7463],[-37.1671,-9.7417],[-37.1805,-9.7378],[-37.2025,-9.7223],[-37.2191,-9.7094],[-37.2198,-9.7028],[-37.2147,-9.7034],[-37.215,-9.6958],[-37.204,-9.6918],[-37.1906,-9.69],[-37.1668,-9.6422],[-37.1525,-9.6135],[-37.1562,-9.6128],[-37.1579,-9.608],[-37.1631,-9.6076],[-37.1594,-9.6019],[-37.1526,-9.6022],[-37.1096,-9.6056],[-37.0518,-9.6193],[-37.0673,-9.6365],[-37.0668,-9.658],[-37.0314,-9.688]]]}},{"type":"Feature","properties":{"nome":"Belém","cod":"2700805","uf":"AL"},"geometry":{"type":"Polygon","coordinates":[[[-36.4443,-9.5861],[-36.4734,-9.6022],[-36.4788,-9.5938],[-36.4923,-9.5851],[-36.4971,-9.5835],[-36.504,-9.5604],[-36.5317,-9.5317],[-36.5268,-9.5285],[-36.5249,-9.5145],[-36.5175,-9.5035],[-36.502,-9.5004],[-36.4999,-9.4959],[-36.4947,-9.501],[-36.4879,-9.5018],[-36.4652,-9.5663],[-36.4633,-9.5717],[-36.4453,-9.5853],[-36.4443,-9.5861]]]}},{"type":"Feature","properties":{"nome":"Belo Monte","cod":"2700904","uf":"AL"},"geometry":{"type":"Polygon","coordinates":[[[-37.2191,-9.7094],[-37.2025,-9.7223],[-37.1805,-9.7378],[-37.1671,-9.7417],[-37.1622,-9.7463],[-37.1625,-9.7533],[-37.151,-9.7617],[-37.1027,-9.7909],[-37.0824,-9.794],[-37.0679,-9.79],[-37.0409,-9.8078],[-37.0408,-9.8083],[-37.1027,-9.8482],[-37.1028,-9.8482],[-37.1072,-9.8553],[-37.1081,-9.8674],[-37.1137,-9.8692],[-37.1185,-9.8752],[-37.1187,-9.8906],[-37.1252,-9.893],[-37.1281,-9.9004],[-37.1345,-9.899],[-37.1282,-9.9084],[-37.1323,-9.9134],[-37.1526,-9.9004],[-37.195,-9.8976],[-37.2262,-9.8991],[-37.2352,-9.8956],[-37.2468,-9.8842],[-37.2566,-9.8598],[-37.2639,-9.85],[-37.2851,-9.8305],[-37.2969,-9.8272],[-37.298,-9.817],[-37.3095,-9.8033],[-37.3012,-9.7936],[-37.3009,-9.7882],[-37.2971,-9.783],[-37.2851,-9.7783],[-37.2865,-9.7717],[-37.2752,-9.7738],[-37.273,-9.7669],[-37.2514,-9.7516],[-37.2484,-9.7386],[-37.2393,-9.7364],[-37.2364,-9.7309],[-37.2293,-9.7299],[-37.2288,-9.722],[-37.2211,-9.7227],[-37.2191,-9.7094]]]}},{"type":"Feature","properties":{"nome":"Boca da Mata","cod":"2701001","uf":"AL"},"geometry":{"type":"Polygon","coordinates":[[[-36.1341,-9.6451],[-36.1318,-9.6507],[-36.1279,-9.6485],[-36.1159,-9.6494],[-36.111,-9.6456],[-36.1049,-9.6389],[-36.1033,-9.6411],[-36.1012,-9.645],[-36.0987,-9.6515],[-36.0897,-9.6552],[-36.0857,-9.6613],[-36.083,-9.664],[-36.0747,-9.6733],[-36.0785,-9.6792],[-36.0683,-9.6887],[-36.0784,-9.694],[-36.1108,-9.7014],[-36.1272,-9.7051],[-36.1783,-9.7168],[-36.1802,-9.7239],[-36.2181,-9.729],[-36.2463,-9.732],[-36.2398,-9.6784],[-36.2397,-9.6772],[-36.2431,-9.6623],[-36.2536,-9.6235],[-36.2622,-9.5953],[-36.1912,-9.5994],[-36.1815,-9.6122],[-36.1814,-9.6124],[-36.1766,-9.6209],[-36.1554,-9.6245],[-36.1412,-9.6384],[-36.1406,-9.645],[-36.1341,-9.6451]]]}},{"type":"Feature","properties":{"nome":"Branquinha","cod":"2701100","uf":"AL"},"geometry":{"type":"Polygon","coordinates":[[[-35.8882,-9.1379],[-35.9552,-9.2137],[-36.0033,-9.2646],[-36.0038,-9.2652],[-36.0623,-9.2833],[-36.0649,-9.2841],[-36.0899,-9.263],[-36.1051,-9.258],[-36.1253,-9.2513],[-36.1498,-9.2357],[-36.1802,-9.2129],[-36.1692,-9.21],[-36.1651,-9.2121],[-36.1513,-9.2067],[-36.1271,-9.2011],[-36.1163,-9.2073],[-36.108,-9.2091],[-36.1009,-9.2066],[-36.093,-9.2031],[-36.0857,-9.2013],[-36.0798,-9.2051],[-36.0678,-9.2051],[-36.0583,-9.215],[-36.0323,-9.2032],[-36.0312,-9.2027],[-35.9988,-9.189],[-35.9423,-9.1637],[-35.8882,-9.1379]]]}},{"type":"Feature","properties":{"nome":"Cacimbinhas","cod":"2701209","uf":"AL"},"geometry":{"type":"Polygon","coordinates":[[[-36.9758,-9.3616],[-36.9521,-9.3821],[-36.9437,-9.3819],[-36.9365,-9.377],[-36.9011,-9.3974],[-36.8972,-9.3968],[-36.8749,-9.3937],[-36.8543,-9.3919],[-36.8262,-9.3905],[-36.8265,-9.3911],[-36.8326,-9.4078],[-36.8274,-9.4151],[-36.829,-9.4276],[-36.8446,-9.4402],[-36.8448,-9.451],[-36.842,-9.4657],[-36.8398,-9.4692],[-36.8435,-9.475],[-36.8411,-9.4788],[-36.843,-9.4861],[-36.8327,-9.4974],[-36.8326,-9.5063],[-36.8406,-9.5113],[-36.831,-9.5276],[-36.8367,-9.5315],[-36.8635,-9.5313],[-36.8763,-9.5347],[-36.9049,-9.5235],[-36.9495,-9.5021],[-36.9803,-9.4864],[-36.9862,-9.4725],[-36.9951,-9.4616],[-37.0001,-9.4601],[-37.0037,-9.4492],[-37.0179,-9.4346],[-37.0168,-9.4291],[-37.0195,-9.4134],[-37.0299,-9.3919],[-37.0273,-9.3835],[-37.0224,-9.3692],[-36.9917,-9.3742],[-36.9769,-9.3612],[-36.9766,-9.361],[-36.9758,-9.3616]]]}},{"type":"Feature","properties":{"nome":"Cajueiro","cod":"2701308","uf":"AL"},"geometry":{"type":"Polygon","coordinates":[[[-36.1286,-9.4052],[-36.1551,-9.4717],[-36.2077,-9.455],[-36.2108,-9.4526],[-36.2015,-9.4255],[-36.1844,-9.3758],[-36.1786,-9.3589],[-36.1792,-9.3435],[-36.1816,-9.3086],[-36.1423,-9.3099],[-36.1118,-9.311],[-36.1097,-9.3393],[-36.1085,-9.3546],[-36.1186,-9.38],[-36.1276,-9.4026],[-36.1286,-9.4052]]]}},{"type":"Feature","properties":{"nome":"Campestre","cod":"2701357","uf":"AL"},"geometry":{"type":"Polygon","coordinates":[[[-35.5395,-8.8207],[-35.5479,-8.8441],[-35.5437,-8.8597],[-35.536,-8.8883],[-35.5152,-8.8811],[-35.4972,-8.8924],[-35.4966,-8.9097],[-35.5,-8.9185],[-35.4958,-8.9232],[-35.4962,-8.9319],[-35.4913,-8.9406],[-35.504,-8.9493],[-35.5155,-8.9484],[-35.5208,-8.9454],[-35.5235,-8.947],[-35.5518,-8.9047],[-35.5731,-8.9141],[-35.5788,-8.9112],[-35.5854,-8.8912],[-35.5762,-8.8648],[-35.5817,-8.861],[-35.5811,-8.856],[-35.5698,-8.8424],[-35.5672,-8.835],[-35.5634,-8.8312],[-35.5566,-8.8311],[-35.5395,-8.8207]]]}},{"type":"Feature","properties":{"nome":"Campo Alegre","cod":"2701407","uf":"AL"},"geometry":{"type":"Polygon","coordinates":[[[-36.3174,-9.7228],[-36.2786,-9.7336],[-36.2536,-9.7293],[-36.2463,-9.732],[-36.1869,-9.7946],[-36.1883,-9.7986],[-36.2078,-9.8052],[-36.2059,-9.8081],[-36.2051,-9.8093],[-36.1962,-9.8289],[-36.1961,-9.8354],[-36.2013,-9.8392],[-36.2111,-9.8423],[-36.2191,-9.8361],[-36.2267,-9.8495],[-36.2392,-9.8713],[-36.1871,-9.8787],[-36.1813,-9.8796],[-36.179,-9.8889],[-36.1915,-9.891],[-36.2807,-9.9341],[-36.2775,-9.8919],[-36.3127,-9.8865],[-36.3267,-9.8728],[-36.3403,-9.8492],[-36.3435,-9.8454],[-36.3936,-9.7923],[-36.3937,-9.7737],[-36.3858,-9.7699],[-36.3851,-9.7695],[-36.3686,-9.7653],[-36.3597,-9.7686],[-36.3538,-9.7568],[-36.3546,-9.7535],[-36.361,-9.7517],[-36.3528,-9.7465],[-36.347,-9.7481],[-36.3424,-9.7381],[-36.3352,-9.7286],[-36.3321,-9.7121],[-36.3235,-9.713],[-36.3228,-9.7181],[-36.3174,-9.7228]]]}},{"type":"Feature","properties":{"nome":"Campo Grande","cod":"2701506","uf":"AL"},"geometry":{"type":"Polygon","coordinates":[[[-36.7456,-9.8834],[-36.7423,-9.8898],[-36.7349,-9.888],[-36.7273,-9.9037],[-36.7232,-9.9046],[-36.7189,-9.9002],[-36.7067,-9.9091],[-36.692,-9.9118],[-36.6928,-9.9193],[-36.6882,-9.9218],[-36.6889,-9.927],[-36.6823,-9.9321],[-36.6802,-9.9297],[-36.6728,-9.9371],[-36.6853,-9.9623],[-36.7065,-9.9999],[-36.7048,-10.0192],[-36.7133,-10.0426],[-36.7134,-10.0428],[-36.7433,-10.034],[-36.7772,-10.024],[-36.7879,-10.0208],[-36.7891,-10.0155],[-36.786,-10.0145],[-36.7964,-10.009],[-36.799,-10.0056],[-36.8092,-10.0094],[-36.8199,-10.0018],[-36.8338,-10.0124],[-36.8427,-10.0098],[-36.8381,-10.0015],[-36.827,-9.9975],[-36.8104,-9.9831],[-36.7993,-9.9606],[-36.7979,-9.9585],[-36.7935,-9.9531],[-36.7934,-9.9465],[-36.7864,-9.9459],[-36.7847,-9.9421],[-36.7908,-9.9292],[-36.7781,-9.9118],[-36.7695,-9.9084],[-36.7592,-9.9002],[-36.7515,-9.8827],[-36.7456,-9.8834]]]}},{"type":"Feature","properties":{"nome":"Canapi","cod":"2701605","uf":"AL"},"geometry":{"type":"Polygon","coordinates":[[[-37.524,-8.9645],[-37.4997,-8.9676],[-37.49,-8.9655],[-37.4867,-8.9751],[-37.4887,-8.9856],[-37.4892,-8.9879],[-37.4892,-8.9881],[-37.4921,-8.9979],[-37.4934,-9.0003],[-37.4852,-9.009],[-37.469,-9.0273],[-37.4456,-9.0262],[-37.4333,-9.0294],[-37.4181,-9.0434],[-37.4005,-9.0518],[-37.4194,-9.0754],[-37.4198,-9.0831],[-37.4202,-9.0852],[-37.4203,-9.0856],[-37.4262,-9.1019],[-37.4258,-9.1207],[-37.4196,-9.1379],[-37.424,-9.1573],[-37.423,-9.1599],[-37.4232,-9.1631],[-37.4426,-9.1908],[-37.4564,-9.1972],[-37.4575,-9.2018],[-37.463,-9.2023],[-37.4656,-9.2079],[-37.4711,-9.2118],[-37.4753,-9.2106],[-37.4801,-9.2163],[-37.4797,-9.2234],[-37.488,-9.225],[-37.4893,-9.2298],[-37.5169,-9.2418],[-37.5275,-9.2578],[-37.5419,-9.2588],[-37.5483,-9.2667],[-37.5643,-9.2731],[-37.5708,-9.2822],[-37.5874,-9.2884],[-37.5944,-9.2905],[-37.608,-9.2806],[-37.6111,-9.2724],[-37.6085,-9.2649],[-37.612,-9.2499],[-37.6205,-9.2467],[-37.6197,-9.2378],[-37.6102,-9.2321],[-37.6125,-9.2262],[-37.6245,-9.2199],[-37.6231,-9.2098],[-37.618,-9.2053],[-37.6215,-9.1939],[-37.626,-9.1928],[-37.6897,-9.177],[-37.6921,-9.1764],[-37.6908,-9.1751],[-37.6725,-9.158],[-37.6621,-9.1454],[-37.649,-9.1282],[-37.6355,-9.1104],[-37.6352,-9.11],[-37.6186,-9.098],[-37.6098,-9.0914],[-37.5735,-9.0426],[-37.554,-9.0161],[-37.5536,-9.0155],[-37.5424,-9.0002],[-37.5298,-8.9627],[-37.524,-8.9645]]]}},{"type":"Feature","properties":{"nome":"Capela","cod":"2701704","uf":"AL"},"geometry":{"type":"Polygon","coordinates":[[[-36.0584,-9.2933],[-36.0582,-9.3117],[-36.0534,-9.297],[-36.0467,-9.3272],[-36.0454,-9.3329],[-36.0034,-9.3253],[-36.0002,-9.338],[-36.0114,-9.3649],[-36.0297,-9.3742],[-36.014,-9.4005],[-36.0537,-9.4228],[-36.0539,-9.4229],[-36.0668,-9.4287],[-36.0997,-9.4523],[-36.1042,-9.4557],[-36.1327,-9.4553],[-36.138,-9.4599],[-36.1436,-9.4608],[-36.1551,-9.4717],[-36.1286,-9.4052],[-36.1276,-9.4026],[-36.1186,-9.38],[-36.1085,-9.3546],[-36.1097,-9.3393],[-36.1118,-9.311],[-36.1423,-9.3099],[-36.1816,-9.3086],[-36.1802,-9.2129],[-36.1498,-9.2357],[-36.1253,-9.2513],[-36.1051,-9.258],[-36.0899,-9.263],[-36.0649,-9.2841],[-36.0584,-9.2933]]]}},{"type":"Feature","properties":{"nome":"Carneiros","cod":"2701803","uf":"AL"},"geometry":{"type":"Polygon","coordinates":[[[-37.3352,-9.4886],[-37.3728,-9.5244],[-37.3821,-9.5181],[-37.3854,-9.516],[-37.4207,-9.4925],[-37.443,-9.4775],[-37.445,-9.4762],[-37.4459,-9.4715],[-37.4495,-9.4529],[-37.4127,-9.4438],[-37.3511,-9.4285],[-37.3315,-9.4237],[-37.3282,-9.4228],[-37.3259,-9.4222],[-37.3182,-9.4202],[-37.2695,-9.4531],[-37.3106,-9.4669],[-37.3338,-9.4874],[-37.3352,-9.4886]]]}},{"type":"Feature","properties":{"nome":"Chã Preta","cod":"2701902","uf":"AL"},"geometry":{"type":"Polygon","coordinates":[[[-36.3095,-9.1719],[-36.3075,-9.178],[-36.3002,-9.1754],[-36.2969,-9.1764],[-36.2946,-9.172],[-36.2874,-9.1729],[-36.2812,-9.1858],[-36.2437,-9.1959],[-36.1802,-9.2129],[-36.2353,-9.2893],[-36.2585,-9.2983],[-36.2774,-9.3047],[-36.2966,-9.3112],[-36.3015,-9.3083],[-36.3007,-9.3018],[-36.3132,-9.3021],[-36.3161,-9.2967],[-36.3256,-9.2955],[-36.3219,-9.289],[-36.3262,-9.2842],[-36.332,-9.2829],[-36.3396,-9.2863],[-36.3476,-9.2787],[-36.3725,-9.2553],[-36.4083,-9.2215],[-36.4071,-9.2206],[-36.4026,-9.223],[-36.3897,-9.2245],[-36.3819,-9.2196],[-36.3755,-9.2163],[-36.3654,-9.2222],[-36.358,-9.2179],[-36.3533,-9.2197],[-36.3486,-9.2143],[-36.3536,-9.2008],[-36.3386,-9.2066],[-36.3273,-9.2003],[-36.3212,-9.185],[-36.312,-9.1795],[-36.3095,-9.1719]]]}},{"type":"Feature","properties":{"nome":"Coité do Nóia","cod":"2702009","uf":"AL"},"geometry":{"type":"Polygon","coordinates":[[[-36.5699,-9.5649],[-36.5557,-9.6061],[-36.5556,-9.6063],[-36.5509,-9.6203],[-36.5435,-9.6273],[-36.5422,-9.6409],[-36.5407,-9.6479],[-36.5358,-9.6627],[-36.5562,-9.6775],[-36.5601,-9.6799],[-36.5661,-9.6819],[-36.5832,-9.6999],[-36.5842,-9.6992],[-36.5872,-9.6918],[-36.5945,-9.6918],[-36.5944,-9.6852],[-36.5987,-9.6799],[-36.6097,-9.6651],[-36.6091,-9.6538],[-36.606,-9.6529],[-36.611,-9.6429],[-36.6088,-9.6357],[-36.615,-9.6269],[-36.6257,-9.6323],[-36.63,-9.63],[-36.6232,-9.6207],[-36.6156,-9.6227],[-36.6112,-9.6202],[-36.614,-9.6095],[-36.6192,-9.6083],[-36.6237,-9.6021],[-36.6205,-9.5869],[-36.6236,-9.581],[-36.6206,-9.5778],[-36.6132,-9.5796],[-36.6024,-9.5755],[-36.601,-9.5676],[-36.5894,-9.5725],[-36.5826,-9.5714],[-36.5748,-9.5662],[-36.5735,-9.565],[-36.5699,-9.5649]]]}},{"type":"Feature","properties":{"nome":"Colônia Leopoldina","cod":"2702108","uf":"AL"},"geometry":{"type":"Polygon","coordinates":[[[-35.7947,-8.8473],[-35.7903,-8.853],[-35.7873,-8.8507],[-35.781,-8.8605],[-35.7757,-8.858],[-35.7765,-8.8686],[-35.7833,-8.8816],[-35.7788,-8.8882],[-35.7827,-8.8971],[-35.7779,-8.8985],[-35.7729,-8.9057],[-35.7606,-8.9077],[-35.7481,-8.9167],[-35.7287,-8.9101],[-35.723,-8.9091],[-35.72,-8.9074],[-35.7134,-8.9044],[-35.6999,-8.9062],[-35.6872,-8.8981],[-35.6697,-8.8948],[-35.6644,-8.8906],[-35.6572,-8.8802],[-35.6517,-8.8818],[-35.6458,-8.8963],[-35.6641,-8.9159],[-35.6808,-8.9337],[-35.68,-8.9363],[-35.6779,-8.944],[-35.6971,-8.9608],[-35.7132,-8.9751],[-35.7167,-9.0149],[-35.6774,-9.0093],[-35.6823,-9.0289],[-35.7437,-9.0125],[-35.7564,-9.0091],[-35.7565,-9.0091],[-35.8342,-8.9839],[-35.835,-8.9443],[-35.8266,-8.8697],[-35.8226,-8.857],[-35.8196,-8.8565],[-35.8076,-8.86],[-35.7947,-8.8473]]]}},{"type":"Feature","properties":{"nome":"Coqueiro Seco","cod":"2702207","uf":"AL"},"geometry":{"type":"Polygon","coordinates":[[[-35.7693,-9.6348],[-35.78,-9.6553],[-35.7799,-9.6665],[-35.7852,-9.6691],[-35.7908,-9.6802],[-35.8043,-9.6767],[-35.8102,-9.6594],[-35.8148,-9.6551],[-35.8241,-9.6574],[-35.8304,-9.6547],[-35.8331,-9.6545],[-35.8641,-9.6544],[-35.8673,-9.6262],[-35.8448,-9.6411],[-35.8258,-9.6397],[-35.8122,-9.6175],[-35.7934,-9.5998],[-35.7821,-9.6219],[-35.7696,-9.6342],[-35.7693,-9.6348]]]}},{"type":"Feature","properties":{"nome":"Coruripe","cod":"2702306","uf":"AL"},"geometry":{"type":"Polygon","coordinates":[[[-36.0562,-10.0114],[-36.0557,-10.0267],[-36.0521,-10.0305],[-36.0573,-10.0409],[-36.0415,-10.0507],[-36.0357,-10.0463],[-36.0304,-10.0466],[-36.0311,-10.0504],[-36.0428,-10.0643],[-36.046,-10.0752],[-36.0588,-10.0851],[-36.069,-10.0841],[-36.0836,-10.0903],[-36.1019,-10.1133],[-36.1083,-10.1255],[-36.1096,-10.1279],[-36.1106,-10.1298],[-36.121,-10.1373],[-36.135,-10.1588],[-36.1387,-10.1543],[-36.1455,-10.1544],[-36.1705,-10.1708],[-36.1862,-10.197],[-36.2227,-10.2227],[-36.2342,-10.2385],[-36.2493,-10.2518],[-36.2718,-10.2746],[-36.3571,-10.246],[-36.3735,-10.2405],[-36.3756,-10.2398],[-36.3861,-10.2364],[-36.3835,-10.2325],[-36.3734,-10.2322],[-36.372,-10.2238],[-36.3645,-10.2256],[-36.3565,-10.22],[-36.3516,-10.2122],[-36.3531,-10.2042],[-36.3354,-10.1799],[-36.343,-10.1643],[-36.3598,-10.1568],[-36.3621,-10.1489],[-36.3617,-10.1212],[-36.3756,-10.1054],[-36.3994,-10.1014],[-36.3989,-10.0846],[-36.4004,-10.0819],[-36.414,-10.0836],[-36.4197,-10.0651],[-36.4199,-10.0681],[-36.4345,-10.0732],[-36.4483,-10.0598],[-36.4481,-10.0473],[-36.4533,-10.0379],[-36.4165,-10.0362],[-36.3656,-10.0337],[-36.305,-10.0308],[-36.3039,-10.0307],[-36.3052,-10.019],[-36.2977,-10.0124],[-36.2909,-9.9998],[-36.2849,-9.9668],[-36.2808,-9.9346],[-36.2801,-9.9346],[-36.1235,-9.9334],[-36.1114,-9.9465],[-36.1058,-9.9511],[-36.1018,-9.9618],[-36.082,-9.9793],[-36.0737,-10.0029],[-36.0562,-10.0114]]]}},{"type":"Feature","properties":{"nome":"Craíbas","cod":"2702355","uf":"AL"},"geometry":{"type":"Polygon","coordinates":[[[-36.8311,-9.5515],[-36.8136,-9.5632],[-36.7852,-9.5498],[-36.774,-9.5571],[-36.7629,-9.5587],[-36.7561,-9.5653],[-36.7537,-9.5765],[-36.7437,-9.5748],[-36.7273,-9.5727],[-36.7193,-9.5796],[-36.7068,-9.5842],[-36.695,-9.5795],[-36.6977,-9.5989],[-36.6883,-9.5965],[-36.6831,-9.6002],[-36.6868,-9.6141],[-36.6874,-9.6267],[-36.6927,-9.6334],[-36.6963,-9.638],[-36.7163,-9.6633],[-36.7271,-9.677],[-36.7337,-9.6854],[-36.734,-9.6859],[-36.7424,-9.6966],[-36.7525,-9.7094],[-36.7713,-9.7331],[-36.7938,-9.7102],[-36.8057,-9.7029],[-36.8171,-9.6982],[-36.8171,-9.6865],[-36.8678,-9.6598],[-36.8726,-9.6454],[-36.9026,-9.6255],[-36.901,-9.6242],[-36.9047,-9.6158],[-36.8891,-9.6065],[-36.8878,-9.599],[-36.8768,-9.5937],[-36.8715,-9.5842],[-36.8499,-9.5698],[-36.8419,-9.5725],[-36.8421,-9.5649],[-36.8311,-9.5515]]]}},{"type":"Feature","properties":{"nome":"Delmiro Gouveia","cod":"2702405","uf":"AL"},"geometry":{"type":"Polygon","coordinates":[[[-37.8836,-9.4237],[-37.8854,-9.4333],[-37.8914,-9.4334],[-37.8919,-9.4437],[-37.8964,-9.4483],[-37.8923,-9.4561],[-37.8981,-9.4795],[-37.8975,-9.4957],[-37.8927,-9.5021],[-37.895,-9.5138],[-37.8881,-9.5203],[-37.8902,-9.5246],[-37.8874,-9.53],[-37.8943,-9.5341],[-37.8938,-9.5391],[-37.9168,-9.5485],[-37.9559,-9.5337],[-37.989,-9.5269],[-38.0029,-9.5146],[-37.9976,-9.4989],[-38.0106,-9.4783],[-38.0196,-9.4755],[-38.0218,-9.4696],[-38.03,-9.4665],[-38.0428,-9.4682],[-38.0572,-9.4588],[-38.0675,-9.4581],[-38.0699,-9.4476],[-38.0794,-9.44],[-38.1086,-9.4352],[-38.121,-9.4412],[-38.1416,-9.4373],[-38.1546,-9.443],[-38.1773,-9.425],[-38.1945,-9.4215],[-38.1966,-9.4209],[-38.2047,-9.4163],[-38.2015,-9.4],[-38.1938,-9.394],[-38.1952,-9.3917],[-38.1941,-9.3845],[-38.1999,-9.379],[-38.2092,-9.3582],[-38.2232,-9.3465],[-38.2372,-9.3294],[-38.2017,-9.2964],[-38.1803,-9.2913],[-38.1767,-9.2882],[-38.1576,-9.2634],[-38.156,-9.2492],[-38.1274,-9.2665],[-38.1216,-9.2701],[-38.0479,-9.3146],[-38.0071,-9.3382],[-37.9404,-9.3761],[-37.8762,-9.4125],[-37.8774,-9.42],[-37.8836,-9.4237]]]}},{"type":"Feature","properties":{"nome":"Dois Riachos","cod":"2702504","uf":"AL"},"geometry":{"type":"Polygon","coordinates":[[[-37.0239,-9.3153],[-37.003,-9.3522],[-36.9766,-9.361],[-36.9769,-9.3612],[-36.9917,-9.3742],[-37.0224,-9.3692],[-37.0273,-9.3835],[-37.0299,-9.3919],[-37.0339,-9.4036],[-37.0382,-9.4164],[-37.1029,-9.4559],[-37.1033,-9.456],[-37.1171,-9.4596],[-37.1174,-9.4373],[-37.1485,-9.4355],[-37.1462,-9.4172],[-37.12,-9.3876],[-37.1094,-9.3803],[-37.1024,-9.3613],[-37.0904,-9.3506],[-37.0884,-9.3332],[-37.0827,-9.3251],[-37.0735,-9.3177],[-37.0592,-9.3181],[-37.0572,-9.3171],[-37.055,-9.307],[-37.0452,-9.3155],[-37.0239,-9.3153]]]}},{"type":"Feature","properties":{"nome":"Estrela de Alagoas","cod":"2702553","uf":"AL"},"geometry":{"type":"Polygon","coordinates":[[[-36.7093,-9.4776],[-36.7086,-9.4847],[-36.7304,-9.4847],[-36.7543,-9.4848],[-36.7544,-9.4848],[-36.7933,-9.485],[-36.8046,-9.4912],[-36.8326,-9.5063],[-36.8327,-9.4974],[-36.843,-9.4861],[-36.8411,-9.4788],[-36.8435,-9.475],[-36.8398,-9.4692],[-36.842,-9.4657],[-36.8448,-9.451],[-36.8446,-9.4402],[-36.829,-9.4276],[-36.8274,-9.4151],[-36.8326,-9.4078],[-36.8265,-9.3911],[-36.8262,-9.3905],[-36.8026,-9.3676],[-36.7965,-9.3561],[-36.7979,-9.3473],[-36.7968,-9.2929],[-36.7968,-9.2926],[-36.7731,-9.2792],[-36.7584,-9.271],[-36.7279,-9.2728],[-36.6935,-9.2749],[-36.6978,-9.2911],[-36.7122,-9.3136],[-36.7169,-9.3416],[-36.7202,-9.3488],[-36.72,-9.3626],[-36.7139,-9.3676],[-36.7126,-9.3753],[-36.7124,-9.3765],[-36.7124,-9.3767],[-36.7124,-9.3769],[-36.717,-9.3871],[-36.7235,-9.3899],[-36.7233,-9.3974],[-36.7233,-9.3975],[-36.7224,-9.4265],[-36.7224,-9.4266],[-36.7215,-9.4334],[-36.7168,-9.4387],[-36.719,-9.4516],[-36.7206,-9.46],[-36.7197,-9.4705],[-36.7093,-9.4776]]]}},{"type":"Feature","properties":{"nome":"Feira Grande","cod":"2702603","uf":"AL"},"geometry":{"type":"Polygon","coordinates":[[[-36.6039,-9.8722],[-36.6038,-9.8761],[-36.6032,-9.9024],[-36.6115,-9.9048],[-36.6116,-9.905],[-36.6144,-9.9123],[-36.6116,-9.9145],[-36.6128,-9.9246],[-36.6128,-9.9247],[-36.613,-9.9361],[-36.6132,-9.9506],[-36.6305,-9.9519],[-36.6247,-9.965],[-36.6306,-9.9687],[-36.628,-9.9798],[-36.6415,-9.9816],[-36.6405,-9.986],[-36.6463,-9.9858],[-36.6491,-9.984],[-36.6851,-9.9648],[-36.6853,-9.9623],[-36.6728,-9.9371],[-36.6802,-9.9297],[-36.6823,-9.9321],[-36.6889,-9.927],[-36.6882,-9.9218],[-36.6928,-9.9193],[-36.692,-9.9118],[-36.7067,-9.9091],[-36.7189,-9.9002],[-36.7232,-9.9046],[-36.7273,-9.9037],[-36.7349,-9.888],[-36.7423,-9.8898],[-36.7456,-9.8834],[-36.7515,-9.8827],[-36.7505,-9.8826],[-36.7217,-9.8815],[-36.7329,-9.8687],[-36.7242,-9.8538],[-36.7142,-9.8404],[-36.7018,-9.8239],[-36.7018,-9.8238],[-36.6888,-9.8065],[-36.6905,-9.8037],[-36.6653,-9.812],[-36.6413,-9.8269],[-36.6315,-9.8333],[-36.6308,-9.8337],[-36.6308,-9.8337],[-36.6299,-9.8364],[-36.6183,-9.8624],[-36.6039,-9.8722]]]}},{"type":"Feature","properties":{"nome":"Feliz Deserto","cod":"2702702","uf":"AL"},"geometry":{"type":"Polygon","coordinates":[[[-36.3019,-10.3422],[-36.3134,-10.3466],[-36.3296,-10.3358],[-36.3465,-10.3287],[-36.3923,-10.3096],[-36.3773,-10.2937],[-36.3828,-10.2726],[-36.3922,-10.2677],[-36.3953,-10.2594],[-36.3976,-10.2463],[-36.3884,-10.2395],[-36.3861,-10.2364],[-36.3756,-10.2398],[-36.3735,-10.2405],[-36.3571,-10.246],[-36.2718,-10.2746],[-36.2918,-10.3],[-36.2988,-10.3141],[-36.3024,-10.3257],[-36.3019,-10.3422]]]}},{"type":"Feature","properties":{"nome":"Flexeiras","cod":"2702801","uf":"AL"},"geometry":{"type":"Polygon","coordinates":[[[-35.7246,-9.1249],[-35.7129,-9.1806],[-35.712,-9.1851],[-35.7027,-9.2293],[-35.6932,-9.26],[-35.6918,-9.2852],[-35.6916,-9.2981],[-35.6861,-9.3703],[-35.6874,-9.3704],[-35.7458,-9.3838],[-35.7693,-9.3892],[-35.7689,-9.3496],[-35.7688,-9.3345],[-35.7687,-9.3086],[-35.7883,-9.2852],[-35.7957,-9.2763],[-35.7958,-9.2762],[-35.8042,-9.2661],[-35.8199,-9.2651],[-35.836,-9.2641],[-35.8342,-9.2352],[-35.8426,-9.2205],[-35.8605,-9.1882],[-35.8882,-9.1379],[-35.8705,-9.1356],[-35.8445,-9.151],[-35.8406,-9.1502],[-35.8297,-9.1493],[-35.8167,-9.1586],[-35.7925,-9.1575],[-35.7685,-9.1459],[-35.7548,-9.1391],[-35.7459,-9.1366],[-35.7248,-9.1245],[-35.7246,-9.1249]]]}},{"type":"Feature","properties":{"nome":"Girau do Ponciano","cod":"2702900","uf":"AL"},"geometry":{"type":"Polygon","coordinates":[[[-36.9404,-9.6265],[-36.9081,-9.6277],[-36.9026,-9.6255],[-36.8726,-9.6454],[-36.8678,-9.6598],[-36.8171,-9.6865],[-36.8171,-9.6982],[-36.8057,-9.7029],[-36.7938,-9.7102],[-36.7713,-9.7331],[-36.7711,-9.7335],[-36.7533,-9.7582],[-36.7461,-9.768],[-36.7549,-9.782],[-36.763,-9.7945],[-36.7649,-9.8019],[-36.7582,-9.8207],[-36.7582,-9.8208],[-36.7592,-9.8259],[-36.7582,-9.8386],[-36.764,-9.8487],[-36.7515,-9.8827],[-36.7592,-9.9002],[-36.7695,-9.9084],[-36.7781,-9.9118],[-36.7908,-9.9292],[-36.7847,-9.9421],[-36.7864,-9.9459],[-36.7934,-9.9465],[-36.7935,-9.9531],[-36.7979,-9.9585],[-36.8106,-9.9605],[-36.8227,-9.9502],[-36.8287,-9.9423],[-36.8268,-9.9288],[-36.8488,-9.9292],[-36.8809,-9.9024],[-36.91,-9.893],[-36.9101,-9.893],[-36.9226,-9.8816],[-36.9212,-9.8556],[-36.9205,-9.8422],[-36.9192,-9.819],[-36.916,-9.8172],[-36.9031,-9.8101],[-36.9024,-9.7926],[-36.9016,-9.7722],[-36.9003,-9.7395],[-36.9692,-9.6937],[-36.9644,-9.6743],[-36.9602,-9.6728],[-36.9585,-9.6653],[-36.9538,-9.662],[-36.9528,-9.6527],[-36.952,-9.643],[-36.943,-9.6397],[-36.946,-9.633],[-36.9404,-9.6265]]]}},{"type":"Feature","properties":{"nome":"Ibateguara","cod":"2703007","uf":"AL"},"geometry":{"type":"Polygon","coordinates":[[[-35.8959,-8.8538],[-35.8866,-8.8626],[-35.8616,-8.8579],[-35.8509,-8.8676],[-35.8488,-8.8714],[-35.8447,-8.8721],[-35.8367,-8.8683],[-35.8266,-8.8697],[-35.835,-8.9443],[-35.8342,-8.9839],[-35.8602,-9.0531],[-35.869,-9.0549],[-35.8787,-9.0541],[-35.884,-9.0665],[-35.8895,-9.0674],[-35.9018,-9.0591],[-35.9031,-9.0476],[-35.9111,-9.0418],[-35.9189,-9.042],[-35.9255,-9.0316],[-35.945,-9.036],[-35.9542,-9.0306],[-35.9601,-9.0076],[-35.9616,-8.9972],[-35.9524,-8.9853],[-35.9656,-8.9757],[-35.9561,-8.9729],[-35.96,-8.9667],[-35.972,-8.9697],[-35.9766,-8.951],[-35.9732,-8.9449],[-35.9763,-8.9322],[-35.9724,-8.9289],[-35.9607,-8.9346],[-35.9568,-8.9305],[-35.9658,-8.9221],[-35.9595,-8.9199],[-35.9616,-8.9165],[-35.9551,-8.901],[-35.9609,-8.8939],[-35.9503,-8.8919],[-35.9422,-8.8852],[-35.9239,-8.8842],[-35.9161,-8.8672],[-35.9111,-8.8609],[-35.9007,-8.862],[-35.8959,-8.8538]]]}},{"type":"Feature","properties":{"nome":"Igaci","cod":"2703106","uf":"AL"},"geometry":{"type":"Polygon","coordinates":[[[-36.6596,-9.4945],[-36.6407,-9.5014],[-36.637,-9.4994],[-36.6254,-9.4908],[-36.6151,-9.4832],[-36.6145,-9.4828],[-36.5698,-9.4869],[-36.5317,-9.5317],[-36.5442,-9.5341],[-36.5545,-9.5407],[-36.5586,-9.5498],[-36.5659,-9.5553],[-36.5662,-9.5605],[-36.5714,-9.561],[-36.5735,-9.565],[-36.5748,-9.5662],[-36.5826,-9.5714],[-36.5894,-9.5725],[-36.601,-9.5676],[-36.6024,-9.5755],[-36.6132,-9.5796],[-36.6206,-9.5778],[-36.6236,-9.581],[-36.6205,-9.5869],[-36.6237,-9.6021],[-36.6192,-9.6083],[-36.614,-9.6095],[-36.6112,-9.6202],[-36.6156,-9.6227],[-36.6232,-9.6207],[-36.63,-9.63],[-36.6257,-9.6323],[-36.615,-9.6269],[-36.6088,-9.6357],[-36.611,-9.6429],[-36.606,-9.6529],[-36.6091,-9.6538],[-36.6226,-9.655],[-36.6313,-9.6437],[-36.6372,-9.6361],[-36.6584,-9.6414],[-36.6784,-9.6367],[-36.6927,-9.6334],[-36.6874,-9.6267],[-36.6868,-9.6141],[-36.6831,-9.6002],[-36.6883,-9.5965],[-36.6977,-9.5989],[-36.695,-9.5795],[-36.7068,-9.5842],[-36.7193,-9.5796],[-36.7273,-9.5727],[-36.7437,-9.5748],[-36.7537,-9.5765],[-36.7561,-9.5653],[-36.7629,-9.5587],[-36.774,-9.5571],[-36.7852,-9.5498],[-36.8136,-9.5632],[-36.8311,-9.5515],[-36.8384,-9.539],[-36.8367,-9.5315],[-36.831,-9.5276],[-36.8406,-9.5113],[-36.8326,-9.5063],[-36.8046,-9.4912],[-36.7933,-9.485],[-36.7544,-9.4848],[-36.7543,-9.4848],[-36.7304,-9.4847],[-36.7086,-9.4847],[-36.7081,-9.4847],[-36.6859,-9.4854],[-36.6599,-9.4944],[-36.6596,-9.4945]]]}},{"type":"Feature","properties":{"nome":"Igreja Nova","cod":"2703205","uf":"AL"},"geometry":{"type":"Polygon","coordinates":[[[-36.6344,-10.2492],[-36.6306,-10.2536],[-36.6322,-10.2531],[-36.6441,-10.2521],[-36.6576,-10.2649],[-36.679,-10.2694],[-36.6813,-10.273],[-36.6848,-10.2748],[-36.7017,-10.2705],[-36.7201,-10.2645],[-36.7235,-10.2532],[-36.7217,-10.2364],[-36.7358,-10.1577],[-36.7444,-10.1445],[-36.7239,-10.1401],[-36.6973,-10.1298],[-36.6833,-10.1255],[-36.6808,-10.1143],[-36.6807,-10.114],[-36.6736,-10.0943],[-36.6725,-10.0789],[-36.6663,-10.0521],[-36.661,-10.0496],[-36.6608,-10.0362],[-36.6574,-10.0338],[-36.6538,-10.034],[-36.6414,-10.0346],[-36.5782,-10.0374],[-36.5169,-10.0401],[-36.5149,-10.0439],[-36.5072,-10.0688],[-36.491,-10.0707],[-36.4955,-10.0877],[-36.5017,-10.0942],[-36.5043,-10.1255],[-36.5102,-10.1456],[-36.511,-10.1482],[-36.5182,-10.1647],[-36.5235,-10.1765],[-36.5585,-10.1836],[-36.5618,-10.1843],[-36.5762,-10.1917],[-36.5965,-10.1937],[-36.6359,-10.2225],[-36.6598,-10.2459],[-36.6344,-10.2492]]]}},{"type":"Feature","properties":{"nome":"Inhapi","cod":"2703304","uf":"AL"},"geometry":{"type":"Polygon","coordinates":[[[-37.608,-9.2806],[-37.5944,-9.2905],[-37.5874,-9.2884],[-37.5856,-9.2956],[-37.5924,-9.3136],[-37.6113,-9.3383],[-37.6183,-9.3578],[-37.6362,-9.3762],[-37.6465,-9.3914],[-37.6476,-9.4011],[-37.654,-9.4043],[-37.6546,-9.4084],[-37.656,-9.408],[-37.6568,-9.4071],[-37.7279,-9.3335],[-37.742,-9.32],[-37.7706,-9.2926],[-37.781,-9.2825],[-37.8248,-9.2394],[-37.842,-9.222],[-37.8415,-9.2059],[-37.8012,-9.2024],[-37.7587,-9.1988],[-37.7584,-9.1988],[-37.7227,-9.1951],[-37.7152,-9.1905],[-37.6921,-9.1764],[-37.6897,-9.177],[-37.626,-9.1928],[-37.6215,-9.1939],[-37.618,-9.2053],[-37.6231,-9.2098],[-37.6245,-9.2199],[-37.6125,-9.2262],[-37.6102,-9.2321],[-37.6197,-9.2378],[-37.6205,-9.2467],[-37.612,-9.2499],[-37.6085,-9.2649],[-37.6111,-9.2724],[-37.608,-9.2806]]]}},{"type":"Feature","properties":{"nome":"Jacaré dos Homens","cod":"2703403","uf":"AL"},"geometry":{"type":"Polygon","coordinates":[[[-37.1525,-9.6135],[-37.1668,-9.6422],[-37.1906,-9.69],[-37.204,-9.6918],[-37.215,-9.6958],[-37.2147,-9.7034],[-37.2198,-9.7028],[-37.2191,-9.7094],[-37.2211,-9.7227],[-37.2288,-9.722],[-37.2293,-9.7299],[-37.2364,-9.7309],[-37.2393,-9.7364],[-37.2881,-9.6861],[-37.3027,-9.6356],[-37.29,-9.6339],[-37.2791,-9.6362],[-37.2533,-9.6318],[-37.2495,-9.6319],[-37.2416,-9.6208],[-37.2354,-9.6119],[-37.255,-9.5809],[-37.2002,-9.5968],[-37.1631,-9.6076],[-37.1579,-9.608],[-37.1562,-9.6128],[-37.1525,-9.6135]]]}},{"type":"Feature","properties":{"nome":"Jacuípe","cod":"2703502","uf":"AL"},"geometry":{"type":"Polygon","coordinates":[[[-35.462,-8.8184],[-35.4664,-8.8278],[-35.4615,-8.8297],[-35.4595,-8.8374],[-35.4505,-8.8409],[-35.4355,-8.8405],[-35.4316,-8.8356],[-35.4164,-8.8384],[-35.414,-8.836],[-35.4087,-8.8376],[-35.4072,-8.842],[-35.3997,-8.8499],[-35.3826,-8.8523],[-35.3504,-8.8603],[-35.3416,-8.8742],[-35.3593,-8.8845],[-35.3633,-8.8951],[-35.3633,-8.8952],[-35.3666,-8.9084],[-35.3717,-8.912],[-35.3661,-8.943],[-35.3781,-8.9681],[-35.4216,-8.9203],[-35.4324,-8.9372],[-35.4325,-8.9374],[-35.45,-8.9638],[-35.4524,-8.9604],[-35.4494,-8.9598],[-35.4487,-8.9537],[-35.4572,-8.946],[-35.4643,-8.9469],[-35.4746,-8.9379],[-35.4729,-8.9428],[-35.4755,-8.9437],[-35.4913,-8.9406],[-35.4962,-8.9319],[-35.4958,-8.9232],[-35.5,-8.9185],[-35.4966,-8.9097],[-35.4972,-8.8924],[-35.5152,-8.8811],[-35.536,-8.8883],[-35.5437,-8.8597],[-35.5479,-8.8441],[-35.5395,-8.8207],[-35.5349,-8.819],[-35.5311,-8.8279],[-35.5174,-8.8163],[-35.5112,-8.8171],[-35.5039,-8.8219],[-35.5001,-8.8197],[-35.5,-8.8245],[-35.4954,-8.8279],[-35.4931,-8.8249],[-35.4818,-8.8257],[-35.4803,-8.8195],[-35.4759,-8.8179],[-35.4698,-8.8127],[-35.462,-8.8184]]]}},{"type":"Feature","properties":{"nome":"Japaratinga","cod":"2703601","uf":"AL"},"geometry":{"type":"Polygon","coordinates":[[[-35.2594,-9.0688],[-35.2511,-9.0718],[-35.2409,-9.0647],[-35.2402,-9.0643],[-35.2387,-9.0681],[-35.2436,-9.0762],[-35.2545,-9.0854],[-35.2574,-9.0905],[-35.2586,-9.1002],[-35.2655,-9.1099],[-35.2674,-9.112],[-35.2701,-9.1221],[-35.2826,-9.1278],[-35.2862,-9.1458],[-35.2854,-9.1472],[-35.288,-9.1541],[-35.2947,-9.1553],[-35.2894,-9.148],[-35.2918,-9.1455],[-35.3119,-9.1466],[-35.3119,-9.1401],[-35.3069,-9.1376],[-35.3057,-9.1402],[-35.3007,-9.1356],[-35.3256,-9.1199],[-35.3297,-9.1008],[-35.3381,-9.0728],[-35.3364,-9.0618],[-35.3363,-9.0616],[-35.3338,-9.0538],[-35.336,-9.0388],[-35.3357,-9.0315],[-35.3027,-9.028],[-35.2868,-9.0333],[-35.2594,-9.0688]]]}},{"type":"Feature","properties":{"nome":"Jaramataia","cod":"2703700","uf":"AL"},"geometry":{"type":"Polygon","coordinates":[[[-36.901,-9.6242],[-36.9026,-9.6255],[-36.9081,-9.6277],[-36.9404,-9.6265],[-36.946,-9.633],[-36.943,-9.6397],[-36.952,-9.643],[-36.9528,-9.6527],[-36.9538,-9.662],[-36.9585,-9.6653],[-36.9602,-9.6728],[-36.9644,-9.6743],[-36.9692,-9.6937],[-36.9764,-9.6929],[-36.9792,-9.7005],[-36.9852,-9.7044],[-36.9847,-9.7145],[-36.9931,-9.7203],[-37.0076,-9.7081],[-37.0314,-9.688],[-37.0668,-9.658],[-37.0673,-9.6365],[-37.0518,-9.6193],[-37.0517,-9.6193],[-37.0016,-9.6299],[-36.8878,-9.599],[-36.8891,-9.6065],[-36.9047,-9.6158],[-36.901,-9.6242]]]}},{"type":"Feature","properties":{"nome":"Jequiá da Praia","cod":"2703759","uf":"AL"},"geometry":{"type":"Polygon","coordinates":[[[-36.1833,-9.8006],[-36.1663,-9.8405],[-36.1657,-9.8492],[-36.1605,-9.8553],[-36.1436,-9.8594],[-36.1342,-9.8388],[-36.1275,-9.8277],[-36.1256,-9.8376],[-36.1226,-9.8383],[-36.1171,-9.8437],[-36.0966,-9.8545],[-36.0876,-9.8685],[-36.0787,-9.8681],[-36.0667,-9.8817],[-36.0651,-9.8754],[-36.0512,-9.8722],[-36.0466,-9.8604],[-36.041,-9.8578],[-36.0209,-9.9199],[-36.0135,-9.9072],[-36.0067,-9.9107],[-36.0054,-9.9083],[-35.9994,-9.915],[-35.9826,-9.9099],[-35.978,-9.9147],[-35.9774,-9.9247],[-35.9677,-9.9293],[-35.962,-9.9408],[-35.9743,-9.9654],[-36.0037,-10.0033],[-36.0311,-10.0504],[-36.0304,-10.0466],[-36.0357,-10.0463],[-36.0415,-10.0507],[-36.0573,-10.0409],[-36.0521,-10.0305],[-36.0557,-10.0267],[-36.0562,-10.0114],[-36.0737,-10.0029],[-36.082,-9.9793],[-36.1018,-9.9618],[-36.1058,-9.9511],[-36.1114,-9.9465],[-36.1235,-9.9334],[-36.2801,-9.9346],[-36.2808,-9.9346],[-36.2807,-9.9341],[-36.1915,-9.891],[-36.179,-9.8889],[-36.1813,-9.8796],[-36.1871,-9.8787],[-36.2392,-9.8713],[-36.2267,-9.8495],[-36.2191,-9.8361],[-36.2111,-9.8423],[-36.2013,-9.8392],[-36.1961,-9.8354],[-36.1962,-9.8289],[-36.2051,-9.8093],[-36.2059,-9.8081],[-36.2078,-9.8052],[-36.1883,-9.7986],[-36.1869,-9.7946],[-36.1833,-9.8006]]]}},{"type":"Feature","properties":{"nome":"Joaquim Gomes","cod":"2703809","uf":"AL"},"geometry":{"type":"Polygon","coordinates":[[[-35.6908,-9.095],[-35.6886,-9.1008],[-35.6861,-9.0992],[-35.6721,-9.0974],[-35.6289,-9.0918],[-35.6251,-9.0968],[-35.6044,-9.1245],[-35.5547,-9.1909],[-35.5135,-9.1905],[-35.5493,-9.226],[-35.5777,-9.2542],[-35.5944,-9.2323],[-35.5958,-9.2263],[-35.5972,-9.2113],[-35.5922,-9.2045],[-35.5906,-9.1912],[-35.5972,-9.1871],[-35.595,-9.1812],[-35.5981,-9.167],[-35.6166,-9.1364],[-35.6355,-9.1192],[-35.6445,-9.1185],[-35.6495,-9.122],[-35.6529,-9.1065],[-35.6642,-9.1074],[-35.6806,-9.0999],[-35.6892,-9.1015],[-35.6974,-9.109],[-35.7098,-9.1129],[-35.7246,-9.1249],[-35.7248,-9.1245],[-35.7459,-9.1366],[-35.7548,-9.1391],[-35.7685,-9.1459],[-35.7925,-9.1575],[-35.8167,-9.1586],[-35.8297,-9.1493],[-35.8406,-9.1502],[-35.8445,-9.151],[-35.8705,-9.1356],[-35.8882,-9.1379],[-35.8831,-9.1222],[-35.8648,-9.0692],[-35.8602,-9.0531],[-35.8342,-8.9839],[-35.7565,-9.0091],[-35.7564,-9.0091],[-35.7437,-9.0125],[-35.6823,-9.0289],[-35.6861,-9.0353],[-35.7089,-9.049],[-35.7047,-9.0823],[-35.6908,-9.095]]]}},{"type":"Feature","properties":{"nome":"Jundiá","cod":"2703908","uf":"AL"},"geometry":{"type":"Polygon","coordinates":[[[-35.5518,-8.9047],[-35.5235,-8.947],[-35.5208,-8.9454],[-35.5155,-8.9484],[-35.504,-8.9493],[-35.4913,-8.9406],[-35.4755,-8.9437],[-35.4729,-8.9428],[-35.4746,-8.9379],[-35.4643,-8.9469],[-35.4572,-8.946],[-35.4487,-8.9537],[-35.4494,-8.9598],[-35.4524,-8.9604],[-35.4692,-8.9722],[-35.5026,-8.9955],[-35.5211,-9.009],[-35.5612,-9.0104],[-35.555,-9.007],[-35.5603,-9.0028],[-35.5603,-8.9982],[-35.5582,-8.9912],[-35.5618,-8.9878],[-35.5688,-8.9837],[-35.5846,-8.9907],[-35.5965,-8.9901],[-35.6025,-8.9841],[-35.6004,-8.9732],[-35.5897,-8.976],[-35.5841,-8.9668],[-35.5826,-8.9603],[-35.5876,-8.9555],[-35.5833,-8.95],[-35.5846,-8.9424],[-35.5813,-8.9407],[-35.5731,-8.9447],[-35.5654,-8.9413],[-35.5719,-8.9211],[-35.579,-8.917],[-35.5788,-8.9112],[-35.5731,-8.9141],[-35.5518,-8.9047]]]}},{"type":"Feature","properties":{"nome":"Junqueiro","cod":"2704005","uf":"AL"},"geometry":{"type":"Polygon","coordinates":[[[-36.3936,-9.7923],[-36.3435,-9.8454],[-36.3403,-9.8492],[-36.3267,-9.8728],[-36.3127,-9.8865],[-36.3484,-9.881],[-36.3535,-9.8803],[-36.3794,-9.8765],[-36.3955,-9.8741],[-36.3985,-9.8877],[-36.4134,-9.9085],[-36.4504,-9.9606],[-36.4616,-9.963],[-36.4693,-9.9711],[-36.4697,-9.9676],[-36.4792,-9.961],[-36.4731,-9.9543],[-36.4706,-9.9396],[-36.4784,-9.9326],[-36.4858,-9.9272],[-36.4919,-9.908],[-36.4941,-9.9052],[-36.4995,-9.8917],[-36.4971,-9.8824],[-36.4962,-9.8665],[-36.503,-9.8573],[-36.5059,-9.8549],[-36.5154,-9.859],[-36.5285,-9.8467],[-36.5546,-9.8389],[-36.5546,-9.8386],[-36.5399,-9.8207],[-36.5264,-9.8042],[-36.5165,-9.8041],[-36.4915,-9.8041],[-36.4692,-9.804],[-36.4411,-9.7911],[-36.4127,-9.7785],[-36.3937,-9.7737],[-36.3936,-9.7923]]]}},{"type":"Feature","properties":{"nome":"Lagoa da Canoa","cod":"2704104","uf":"AL"},"geometry":{"type":"Polygon","coordinates":[[[-36.7329,-9.8687],[-36.7217,-9.8815],[-36.7505,-9.8826],[-36.7515,-9.8827],[-36.764,-9.8487],[-36.7582,-9.8386],[-36.7592,-9.8259],[-36.7582,-9.8208],[-36.7582,-9.8207],[-36.7649,-9.8019],[-36.763,-9.7945],[-36.7549,-9.782],[-36.7461,-9.768],[-36.7533,-9.7582],[-36.7711,-9.7335],[-36.7713,-9.7331],[-36.7525,-9.7094],[-36.7346,-9.7366],[-36.734,-9.7375],[-36.7209,-9.7574],[-36.7166,-9.764],[-36.6983,-9.7918],[-36.6905,-9.8037],[-36.6888,-9.8065],[-36.7018,-9.8238],[-36.7018,-9.8239],[-36.7142,-9.8404],[-36.7242,-9.8538],[-36.7329,-9.8687]]]}},{"type":"Feature","properties":{"nome":"Limoeiro de Anadia","cod":"2704203","uf":"AL"},"geometry":{"type":"Polygon","coordinates":[[[-36.3719,-9.6796],[-36.3704,-9.6975],[-36.3428,-9.7128],[-36.3424,-9.7381],[-36.347,-9.7481],[-36.3528,-9.7465],[-36.361,-9.7517],[-36.3546,-9.7535],[-36.3538,-9.7568],[-36.3597,-9.7686],[-36.3686,-9.7653],[-36.3851,-9.7695],[-36.3858,-9.7699],[-36.3937,-9.7737],[-36.4127,-9.7785],[-36.4411,-9.7911],[-36.4692,-9.804],[-36.4915,-9.8041],[-36.5165,-9.8041],[-36.5264,-9.8042],[-36.5399,-9.8207],[-36.5546,-9.8386],[-36.5543,-9.8332],[-36.5491,-9.811],[-36.5483,-9.8085],[-36.5555,-9.8047],[-36.5649,-9.8031],[-36.5624,-9.7908],[-36.5524,-9.7705],[-36.5555,-9.7676],[-36.5726,-9.7491],[-36.5775,-9.7367],[-36.5753,-9.7272],[-36.5833,-9.7141],[-36.5812,-9.7078],[-36.5701,-9.7084],[-36.5832,-9.6999],[-36.5661,-9.6819],[-36.5601,-9.6799],[-36.5562,-9.6775],[-36.5358,-9.6627],[-36.5329,-9.6699],[-36.5261,-9.6877],[-36.5083,-9.6912],[-36.4985,-9.6871],[-36.4648,-9.6737],[-36.4459,-9.6684],[-36.4338,-9.6649],[-36.4281,-9.6633],[-36.4072,-9.6573],[-36.388,-9.6513],[-36.3845,-9.6544],[-36.3791,-9.6573],[-36.3719,-9.6796]]]}},{"type":"Feature","properties":{"nome":"Maceió","cod":"2704302","uf":"AL"},"geometry":{"type":"Polygon","coordinates":[[[-35.6173,-9.4693],[-35.5984,-9.4726],[-35.5898,-9.4687],[-35.5798,-9.471],[-35.569,-9.4774],[-35.5621,-9.4793],[-35.5582,-9.487],[-35.5865,-9.5103],[-35.5909,-9.5286],[-35.5952,-9.53],[-35.6049,-9.5311],[-35.6138,-9.5397],[-35.6162,-9.5479],[-35.6301,-9.5516],[-35.6464,-9.5674],[-35.6496,-9.5671],[-35.6594,-9.5833],[-35.6864,-9.6135],[-35.6972,-9.6395],[-35.699,-9.6491],[-35.6945,-9.6644],[-35.7086,-9.665],[-35.7237,-9.6842],[-35.729,-9.6823],[-35.723,-9.6817],[-35.7225,-9.6757],[-35.7295,-9.6709],[-35.7411,-9.6715],[-35.7552,-9.6777],[-35.788,-9.7108],[-35.7942,-9.7127],[-35.7959,-9.7078],[-35.7822,-9.6973],[-35.7908,-9.6802],[-35.7852,-9.6691],[-35.7799,-9.6665],[-35.78,-9.6553],[-35.7693,-9.6348],[-35.7696,-9.6342],[-35.7821,-9.6219],[-35.7934,-9.5998],[-35.8155,-9.5767],[-35.8095,-9.5685],[-35.7962,-9.5311],[-35.784,-9.5062],[-35.7837,-9.5039],[-35.7798,-9.4728],[-35.7693,-9.3894],[-35.7693,-9.3892],[-35.7458,-9.3838],[-35.6874,-9.3704],[-35.6765,-9.398],[-35.672,-9.4093],[-35.6647,-9.4297],[-35.6416,-9.4439],[-35.6255,-9.4475],[-35.6248,-9.4609],[-35.6173,-9.4693]]]}},{"type":"Feature","properties":{"nome":"Major Isidoro","cod":"2704401","uf":"AL"},"geometry":{"type":"Polygon","coordinates":[[[-36.9049,-9.5235],[-36.8763,-9.5347],[-36.8635,-9.5313],[-36.8367,-9.5315],[-36.8384,-9.539],[-36.8311,-9.5515],[-36.8421,-9.5649],[-36.8419,-9.5725],[-36.8499,-9.5698],[-36.8715,-9.5842],[-36.8768,-9.5937],[-36.8878,-9.599],[-37.0016,-9.6299],[-37.0517,-9.6193],[-37.0518,-9.6193],[-37.1096,-9.6056],[-37.1526,-9.6022],[-37.1594,-9.6019],[-37.1205,-9.5385],[-37.1194,-9.5367],[-37.1094,-9.516],[-37.1106,-9.5058],[-37.1144,-9.4966],[-37.104,-9.4916],[-37.1037,-9.4788],[-37.1053,-9.462],[-37.1029,-9.4559],[-37.0382,-9.4164],[-37.0339,-9.4036],[-37.0299,-9.3919],[-37.0195,-9.4134],[-37.0168,-9.4291],[-37.0179,-9.4346],[-37.0037,-9.4492],[-37.0001,-9.4601],[-36.9951,-9.4616],[-36.9862,-9.4725],[-36.9803,-9.4864],[-36.9495,-9.5021],[-36.9049,-9.5235]]]}},{"type":"Feature","properties":{"nome":"Maragogi","cod":"2704500","uf":"AL"},"geometry":{"type":"Polygon","coordinates":[[[-35.299,-8.8732],[-35.2873,-8.8761],[-35.2773,-8.8747],[-35.2525,-8.8868],[-35.2439,-8.8849],[-35.2441,-8.8845],[-35.2433,-8.8847],[-35.2347,-8.8828],[-35.2198,-8.8889],[-35.2111,-8.8884],[-35.2088,-8.8913],[-35.2003,-8.8878],[-35.1705,-8.8906],[-35.1625,-8.897],[-35.1548,-8.9027],[-35.1523,-8.9133],[-35.1559,-8.9223],[-35.1683,-8.9365],[-35.1749,-8.9635],[-35.1858,-8.9802],[-35.1883,-8.9824],[-35.2099,-9.0013],[-35.2233,-9.0194],[-35.2262,-9.0295],[-35.2385,-9.0486],[-35.2371,-9.0604],[-35.2402,-9.0643],[-35.2409,-9.0647],[-35.2511,-9.0718],[-35.2594,-9.0688],[-35.2868,-9.0333],[-35.3027,-9.028],[-35.3097,-9.0245],[-35.3103,-9.0198],[-35.3273,-9.0119],[-35.3309,-9.0128],[-35.3362,-9.0078],[-35.3385,-9.003],[-35.3441,-9.0028],[-35.3429,-8.9999],[-35.3581,-8.9808],[-35.3537,-8.9632],[-35.3661,-8.943],[-35.3717,-8.912],[-35.3666,-8.9084],[-35.3633,-8.8952],[-35.3633,-8.8951],[-35.3593,-8.8845],[-35.3416,-8.8742],[-35.3504,-8.8603],[-35.306,-8.8714],[-35.299,-8.8732]]]}},{"type":"Feature","properties":{"nome":"Maravilha","cod":"2704609","uf":"AL"},"geometry":{"type":"Polygon","coordinates":[[[-37.2464,-9.19],[-37.2388,-9.2029],[-37.2332,-9.2062],[-37.232,-9.2219],[-37.2284,-9.2251],[-37.2847,-9.2453],[-37.2967,-9.2496],[-37.345,-9.2669],[-37.3454,-9.2671],[-37.3791,-9.2792],[-37.3795,-9.2793],[-37.4127,-9.2912],[-37.3884,-9.3201],[-37.4335,-9.3144],[-37.4496,-9.3124],[-37.4714,-9.3097],[-37.5776,-9.2966],[-37.5856,-9.2956],[-37.5874,-9.2884],[-37.5708,-9.2822],[-37.5643,-9.2731],[-37.5483,-9.2667],[-37.5419,-9.2588],[-37.5275,-9.2578],[-37.5169,-9.2418],[-37.4893,-9.2298],[-37.488,-9.225],[-37.4797,-9.2234],[-37.4801,-9.2163],[-37.4753,-9.2106],[-37.4711,-9.2118],[-37.4656,-9.2079],[-37.4085,-9.2019],[-37.3532,-9.1954],[-37.3041,-9.1897],[-37.2954,-9.1887],[-37.2621,-9.1596],[-37.2597,-9.1646],[-37.2429,-9.1856],[-37.2464,-9.19]]]}},{"type":"Feature","properties":{"nome":"Marechal Deodoro","cod":"2704708","uf":"AL"},"geometry":{"type":"Polygon","coordinates":[[[-35.8673,-9.6262],[-35.8641,-9.6544],[-35.8331,-9.6545],[-35.8304,-9.6547],[-35.8241,-9.6574],[-35.8148,-9.6551],[-35.8102,-9.6594],[-35.8043,-9.6767],[-35.7908,-9.6802],[-35.7822,-9.6973],[-35.7959,-9.7078],[-35.7942,-9.7127],[-35.8125,-9.7318],[-35.8196,-9.7442],[-35.8141,-9.7374],[-35.816,-9.7413],[-35.8547,-9.7878],[-35.8622,-9.7913],[-35.9053,-9.8115],[-35.9144,-9.8091],[-35.9262,-9.7953],[-35.9371,-9.7943],[-35.9411,-9.7875],[-35.9562,-9.7863],[-35.9611,-9.7896],[-35.9732,-9.784],[-35.98,-9.7859],[-35.9909,-9.7814],[-36.0004,-9.7741],[-36.0042,-9.7667],[-35.9882,-9.7383],[-35.9871,-9.703],[-35.9923,-9.6932],[-36.018,-9.6871],[-36.0295,-9.6709],[-36.0195,-9.6594],[-36.024,-9.646],[-35.997,-9.661],[-35.9798,-9.6724],[-35.9866,-9.6621],[-35.9782,-9.6434],[-35.971,-9.6438],[-35.9673,-9.6404],[-35.957,-9.6474],[-35.9521,-9.6408],[-35.9422,-9.6397],[-35.8879,-9.6475],[-35.8679,-9.6251],[-35.8673,-9.6262]]]}},{"type":"Feature","properties":{"nome":"Maribondo","cod":"2704807","uf":"AL"},"geometry":{"type":"Polygon","coordinates":[[[-36.2277,-9.5152],[-36.2183,-9.5637],[-36.2137,-9.5698],[-36.1912,-9.5994],[-36.2622,-9.5953],[-36.2536,-9.6235],[-36.2876,-9.6087],[-36.2935,-9.6011],[-36.3176,-9.6071],[-36.3201,-9.6078],[-36.3508,-9.6068],[-36.3442,-9.5999],[-36.3465,-9.5935],[-36.3505,-9.5919],[-36.3572,-9.5852],[-36.3694,-9.581],[-36.3733,-9.5727],[-36.3791,-9.5718],[-36.3788,-9.5681],[-36.3831,-9.5408],[-36.3757,-9.5277],[-36.3794,-9.5194],[-36.3867,-9.5162],[-36.384,-9.5125],[-36.3862,-9.5092],[-36.351,-9.5059],[-36.3395,-9.5112],[-36.3378,-9.512],[-36.3289,-9.5105],[-36.3188,-9.5176],[-36.309,-9.5187],[-36.3068,-9.5222],[-36.2924,-9.5191],[-36.2602,-9.5202],[-36.2405,-9.5099],[-36.2341,-9.502],[-36.2167,-9.4736],[-36.2277,-9.5152]]]}},{"type":"Feature","properties":{"nome":"Mar Vermelho","cod":"2704906","uf":"AL"},"geometry":{"type":"Polygon","coordinates":[[[-36.3427,-9.4929],[-36.3395,-9.5112],[-36.351,-9.5059],[-36.3862,-9.5092],[-36.3967,-9.5085],[-36.4262,-9.5065],[-36.4506,-9.5048],[-36.4681,-9.4851],[-36.4594,-9.4725],[-36.4572,-9.4635],[-36.4515,-9.4566],[-36.4629,-9.4534],[-36.4604,-9.4524],[-36.4296,-9.4399],[-36.389,-9.425],[-36.3391,-9.4642],[-36.3551,-9.4689],[-36.3534,-9.4813],[-36.3427,-9.4929]]]}},{"type":"Feature","properties":{"nome":"Mata Grande","cod":"2705002","uf":"AL"},"geometry":{"type":"Polygon","coordinates":[[[-37.7585,-8.8561],[-37.7484,-8.8699],[-37.7458,-8.8827],[-37.7412,-8.8872],[-37.7348,-8.8872],[-37.7339,-8.8972],[-37.7242,-8.9037],[-37.7263,-8.9056],[-37.7213,-8.9151],[-37.7075,-8.9274],[-37.7029,-8.9377],[-37.7018,-8.9478],[-37.6897,-8.9557],[-37.6837,-8.968],[-37.6882,-8.9783],[-37.703,-8.9857],[-37.7018,-8.9889],[-37.6985,-8.992],[-37.6891,-8.9899],[-37.6856,-8.9983],[-37.6613,-8.9868],[-37.6637,-8.9991],[-37.6587,-9.0061],[-37.6435,-9.0179],[-37.6258,-9.014],[-37.6112,-9.0055],[-37.6164,-9.0002],[-37.6142,-8.9887],[-37.6005,-8.9757],[-37.5833,-8.9697],[-37.5621,-8.9735],[-37.5464,-8.961],[-37.5407,-8.958],[-37.5321,-8.9609],[-37.5298,-8.9627],[-37.5424,-9.0002],[-37.5536,-9.0155],[-37.554,-9.0161],[-37.5735,-9.0426],[-37.6098,-9.0914],[-37.6186,-9.098],[-37.6352,-9.11],[-37.6355,-9.1104],[-37.649,-9.1282],[-37.6621,-9.1454],[-37.6725,-9.158],[-37.6908,-9.1751],[-37.6921,-9.1764],[-37.7152,-9.1905],[-37.7227,-9.1951],[-37.7584,-9.1988],[-37.7587,-9.1988],[-37.8012,-9.2024],[-37.8415,-9.2059],[-37.842,-9.222],[-37.8562,-9.2077],[-37.8744,-9.1894],[-37.8746,-9.1892],[-37.9185,-9.1449],[-37.954,-9.1091],[-37.9512,-9.0969],[-37.9423,-9.0918],[-37.9388,-9.0828],[-37.9075,-9.0518],[-37.9046,-9.0398],[-37.8894,-9.0344],[-37.8824,-9.0402],[-37.8779,-9.0365],[-37.8749,-9.0242],[-37.8792,-9.015],[-37.8741,-9.0111],[-37.8668,-9.0112],[-37.8527,-8.9997],[-37.8519,-8.9973],[-37.8457,-8.9844],[-37.8387,-8.978],[-37.8257,-8.9338],[-37.8259,-8.9323],[-37.8333,-8.926],[-37.8281,-8.9214],[-37.8209,-8.9152],[-37.8225,-8.8996],[-37.8287,-8.8967],[-37.8287,-8.8934],[-37.8115,-8.8843],[-37.8009,-8.8843],[-37.7928,-8.875],[-37.7875,-8.8735],[-37.7823,-8.8648],[-37.7757,-8.8621],[-37.769,-8.8637],[-37.7585,-8.8561]]]}},{"type":"Feature","properties":{"nome":"Matriz de Camaragibe","cod":"2705101","uf":"AL"},"geometry":{"type":"Polygon","coordinates":[[[-35.5005,-9.0807],[-35.5121,-9.0996],[-35.5201,-9.1013],[-35.5262,-9.1179],[-35.5206,-9.1346],[-35.5095,-9.1323],[-35.5026,-9.1341],[-35.5019,-9.1373],[-35.4831,-9.1443],[-35.476,-9.1536],[-35.4682,-9.1664],[-35.4545,-9.1647],[-35.4344,-9.1771],[-35.4528,-9.1818],[-35.4566,-9.1847],[-35.4685,-9.1765],[-35.4829,-9.1753],[-35.4755,-9.1902],[-35.5114,-9.1905],[-35.5135,-9.1905],[-35.5547,-9.1909],[-35.6044,-9.1245],[-35.6251,-9.0968],[-35.6289,-9.0918],[-35.6721,-9.0974],[-35.6861,-9.0992],[-35.6886,-9.1008],[-35.6908,-9.095],[-35.7047,-9.0823],[-35.7089,-9.049],[-35.6861,-9.0353],[-35.6823,-9.0289],[-35.6476,-9.0385],[-35.6191,-9.0463],[-35.5617,-9.0621],[-35.5005,-9.0807]]]}},{"type":"Feature","properties":{"nome":"Messias","cod":"2705200","uf":"AL"},"geometry":{"type":"Polygon","coordinates":[[[-35.8397,-9.4052],[-35.8756,-9.4132],[-35.8626,-9.3881],[-35.862,-9.3869],[-35.8495,-9.362],[-35.8298,-9.3223],[-35.8308,-9.3127],[-35.8382,-9.3089],[-35.8363,-9.2703],[-35.836,-9.2641],[-35.8199,-9.2651],[-35.8042,-9.2661],[-35.7958,-9.2762],[-35.7957,-9.2763],[-35.7883,-9.2852],[-35.7687,-9.3086],[-35.7688,-9.3345],[-35.7689,-9.3496],[-35.7693,-9.3892],[-35.7693,-9.3894],[-35.8397,-9.4052]]]}},{"type":"Feature","properties":{"nome":"Minador do Negrão","cod":"2705309","uf":"AL"},"geometry":{"type":"Polygon","coordinates":[[[-36.848,-9.2763],[-36.8439,-9.2819],[-36.8394,-9.2878],[-36.8357,-9.2882],[-36.7968,-9.2926],[-36.7968,-9.2929],[-36.7979,-9.3473],[-36.7965,-9.3561],[-36.8026,-9.3676],[-36.8262,-9.3905],[-36.8543,-9.3919],[-36.8749,-9.3937],[-36.8972,-9.3968],[-36.9011,-9.3974],[-36.9365,-9.377],[-36.9301,-9.3696],[-36.9364,-9.3608],[-36.9375,-9.3524],[-36.9219,-9.3393],[-36.9206,-9.3321],[-36.927,-9.325],[-36.9213,-9.3132],[-36.9155,-9.2986],[-36.9005,-9.2825],[-36.8895,-9.2832],[-36.8838,-9.2805],[-36.8744,-9.2765],[-36.8794,-9.276],[-36.8709,-9.2677],[-36.848,-9.2763]]]}},{"type":"Feature","properties":{"nome":"Monteirópolis","cod":"2705408","uf":"AL"},"geometry":{"type":"Polygon","coordinates":[[[-37.2416,-9.6208],[-37.2495,-9.6319],[-37.2533,-9.6318],[-37.2791,-9.6362],[-37.29,-9.6339],[-37.3027,-9.6356],[-37.3508,-9.6448],[-37.358,-9.6432],[-37.3556,-9.6382],[-37.3331,-9.5927],[-37.322,-9.5702],[-37.3133,-9.5527],[-37.3047,-9.5355],[-37.255,-9.5809],[-37.2354,-9.6119],[-37.2416,-9.6208]]]}},{"type":"Feature","properties":{"nome":"Murici","cod":"2705507","uf":"AL"},"geometry":{"type":"Polygon","coordinates":[[[-35.8363,-9.2703],[-35.8382,-9.3089],[-35.8308,-9.3127],[-35.8298,-9.3223],[-35.8495,-9.362],[-35.862,-9.3869],[-35.8626,-9.3881],[-35.8756,-9.4132],[-35.9284,-9.3742],[-35.9483,-9.3802],[-35.957,-9.3828],[-36.014,-9.4005],[-36.0297,-9.3742],[-36.0114,-9.3649],[-36.0002,-9.338],[-36.0034,-9.3253],[-36.0454,-9.3329],[-36.0467,-9.3272],[-36.0534,-9.297],[-36.0582,-9.3117],[-36.0584,-9.2933],[-36.0649,-9.2841],[-36.0623,-9.2833],[-36.0038,-9.2652],[-36.0033,-9.2646],[-35.9552,-9.2137],[-35.8882,-9.1379],[-35.8605,-9.1882],[-35.8426,-9.2205],[-35.8342,-9.2352],[-35.836,-9.2641],[-35.8363,-9.2703]]]}},{"type":"Feature","properties":{"nome":"Novo Lino","cod":"2705606","uf":"AL"},"geometry":{"type":"Polygon","coordinates":[[[-35.5817,-8.861],[-35.5762,-8.8648],[-35.5854,-8.8912],[-35.5788,-8.9112],[-35.579,-8.917],[-35.5719,-8.9211],[-35.5654,-8.9413],[-35.5731,-8.9447],[-35.5813,-8.9407],[-35.5846,-8.9424],[-35.5833,-8.95],[-35.5876,-8.9555],[-35.5826,-8.9603],[-35.5841,-8.9668],[-35.5897,-8.976],[-35.6004,-8.9732],[-35.6025,-8.9841],[-35.5965,-8.9901],[-35.5846,-8.9907],[-35.5688,-8.9837],[-35.5618,-8.9878],[-35.5582,-8.9912],[-35.5603,-8.9982],[-35.5603,-9.0028],[-35.555,-9.007],[-35.5612,-9.0104],[-35.5657,-9.0106],[-35.5626,-9.0262],[-35.5655,-9.0363],[-35.5605,-9.0419],[-35.5617,-9.0621],[-35.6191,-9.0463],[-35.6476,-9.0385],[-35.6823,-9.0289],[-35.6774,-9.0093],[-35.7167,-9.0149],[-35.7132,-8.9751],[-35.6971,-8.9608],[-35.6779,-8.944],[-35.68,-8.9363],[-35.6808,-8.9337],[-35.6641,-8.9159],[-35.6458,-8.8963],[-35.6517,-8.8818],[-35.6288,-8.8789],[-35.6135,-8.864],[-35.6052,-8.8647],[-35.5959,-8.8606],[-35.5938,-8.8544],[-35.5822,-8.846],[-35.5698,-8.8424],[-35.5811,-8.856],[-35.5817,-8.861]]]}},{"type":"Feature","properties":{"nome":"Olho d'Água das Flores","cod":"2705705","uf":"AL"},"geometry":{"type":"Polygon","coordinates":[[[-37.2089,-9.5227],[-37.1731,-9.564],[-37.1572,-9.5824],[-37.1205,-9.5385],[-37.1594,-9.6019],[-37.1631,-9.6076],[-37.2002,-9.5968],[-37.255,-9.5809],[-37.3047,-9.5355],[-37.3133,-9.5527],[-37.3452,-9.5375],[-37.3478,-9.5363],[-37.3728,-9.5244],[-37.3352,-9.4886],[-37.3338,-9.4874],[-37.3106,-9.4669],[-37.2695,-9.4531],[-37.2091,-9.5225],[-37.2089,-9.5227]]]}},{"type":"Feature","properties":{"nome":"Olho d'Água do Casado","cod":"2705804","uf":"AL"},"geometry":{"type":"Polygon","coordinates":[[[-37.742,-9.32],[-37.7279,-9.3335],[-37.7279,-9.3336],[-37.7227,-9.3838],[-37.7412,-9.4068],[-37.7482,-9.4155],[-37.7562,-9.4254],[-37.7751,-9.4477],[-37.7735,-9.4687],[-37.7767,-9.4724],[-37.7798,-9.4882],[-37.7896,-9.5019],[-37.7949,-9.5036],[-37.7957,-9.5094],[-37.7873,-9.5219],[-37.7941,-9.5344],[-37.7937,-9.5439],[-37.8024,-9.5416],[-37.8019,-9.5461],[-37.8062,-9.5448],[-37.8097,-9.5479],[-37.816,-9.5437],[-37.8189,-9.5479],[-37.8331,-9.55],[-37.8444,-9.5686],[-37.8419,-9.579],[-37.8858,-9.5497],[-37.8938,-9.5391],[-37.8943,-9.5341],[-37.8874,-9.53],[-37.8902,-9.5246],[-37.8881,-9.5203],[-37.895,-9.5138],[-37.8927,-9.5021],[-37.8975,-9.4957],[-37.8981,-9.4795],[-37.8923,-9.4561],[-37.8964,-9.4483],[-37.8919,-9.4437],[-37.8914,-9.4334],[-37.8854,-9.4333],[-37.8836,-9.4237],[-37.8774,-9.42],[-37.8762,-9.4125],[-37.875,-9.4046],[-37.8703,-9.4064],[-37.8664,-9.4016],[-37.8616,-9.4015],[-37.8615,-9.3971],[-37.8517,-9.3908],[-37.8482,-9.374],[-37.8368,-9.3637],[-37.834,-9.3523],[-37.8337,-9.3521],[-37.8275,-9.3507],[-37.8204,-9.3353],[-37.8149,-9.3354],[-37.8066,-9.328],[-37.7946,-9.3289],[-37.7792,-9.3247],[-37.7768,-9.3073],[-37.7706,-9.2926],[-37.742,-9.32]]]}},{"type":"Feature","properties":{"nome":"Olho d'Água Grande","cod":"2705903","uf":"AL"},"geometry":{"type":"Polygon","coordinates":[[[-36.8199,-10.0018],[-36.8092,-10.0094],[-36.799,-10.0056],[-36.7964,-10.009],[-36.786,-10.0145],[-36.7891,-10.0155],[-36.7879,-10.0208],[-36.7772,-10.024],[-36.7433,-10.034],[-36.7134,-10.0428],[-36.7135,-10.0432],[-36.714,-10.0534],[-36.7265,-10.0652],[-36.7348,-10.0817],[-36.7349,-10.0822],[-36.7373,-10.0861],[-36.7453,-10.0883],[-36.7608,-10.105],[-36.7669,-10.1169],[-36.7697,-10.1237],[-36.7892,-10.1049],[-36.8,-10.1015],[-36.8061,-10.0939],[-36.813,-10.0914],[-36.8213,-10.0742],[-36.8627,-10.0588],[-36.8658,-10.0578],[-36.872,-10.0579],[-36.8744,-10.0531],[-36.8685,-10.0467],[-36.8633,-10.0312],[-36.8544,-10.0219],[-36.8427,-10.0098],[-36.8338,-10.0124],[-36.8199,-10.0018]]]}},{"type":"Feature","properties":{"nome":"Olivença","cod":"2706000","uf":"AL"},"geometry":{"type":"Polygon","coordinates":[[[-37.1174,-9.4373],[-37.1171,-9.4596],[-37.1033,-9.456],[-37.1029,-9.4559],[-37.1053,-9.462],[-37.1037,-9.4788],[-37.104,-9.4916],[-37.1144,-9.4966],[-37.1106,-9.5058],[-37.1094,-9.516],[-37.1194,-9.5367],[-37.1205,-9.5385],[-37.1572,-9.5824],[-37.1731,-9.564],[-37.2089,-9.5227],[-37.2091,-9.5225],[-37.2695,-9.4531],[-37.2662,-9.4491],[-37.2459,-9.4469],[-37.2166,-9.4427],[-37.211,-9.4436],[-37.2074,-9.4342],[-37.1992,-9.4321],[-37.185,-9.433],[-37.1606,-9.4347],[-37.155,-9.4351],[-37.1485,-9.4355],[-37.1174,-9.4373]]]}},{"type":"Feature","properties":{"nome":"Ouro Branco","cod":"2706109","uf":"AL"},"geometry":{"type":"Polygon","coordinates":[[[-37.4085,-9.2019],[-37.4656,-9.2079],[-37.463,-9.2023],[-37.4575,-9.2018],[-37.4564,-9.1972],[-37.4426,-9.1908],[-37.4232,-9.1631],[-37.423,-9.1599],[-37.424,-9.1573],[-37.4196,-9.1379],[-37.4258,-9.1207],[-37.4262,-9.1019],[-37.4203,-9.0856],[-37.4202,-9.0852],[-37.4198,-9.0831],[-37.4194,-9.0754],[-37.4005,-9.0518],[-37.392,-9.0553],[-37.3402,-9.0791],[-37.3365,-9.0805],[-37.3274,-9.0928],[-37.3152,-9.0939],[-37.3104,-9.1],[-37.3107,-9.1071],[-37.2965,-9.1204],[-37.2876,-9.1359],[-37.2819,-9.1484],[-37.2622,-9.1585],[-37.2621,-9.1596],[-37.2954,-9.1887],[-37.3041,-9.1897],[-37.3532,-9.1954],[-37.4085,-9.2019]]]}},{"type":"Feature","properties":{"nome":"Palestina","cod":"2706208","uf":"AL"},"geometry":{"type":"Polygon","coordinates":[[[-37.3027,-9.6356],[-37.2881,-9.6861],[-37.2393,-9.7364],[-37.3281,-9.7106],[-37.3348,-9.7024],[-37.3461,-9.6884],[-37.372,-9.6755],[-37.3589,-9.6748],[-37.3463,-9.6699],[-37.3358,-9.6713],[-37.3175,-9.6599],[-37.3027,-9.6356]]]}},{"type":"Feature","properties":{"nome":"Palmeira dos Índios","cod":"2706307","uf":"AL"},"geometry":{"type":"Polygon","coordinates":[[[-36.6568,-9.3107],[-36.6494,-9.315],[-36.6443,-9.3139],[-36.6403,-9.3199],[-36.6351,-9.3204],[-36.6343,-9.3265],[-36.6284,-9.3279],[-36.6275,-9.3319],[-36.6245,-9.3314],[-36.5929,-9.3604],[-36.5822,-9.3534],[-36.5744,-9.3573],[-36.5499,-9.3537],[-36.5505,-9.3434],[-36.5292,-9.3644],[-36.5237,-9.3698],[-36.5055,-9.3877],[-36.4865,-9.4056],[-36.4853,-9.4067],[-36.4823,-9.4122],[-36.4604,-9.4524],[-36.4629,-9.4534],[-36.4515,-9.4566],[-36.4572,-9.4635],[-36.4594,-9.4725],[-36.4681,-9.4851],[-36.4799,-9.4937],[-36.4879,-9.5018],[-36.4947,-9.501],[-36.4999,-9.4959],[-36.502,-9.5004],[-36.5175,-9.5035],[-36.5249,-9.5145],[-36.5268,-9.5285],[-36.5317,-9.5317],[-36.5698,-9.4869],[-36.6145,-9.4828],[-36.6151,-9.4832],[-36.6254,-9.4908],[-36.637,-9.4994],[-36.6407,-9.5014],[-36.6596,-9.4945],[-36.6599,-9.4944],[-36.6859,-9.4854],[-36.7081,-9.4847],[-36.7086,-9.4847],[-36.7093,-9.4776],[-36.7197,-9.4705],[-36.7206,-9.46],[-36.719,-9.4516],[-36.7168,-9.4387],[-36.7215,-9.4334],[-36.7224,-9.4266],[-36.7224,-9.4265],[-36.7233,-9.3975],[-36.7233,-9.3974],[-36.7235,-9.3899],[-36.717,-9.3871],[-36.7124,-9.3769],[-36.7124,-9.3767],[-36.7124,-9.3765],[-36.7126,-9.3753],[-36.7139,-9.3676],[-36.72,-9.3626],[-36.7202,-9.3488],[-36.7169,-9.3416],[-36.7122,-9.3136],[-36.6978,-9.2911],[-36.6935,-9.2749],[-36.6846,-9.2826],[-36.6793,-9.2871],[-36.6568,-9.3107]]]}},{"type":"Feature","properties":{"nome":"Pão de Açúcar","cod":"2706406","uf":"AL"},"geometry":{"type":"Polygon","coordinates":[[[-37.4703,-9.6433],[-37.4676,-9.6494],[-37.3585,-9.6333],[-37.3556,-9.6382],[-37.358,-9.6432],[-37.3508,-9.6448],[-37.3027,-9.6356],[-37.3175,-9.6599],[-37.3358,-9.6713],[-37.3463,-9.6699],[-37.3589,-9.6748],[-37.372,-9.6755],[-37.3461,-9.6884],[-37.3348,-9.7024],[-37.3281,-9.7106],[-37.2393,-9.7364],[-37.2484,-9.7386],[-37.2514,-9.7516],[-37.273,-9.7669],[-37.2752,-9.7738],[-37.2865,-9.7717],[-37.2851,-9.7783],[-37.2971,-9.783],[-37.3009,-9.7882],[-37.3012,-9.7936],[-37.3095,-9.8033],[-37.298,-9.817],[-37.2969,-9.8272],[-37.3113,-9.8241],[-37.3208,-9.82],[-37.3397,-9.8001],[-37.348,-9.7927],[-37.3625,-9.7865],[-37.3726,-9.7837],[-37.3973,-9.7771],[-37.4085,-9.7681],[-37.4174,-9.7625],[-37.4499,-9.7529],[-37.4665,-9.7491],[-37.4734,-9.7464],[-37.5239,-9.7445],[-37.5273,-9.7437],[-37.5532,-9.7402],[-37.5716,-9.7383],[-37.5813,-9.7337],[-37.6016,-9.7188],[-37.6034,-9.7178],[-37.6447,-9.6913],[-37.6565,-9.6832],[-37.66,-9.6768],[-37.6568,-9.671],[-37.6562,-9.6697],[-37.659,-9.6537],[-37.6372,-9.6033],[-37.6491,-9.5774],[-37.6634,-9.5568],[-37.6673,-9.5443],[-37.6678,-9.5383],[-37.6719,-9.5353],[-37.6586,-9.5194],[-37.6364,-9.5219],[-37.6131,-9.5331],[-37.5908,-9.5344],[-37.5475,-9.5607],[-37.5398,-9.5647],[-37.5358,-9.5778],[-37.5249,-9.5882],[-37.4955,-9.609],[-37.4906,-9.6172],[-37.4791,-9.624],[-37.4732,-9.6344],[-37.4705,-9.6424],[-37.4703,-9.6433]]]}},{"type":"Feature","properties":{"nome":"Pariconha","cod":"2706422","uf":"AL"},"geometry":{"type":"Polygon","coordinates":[[[-38.0029,-9.1615],[-37.9996,-9.1735],[-37.985,-9.1786],[-37.9711,-9.213],[-37.9741,-9.2162],[-37.9727,-9.2208],[-37.9772,-9.2316],[-37.9871,-9.2423],[-37.9598,-9.2463],[-37.9716,-9.2565],[-37.9787,-9.2678],[-37.9841,-9.2842],[-37.9776,-9.2985],[-37.9816,-9.301],[-37.979,-9.3066],[-37.9855,-9.3303],[-38.0023,-9.3364],[-38.0071,-9.3382],[-38.0479,-9.3146],[-38.1216,-9.2701],[-38.1274,-9.2665],[-38.156,-9.2492],[-38.156,-9.2487],[-38.156,-9.2419],[-38.1436,-9.2178],[-38.1189,-9.2014],[-38.1022,-9.1798],[-38.0919,-9.1723],[-38.0789,-9.1701],[-38.0657,-9.1738],[-38.0524,-9.1674],[-38.0442,-9.1684],[-38.0299,-9.1645],[-38.0254,-9.1551],[-38.0107,-9.1556],[-38.0029,-9.1615]]]}},{"type":"Feature","properties":{"nome":"Paripueira","cod":"2706448","uf":"AL"},"geometry":{"type":"Polygon","coordinates":[[[-35.6658,-9.3982],[-35.6504,-9.4044],[-35.6407,-9.4013],[-35.6232,-9.4069],[-35.6207,-9.4095],[-35.6159,-9.4066],[-35.6107,-9.4041],[-35.6105,-9.4063],[-35.5998,-9.4058],[-35.595,-9.4082],[-35.5919,-9.4054],[-35.5709,-9.401],[-35.5637,-9.404],[-35.5539,-9.4039],[-35.5486,-9.4036],[-35.5442,-9.4101],[-35.5457,-9.4164],[-35.5369,-9.4232],[-35.5338,-9.4301],[-35.5297,-9.4376],[-35.528,-9.4362],[-35.5249,-9.4425],[-35.5304,-9.4569],[-35.5356,-9.4577],[-35.5534,-9.4741],[-35.5582,-9.487],[-35.5621,-9.4793],[-35.569,-9.4774],[-35.5798,-9.471],[-35.5898,-9.4687],[-35.5984,-9.4726],[-35.6173,-9.4693],[-35.6248,-9.4609],[-35.6255,-9.4475],[-35.6416,-9.4439],[-35.6647,-9.4297],[-35.672,-9.4093],[-35.6765,-9.398],[-35.6658,-9.3982]]]}},{"type":"Feature","properties":{"nome":"Passo de Camaragibe","cod":"2706505","uf":"AL"},"geometry":{"type":"Polygon","coordinates":[[[-35.4569,-9.3421],[-35.4634,-9.3473],[-35.4748,-9.3381],[-35.5133,-9.3073],[-35.5362,-9.2891],[-35.5552,-9.274],[-35.5681,-9.2638],[-35.5771,-9.2559],[-35.5777,-9.2542],[-35.5493,-9.226],[-35.5135,-9.1905],[-35.5114,-9.1905],[-35.4755,-9.1902],[-35.4758,-9.1997],[-35.4691,-9.2123],[-35.4653,-9.2241],[-35.424,-9.2454],[-35.4153,-9.2565],[-35.3954,-9.2717],[-35.3865,-9.2858],[-35.3962,-9.3026],[-35.414,-9.3125],[-35.4212,-9.3152],[-35.414,-9.3178],[-35.4154,-9.3207],[-35.4282,-9.3218],[-35.4372,-9.327],[-35.4404,-9.3386],[-35.4569,-9.3421]]]}},{"type":"Feature","properties":{"nome":"Paulo Jacinto","cod":"2706604","uf":"AL"},"geometry":{"type":"Polygon","coordinates":[[[-36.3658,-9.361],[-36.3661,-9.3777],[-36.3618,-9.3825],[-36.3663,-9.3836],[-36.3736,-9.3746],[-36.3741,-9.375],[-36.3868,-9.4174],[-36.389,-9.425],[-36.4296,-9.4399],[-36.4604,-9.4524],[-36.4823,-9.4122],[-36.4853,-9.4067],[-36.4445,-9.3964],[-36.4285,-9.3641],[-36.4249,-9.3581],[-36.41,-9.35],[-36.3985,-9.3391],[-36.3761,-9.3376],[-36.3904,-9.2925],[-36.3396,-9.2863],[-36.3658,-9.361]]]}},{"type":"Feature","properties":{"nome":"Penedo","cod":"2706703","uf":"AL"},"geometry":{"type":"Polygon","coordinates":[[[-36.4483,-10.0598],[-36.4345,-10.0732],[-36.4199,-10.0681],[-36.4197,-10.0651],[-36.414,-10.0836],[-36.4004,-10.0819],[-36.3989,-10.0846],[-36.3994,-10.1014],[-36.3756,-10.1054],[-36.3617,-10.1212],[-36.3621,-10.1489],[-36.3598,-10.1568],[-36.343,-10.1643],[-36.3354,-10.1799],[-36.3531,-10.2042],[-36.3516,-10.2122],[-36.3565,-10.22],[-36.3645,-10.2256],[-36.372,-10.2238],[-36.3734,-10.2322],[-36.3835,-10.2325],[-36.3861,-10.2364],[-36.3884,-10.2395],[-36.3976,-10.2463],[-36.3953,-10.2594],[-36.3922,-10.2677],[-36.3828,-10.2726],[-36.3773,-10.2937],[-36.3923,-10.3096],[-36.3981,-10.3025],[-36.4166,-10.3285],[-36.428,-10.3264],[-36.4472,-10.3349],[-36.4599,-10.3326],[-36.4904,-10.349],[-36.4959,-10.3549],[-36.4902,-10.3562],[-36.4913,-10.3642],[-36.5069,-10.3678],[-36.5076,-10.3787],[-36.4896,-10.3784],[-36.4879,-10.3821],[-36.4925,-10.3883],[-36.5056,-10.3926],[-36.5015,-10.4038],[-36.5013,-10.4041],[-36.4871,-10.4225],[-36.4893,-10.4236],[-36.5097,-10.4324],[-36.5219,-10.4327],[-36.519,-10.4243],[-36.5102,-10.421],[-36.5382,-10.4219],[-36.5443,-10.4296],[-36.5627,-10.4193],[-36.5652,-10.4114],[-36.5616,-10.404],[-36.5613,-10.3853],[-36.564,-10.3797],[-36.5682,-10.3621],[-36.5656,-10.3291],[-36.5656,-10.3291],[-36.5738,-10.3148],[-36.5886,-10.3014],[-36.5908,-10.287],[-36.5952,-10.2837],[-36.5992,-10.2814],[-36.6119,-10.2706],[-36.6216,-10.2588],[-36.6251,-10.2559],[-36.6306,-10.2536],[-36.6344,-10.2492],[-36.6598,-10.2459],[-36.6359,-10.2225],[-36.5965,-10.1937],[-36.5762,-10.1917],[-36.5618,-10.1843],[-36.5585,-10.1836],[-36.5235,-10.1765],[-36.5182,-10.1647],[-36.511,-10.1482],[-36.5102,-10.1456],[-36.5043,-10.1255],[-36.5017,-10.0942],[-36.4955,-10.0877],[-36.491,-10.0707],[-36.4793,-10.0581],[-36.4546,-10.0318],[-36.4533,-10.0379],[-36.4481,-10.0473],[-36.4483,-10.0598]]]}},{"type":"Feature","properties":{"nome":"Piaçabuçu","cod":"2706802","uf":"AL"},"geometry":{"type":"Polygon","coordinates":[[[-36.3923,-10.3096],[-36.3465,-10.3287],[-36.3296,-10.3358],[-36.3134,-10.3466],[-36.3019,-10.3422],[-36.2934,-10.3545],[-36.3,-10.362],[-36.3071,-10.3638],[-36.3355,-10.4033],[-36.385,-10.4989],[-36.3935,-10.4999],[-36.4048,-10.4818],[-36.4049,-10.4813],[-36.417,-10.4536],[-36.4301,-10.4249],[-36.4376,-10.418],[-36.4433,-10.4176],[-36.4565,-10.4069],[-36.4632,-10.4063],[-36.4871,-10.4225],[-36.4871,-10.4225],[-36.5013,-10.4041],[-36.5015,-10.4038],[-36.5056,-10.3926],[-36.4925,-10.3883],[-36.4879,-10.3821],[-36.4896,-10.3784],[-36.5076,-10.3787],[-36.5069,-10.3678],[-36.4913,-10.3642],[-36.4902,-10.3562],[-36.4959,-10.3549],[-36.4904,-10.349],[-36.4599,-10.3326],[-36.4472,-10.3349],[-36.428,-10.3264],[-36.4166,-10.3285],[-36.3981,-10.3025],[-36.3923,-10.3096]]]}},{"type":"Feature","properties":{"nome":"Pilar","cod":"2706901","uf":"AL"},"geometry":{"type":"Polygon","coordinates":[[[-35.946,-9.5419],[-35.8872,-9.5898],[-35.8803,-9.5972],[-35.8804,-9.6011],[-35.8771,-9.6008],[-35.8679,-9.6251],[-35.8879,-9.6475],[-35.9422,-9.6397],[-35.9521,-9.6408],[-35.957,-9.6474],[-35.9673,-9.6404],[-35.971,-9.6438],[-35.9782,-9.6434],[-35.9866,-9.6621],[-35.9798,-9.6724],[-35.997,-9.661],[-36.024,-9.646],[-36.0195,-9.6594],[-36.0295,-9.6709],[-36.0339,-9.6683],[-36.0747,-9.6733],[-36.083,-9.664],[-36.0857,-9.6613],[-36.0897,-9.6552],[-36.0987,-9.6515],[-36.1012,-9.645],[-36.1033,-9.6411],[-36.1049,-9.6389],[-36.111,-9.6456],[-36.1159,-9.6494],[-36.1279,-9.6485],[-36.1318,-9.6507],[-36.1341,-9.6451],[-36.1406,-9.645],[-36.1412,-9.6384],[-36.1554,-9.6245],[-36.1766,-9.6209],[-36.1814,-9.6124],[-36.1736,-9.6118],[-36.1584,-9.6184],[-36.1497,-9.6116],[-36.1382,-9.6126],[-36.1303,-9.6042],[-36.1262,-9.5981],[-36.1196,-9.5952],[-36.0924,-9.6008],[-36.081,-9.5982],[-36.0174,-9.5755],[-36.0056,-9.5858],[-36.0004,-9.5752],[-35.9768,-9.5557],[-35.9793,-9.55],[-35.9594,-9.5276],[-35.9495,-9.5329],[-35.9452,-9.5368],[-35.946,-9.5419]]]}},{"type":"Feature","properties":{"nome":"Pindoba","cod":"2707008","uf":"AL"},"geometry":{"type":"Polygon","coordinates":[[[-36.3017,-9.4257],[-36.2692,-9.4371],[-36.2659,-9.4384],[-36.2108,-9.4526],[-36.2077,-9.455],[-36.2167,-9.4736],[-36.2341,-9.502],[-36.2405,-9.5099],[-36.2602,-9.5202],[-36.2924,-9.5191],[-36.3068,-9.5222],[-36.309,-9.5187],[-36.3188,-9.5176],[-36.3289,-9.5105],[-36.3378,-9.512],[-36.3395,-9.5112],[-36.3427,-9.4929],[-36.3534,-9.4813],[-36.3551,-9.4689],[-36.3391,-9.4642],[-36.3477,-9.452],[-36.3498,-9.448],[-36.3294,-9.4426],[-36.3239,-9.4411],[-36.3212,-9.4317],[-36.3161,-9.4321],[-36.3104,-9.4277],[-36.3045,-9.4297],[-36.3017,-9.4257]]]}},{"type":"Feature","properties":{"nome":"Piranhas","cod":"2707107","uf":"AL"},"geometry":{"type":"Polygon","coordinates":[[[-37.6719,-9.5353],[-37.6678,-9.5383],[-37.6673,-9.5443],[-37.6634,-9.5568],[-37.6491,-9.5774],[-37.6372,-9.6033],[-37.659,-9.6537],[-37.6562,-9.6697],[-37.6568,-9.671],[-37.66,-9.6768],[-37.6661,-9.6656],[-37.6705,-9.6562],[-37.6805,-9.6476],[-37.6865,-9.6442],[-37.7114,-9.6309],[-37.7367,-9.6266],[-37.7465,-9.6253],[-37.7783,-9.6383],[-37.7847,-9.6382],[-37.7873,-9.6326],[-37.7928,-9.6202],[-37.8067,-9.6097],[-37.8179,-9.5925],[-37.8234,-9.5909],[-37.8328,-9.5945],[-37.8372,-9.5829],[-37.8419,-9.579],[-37.8444,-9.5686],[-37.8331,-9.55],[-37.8189,-9.5479],[-37.816,-9.5437],[-37.8097,-9.5479],[-37.8062,-9.5448],[-37.8019,-9.5461],[-37.8024,-9.5416],[-37.7937,-9.5439],[-37.7941,-9.5344],[-37.7873,-9.5219],[-37.7957,-9.5094],[-37.7949,-9.5036],[-37.7896,-9.5019],[-37.7798,-9.4882],[-37.7767,-9.4724],[-37.7735,-9.4687],[-37.7751,-9.4477],[-37.7562,-9.4254],[-37.7482,-9.4155],[-37.7412,-9.4068],[-37.7227,-9.3838],[-37.7279,-9.3336],[-37.7279,-9.3335],[-37.6568,-9.4071],[-37.656,-9.408],[-37.6654,-9.44],[-37.6639,-9.4452],[-37.6708,-9.4619],[-37.6663,-9.4787],[-37.6647,-9.4886],[-37.674,-9.4988],[-37.6711,-9.5038],[-37.6758,-9.5208],[-37.6719,-9.5353]]]}},{"type":"Feature","properties":{"nome":"Poço das Trincheiras","cod":"2707206","uf":"AL"},"geometry":{"type":"Polygon","coordinates":[[[-37.198,-9.2151],[-37.1586,-9.2387],[-37.1679,-9.2514],[-37.1687,-9.2652],[-37.1688,-9.2653],[-37.1836,-9.2754],[-37.1862,-9.2782],[-37.2025,-9.2912],[-37.2153,-9.3113],[-37.2173,-9.3121],[-37.2831,-9.3419],[-37.2836,-9.342],[-37.3087,-9.3496],[-37.321,-9.3519],[-37.3368,-9.35],[-37.36,-9.3562],[-37.3729,-9.3568],[-37.3896,-9.3518],[-37.4029,-9.3617],[-37.4228,-9.3598],[-37.4442,-9.3572],[-37.4838,-9.3446],[-37.491,-9.337],[-37.5185,-9.3098],[-37.5601,-9.3047],[-37.5776,-9.2966],[-37.4714,-9.3097],[-37.4496,-9.3124],[-37.4335,-9.3144],[-37.3884,-9.3201],[-37.4127,-9.2912],[-37.3795,-9.2793],[-37.3791,-9.2792],[-37.3454,-9.2671],[-37.345,-9.2669],[-37.2967,-9.2496],[-37.2847,-9.2453],[-37.2284,-9.2251],[-37.2335,-9.2317],[-37.234,-9.2396],[-37.2072,-9.2179],[-37.198,-9.2151]]]}},{"type":"Feature","properties":{"nome":"Porto Calvo","cod":"2707305","uf":"AL"},"geometry":{"type":"Polygon","coordinates":[[[-35.4216,-8.9203],[-35.3781,-8.9681],[-35.3661,-8.943],[-35.3537,-8.9632],[-35.3581,-8.9808],[-35.3429,-8.9999],[-35.3441,-9.0028],[-35.3385,-9.003],[-35.3362,-9.0078],[-35.3309,-9.0128],[-35.3273,-9.0119],[-35.3103,-9.0198],[-35.3097,-9.0245],[-35.3027,-9.028],[-35.3357,-9.0315],[-35.336,-9.0388],[-35.3338,-9.0538],[-35.3363,-9.0616],[-35.3364,-9.0618],[-35.3381,-9.0728],[-35.3297,-9.1008],[-35.3256,-9.1199],[-35.3007,-9.1356],[-35.3057,-9.1402],[-35.3069,-9.1376],[-35.3119,-9.1401],[-35.3119,-9.1466],[-35.3208,-9.1468],[-35.3363,-9.1376],[-35.3323,-9.1308],[-35.3397,-9.1285],[-35.3407,-9.1231],[-35.3426,-9.1258],[-35.3524,-9.1251],[-35.3524,-9.1217],[-35.3465,-9.1198],[-35.3572,-9.1127],[-35.3564,-9.1084],[-35.3482,-9.112],[-35.3545,-9.103],[-35.359,-9.1058],[-35.3607,-9.1023],[-35.3649,-9.1028],[-35.3596,-9.0916],[-35.3672,-9.0951],[-35.3673,-9.0915],[-35.3634,-9.0899],[-35.3657,-9.0856],[-35.3716,-9.0884],[-35.4134,-9.0786],[-35.4205,-9.077],[-35.4262,-9.0695],[-35.4386,-9.0667],[-35.4556,-9.0681],[-35.4657,-9.0756],[-35.4815,-9.0724],[-35.4976,-9.0802],[-35.5005,-9.0807],[-35.5617,-9.0621],[-35.5605,-9.0419],[-35.5655,-9.0363],[-35.5626,-9.0262],[-35.5657,-9.0106],[-35.5612,-9.0104],[-35.5211,-9.009],[-35.5026,-8.9955],[-35.4692,-8.9722],[-35.4524,-8.9604],[-35.45,-8.9638],[-35.4325,-8.9374],[-35.4324,-8.9372],[-35.4216,-8.9203]]]}},{"type":"Feature","properties":{"nome":"Porto de Pedras","cod":"2707404","uf":"AL"},"geometry":{"type":"Polygon","coordinates":[[[-35.4262,-9.0695],[-35.4205,-9.077],[-35.4134,-9.0786],[-35.3716,-9.0884],[-35.3657,-9.0856],[-35.3634,-9.0899],[-35.3673,-9.0915],[-35.3672,-9.0951],[-35.3596,-9.0916],[-35.3649,-9.1028],[-35.3607,-9.1023],[-35.359,-9.1058],[-35.3545,-9.103],[-35.3482,-9.112],[-35.3564,-9.1084],[-35.3572,-9.1127],[-35.3465,-9.1198],[-35.3524,-9.1217],[-35.3524,-9.1251],[-35.3426,-9.1258],[-35.3407,-9.1231],[-35.3397,-9.1285],[-35.3323,-9.1308],[-35.3363,-9.1376],[-35.3208,-9.1468],[-35.3119,-9.1466],[-35.2918,-9.1455],[-35.2894,-9.148],[-35.2947,-9.1553],[-35.2944,-9.1696],[-35.2991,-9.182],[-35.3063,-9.193],[-35.3198,-9.1991],[-35.3296,-9.2216],[-35.342,-9.2306],[-35.3422,-9.2308],[-35.3488,-9.2296],[-35.359,-9.2288],[-35.3776,-9.2093],[-35.4274,-9.1934],[-35.4755,-9.1902],[-35.4829,-9.1753],[-35.4685,-9.1765],[-35.4566,-9.1847],[-35.4528,-9.1818],[-35.4344,-9.1771],[-35.4545,-9.1647],[-35.4682,-9.1664],[-35.476,-9.1536],[-35.4831,-9.1443],[-35.5019,-9.1373],[-35.5026,-9.1341],[-35.5095,-9.1323],[-35.5206,-9.1346],[-35.5262,-9.1179],[-35.5201,-9.1013],[-35.5121,-9.0996],[-35.5005,-9.0807],[-35.4976,-9.0802],[-35.4815,-9.0724],[-35.4657,-9.0756],[-35.4556,-9.0681],[-35.4386,-9.0667],[-35.4262,-9.0695]]]}},{"type":"Feature","properties":{"nome":"Porto Real do Colégio","cod":"2707503","uf":"AL"},"geometry":{"type":"Polygon","coordinates":[[[-36.6476,-10.0115],[-36.6499,-10.0167],[-36.6544,-10.0131],[-36.6553,-10.0186],[-36.6513,-10.0265],[-36.6574,-10.0338],[-36.6608,-10.0362],[-36.661,-10.0496],[-36.6663,-10.0521],[-36.6725,-10.0789],[-36.6736,-10.0943],[-36.6807,-10.114],[-36.6808,-10.1143],[-36.6833,-10.1255],[-36.6973,-10.1298],[-36.7239,-10.1401],[-36.7444,-10.1445],[-36.7358,-10.1577],[-36.7217,-10.2364],[-36.7235,-10.2532],[-36.7201,-10.2645],[-36.7362,-10.2516],[-36.7442,-10.2517],[-36.7558,-10.2459],[-36.7504,-10.237],[-36.7558,-10.2313],[-36.7765,-10.2255],[-36.8081,-10.2204],[-36.8186,-10.2154],[-36.8193,-10.2149],[-36.8353,-10.2036],[-36.8453,-10.189],[-36.8462,-10.1861],[-36.8468,-10.1797],[-36.8469,-10.1758],[-36.836,-10.1638],[-36.8256,-10.1556],[-36.8172,-10.1471],[-36.7961,-10.1389],[-36.7697,-10.1237],[-36.7669,-10.1169],[-36.7608,-10.105],[-36.7453,-10.0883],[-36.7373,-10.0861],[-36.7349,-10.0822],[-36.7348,-10.0817],[-36.7265,-10.0652],[-36.714,-10.0534],[-36.7135,-10.0432],[-36.7134,-10.0428],[-36.7133,-10.0426],[-36.7048,-10.0192],[-36.7065,-9.9999],[-36.6853,-9.9623],[-36.6851,-9.9648],[-36.6491,-9.984],[-36.6463,-9.9858],[-36.6467,-9.9875],[-36.6427,-9.9933],[-36.6484,-9.9965],[-36.6537,-10.0052],[-36.6479,-10.0066],[-36.6476,-10.0115]]]}},{"type":"Feature","properties":{"nome":"Quebrangulo","cod":"2707602","uf":"AL"},"geometry":{"type":"Polygon","coordinates":[[[-36.4195,-9.2291],[-36.415,-9.2293],[-36.4083,-9.2215],[-36.3725,-9.2553],[-36.3476,-9.2787],[-36.3396,-9.2863],[-36.3904,-9.2925],[-36.3761,-9.3376],[-36.3985,-9.3391],[-36.41,-9.35],[-36.4249,-9.3581],[-36.4285,-9.3641],[-36.4445,-9.3964],[-36.4853,-9.4067],[-36.4865,-9.4056],[-36.5055,-9.3877],[-36.5237,-9.3698],[-36.5292,-9.3644],[-36.5505,-9.3434],[-36.5499,-9.3537],[-36.5744,-9.3573],[-36.5822,-9.3534],[-36.5929,-9.3604],[-36.6245,-9.3314],[-36.6231,-9.3262],[-36.6193,-9.3284],[-36.6147,-9.3232],[-36.6144,-9.3306],[-36.6125,-9.3335],[-36.6074,-9.333],[-36.6047,-9.3411],[-36.5927,-9.3344],[-36.5859,-9.3377],[-36.5757,-9.3315],[-36.5671,-9.3317],[-36.5636,-9.3224],[-36.5679,-9.3179],[-36.5724,-9.3196],[-36.5715,-9.2922],[-36.549,-9.2851],[-36.503,-9.2706],[-36.5,-9.2624],[-36.4983,-9.2645],[-36.491,-9.262],[-36.4924,-9.2538],[-36.4895,-9.2522],[-36.4876,-9.2412],[-36.481,-9.239],[-36.4758,-9.2434],[-36.4622,-9.2388],[-36.4574,-9.2327],[-36.4533,-9.232],[-36.4539,-9.2252],[-36.4409,-9.2187],[-36.4367,-9.2117],[-36.423,-9.2152],[-36.424,-9.2256],[-36.4195,-9.2291]]]}},{"type":"Feature","properties":{"nome":"Rio Largo","cod":"2707701","uf":"AL"},"geometry":{"type":"Polygon","coordinates":[[[-35.9284,-9.3742],[-35.8756,-9.4132],[-35.8397,-9.4052],[-35.7693,-9.3894],[-35.7798,-9.4728],[-35.7837,-9.5039],[-35.784,-9.5062],[-35.7962,-9.5311],[-35.797,-9.5314],[-35.8141,-9.5367],[-35.8178,-9.5385],[-35.8186,-9.5426],[-35.8299,-9.545],[-35.8331,-9.5526],[-35.8352,-9.5548],[-35.8767,-9.5635],[-35.8872,-9.5898],[-35.946,-9.5419],[-35.9452,-9.5368],[-35.9495,-9.5329],[-35.9594,-9.5276],[-35.9401,-9.4976],[-35.9326,-9.4798],[-35.9342,-9.4469],[-35.9366,-9.401],[-35.9284,-9.3742]]]}},{"type":"Feature","properties":{"nome":"Roteiro","cod":"2707800","uf":"AL"},"geometry":{"type":"Polygon","coordinates":[[[-36.0053,-9.8107],[-35.9974,-9.8191],[-35.9907,-9.818],[-35.9836,-9.8255],[-35.9743,-9.8264],[-35.9671,-9.8304],[-35.9609,-9.8354],[-35.9604,-9.8363],[-35.9498,-9.8448],[-35.9379,-9.8444],[-35.9224,-9.8375],[-35.9144,-9.8415],[-35.9102,-9.846],[-35.9026,-9.8599],[-35.9025,-9.8696],[-35.9349,-9.8988],[-35.962,-9.9408],[-35.9677,-9.9293],[-35.9774,-9.9247],[-35.978,-9.9147],[-35.9826,-9.9099],[-35.9994,-9.915],[-36.0054,-9.9083],[-36.0067,-9.9107],[-36.0135,-9.9072],[-36.0209,-9.9199],[-36.041,-9.8578],[-36.0439,-9.8492],[-36.0393,-9.834],[-36.0382,-9.8139],[-36.0263,-9.8108],[-36.015,-9.8074],[-36.0053,-9.8107]]]}},{"type":"Feature","properties":{"nome":"Santa Luzia do Norte","cod":"2707909","uf":"AL"},"geometry":{"type":"Polygon","coordinates":[[[-35.7934,-9.5998],[-35.8122,-9.6175],[-35.8258,-9.6397],[-35.8448,-9.6411],[-35.8673,-9.6262],[-35.8561,-9.6152],[-35.8547,-9.6096],[-35.8523,-9.6083],[-35.8499,-9.6116],[-35.8519,-9.6064],[-35.8451,-9.6057],[-35.83,-9.5847],[-35.8251,-9.5821],[-35.8251,-9.577],[-35.8155,-9.5767],[-35.7934,-9.5998]]]}},{"type":"Feature","properties":{"nome":"Santana do Ipanema","cod":"2708006","uf":"AL"},"geometry":{"type":"Polygon","coordinates":[[[-37.0806,-9.2536],[-37.0569,-9.2814],[-37.0613,-9.3037],[-37.0572,-9.3171],[-37.0592,-9.3181],[-37.0735,-9.3177],[-37.0827,-9.3251],[-37.0884,-9.3332],[-37.0904,-9.3506],[-37.1024,-9.3613],[-37.1094,-9.3803],[-37.12,-9.3876],[-37.1462,-9.4172],[-37.1485,-9.4355],[-37.155,-9.4351],[-37.1606,-9.4347],[-37.185,-9.433],[-37.1992,-9.4321],[-37.2074,-9.4342],[-37.211,-9.4436],[-37.2166,-9.4427],[-37.2459,-9.4469],[-37.2662,-9.4491],[-37.2695,-9.4531],[-37.3182,-9.4202],[-37.3259,-9.4222],[-37.3282,-9.4228],[-37.3315,-9.4237],[-37.4206,-9.3711],[-37.4442,-9.3572],[-37.4228,-9.3598],[-37.4029,-9.3617],[-37.3896,-9.3518],[-37.3729,-9.3568],[-37.36,-9.3562],[-37.3368,-9.35],[-37.321,-9.3519],[-37.3087,-9.3496],[-37.2836,-9.342],[-37.2831,-9.3419],[-37.2173,-9.3121],[-37.2153,-9.3113],[-37.2025,-9.2912],[-37.1862,-9.2782],[-37.1836,-9.2754],[-37.1688,-9.2653],[-37.169,-9.272],[-37.164,-9.2753],[-37.1421,-9.2677],[-37.1296,-9.2596],[-37.1161,-9.2405],[-37.1059,-9.2394],[-37.0806,-9.2536]]]}},{"type":"Feature","properties":{"nome":"Santana do Mundaú","cod":"2708105","uf":"AL"},"geometry":{"type":"Polygon","coordinates":[[[-36.1203,-9.027],[-36.142,-9.0625],[-36.1141,-9.0559],[-36.1186,-9.0835],[-36.1202,-9.0932],[-36.1244,-9.1191],[-36.1254,-9.1253],[-36.1287,-9.1532],[-36.1333,-9.1584],[-36.1719,-9.2032],[-36.1799,-9.2124],[-36.1802,-9.2129],[-36.2437,-9.1959],[-36.2812,-9.1858],[-36.2874,-9.1729],[-36.2738,-9.1658],[-36.2708,-9.1706],[-36.2598,-9.1704],[-36.2612,-9.1769],[-36.2557,-9.1816],[-36.2522,-9.1808],[-36.2528,-9.1729],[-36.2475,-9.1774],[-36.2239,-9.1709],[-36.2248,-9.1669],[-36.2387,-9.1596],[-36.2419,-9.147],[-36.2459,-9.1432],[-36.2574,-9.1379],[-36.2632,-9.1256],[-36.2604,-9.1181],[-36.2657,-9.1116],[-36.2667,-9.1107],[-36.2665,-9.102],[-36.2452,-9.0986],[-36.2361,-9.1031],[-36.2221,-9.086],[-36.2216,-9.0729],[-36.21,-9.0727],[-36.2044,-9.0686],[-36.1989,-9.0484],[-36.1954,-9.0444],[-36.1886,-9.0459],[-36.1791,-9.0406],[-36.1748,-9.0437],[-36.1638,-9.0401],[-36.1545,-9.0395],[-36.1514,-9.0423],[-36.1425,-9.0399],[-36.1386,-9.0356],[-36.1269,-9.0332],[-36.1203,-9.027]]]}},{"type":"Feature","properties":{"nome":"São Brás","cod":"2708204","uf":"AL"},"geometry":{"type":"Polygon","coordinates":[[[-36.8627,-10.0588],[-36.8213,-10.0742],[-36.813,-10.0914],[-36.8061,-10.0939],[-36.8,-10.1015],[-36.7892,-10.1049],[-36.7697,-10.1237],[-36.7961,-10.1389],[-36.8172,-10.1471],[-36.8256,-10.1556],[-36.836,-10.1638],[-36.8469,-10.1758],[-36.8483,-10.1624],[-36.867,-10.1571],[-36.8803,-10.1446],[-36.8873,-10.1426],[-36.9106,-10.1375],[-36.9181,-10.1318],[-36.9182,-10.1317],[-36.9212,-10.1279],[-36.9302,-10.1053],[-36.9468,-10.0861],[-36.9505,-10.0771],[-36.9519,-10.0744],[-36.9476,-10.074],[-36.9422,-10.0768],[-36.8685,-10.0467],[-36.8744,-10.0531],[-36.872,-10.0579],[-36.8658,-10.0578],[-36.8627,-10.0588]]]}},{"type":"Feature","properties":{"nome":"São José da Laje","cod":"2708303","uf":"AL"},"geometry":{"type":"Polygon","coordinates":[[[-35.9551,-8.901],[-35.9616,-8.9165],[-35.9595,-8.9199],[-35.9658,-8.9221],[-35.9568,-8.9305],[-35.9607,-8.9346],[-35.9724,-8.9289],[-35.9763,-8.9322],[-35.9732,-8.9449],[-35.9766,-8.951],[-35.972,-8.9697],[-35.96,-8.9667],[-35.9561,-8.9729],[-35.9656,-8.9757],[-35.9524,-8.9853],[-35.9616,-8.9972],[-35.9601,-9.0076],[-35.9542,-9.0306],[-36.0039,-9.0395],[-36.0174,-9.0462],[-36.0242,-9.0377],[-36.0286,-9.0366],[-36.0305,-9.0414],[-36.0282,-9.0384],[-36.0265,-9.0422],[-36.0298,-9.0482],[-36.0237,-9.0538],[-36.031,-9.056],[-36.0488,-9.0646],[-36.0508,-9.0582],[-36.0594,-9.0585],[-36.0718,-9.061],[-36.0742,-9.0676],[-36.0885,-9.0671],[-36.093,-9.0728],[-36.0949,-9.0666],[-36.09,-9.061],[-36.1141,-9.0559],[-36.142,-9.0625],[-36.1203,-9.027],[-36.1112,-9.0173],[-36.1148,-9.013],[-36.1134,-9.0088],[-36.1091,-9.008],[-36.104,-8.9985],[-36.1119,-8.9874],[-36.1265,-8.9809],[-36.1293,-8.9709],[-36.1269,-8.9557],[-36.1265,-8.9553],[-36.0861,-8.9436],[-36.0837,-8.9418],[-36.0636,-8.9149],[-36.0329,-8.908],[-36.0328,-8.908],[-36.0051,-8.9126],[-35.9867,-8.9029],[-35.9838,-8.9048],[-35.9738,-8.9013],[-35.965,-8.9027],[-35.9609,-8.8939],[-35.9551,-8.901]]]}},{"type":"Feature","properties":{"nome":"São José da Tapera","cod":"2708402","uf":"AL"},"geometry":{"type":"Polygon","coordinates":[[[-37.4207,-9.4925],[-37.3854,-9.516],[-37.3821,-9.5181],[-37.3728,-9.5244],[-37.3478,-9.5363],[-37.3452,-9.5375],[-37.3133,-9.5527],[-37.322,-9.5702],[-37.3331,-9.5927],[-37.3556,-9.6382],[-37.3585,-9.6333],[-37.4676,-9.6494],[-37.4703,-9.6433],[-37.4705,-9.6424],[-37.4732,-9.6344],[-37.4791,-9.624],[-37.4906,-9.6172],[-37.4955,-9.609],[-37.5249,-9.5882],[-37.5358,-9.5778],[-37.5398,-9.5647],[-37.5475,-9.5607],[-37.5908,-9.5344],[-37.6131,-9.5331],[-37.6364,-9.5219],[-37.6586,-9.5194],[-37.6719,-9.5353],[-37.6758,-9.5208],[-37.6711,-9.5038],[-37.674,-9.4988],[-37.6647,-9.4886],[-37.6663,-9.4787],[-37.6708,-9.4619],[-37.6639,-9.4452],[-37.6654,-9.44],[-37.656,-9.408],[-37.6546,-9.4084],[-37.6158,-9.4211],[-37.5872,-9.4305],[-37.5721,-9.4354],[-37.5386,-9.4464],[-37.5126,-9.4549],[-37.4609,-9.4712],[-37.445,-9.4762],[-37.443,-9.4775],[-37.4207,-9.4925]]]}},{"type":"Feature","properties":{"nome":"São Luís do Quitunde","cod":"2708501","uf":"AL"},"geometry":{"type":"Polygon","coordinates":[[[-35.6806,-9.0999],[-35.6642,-9.1074],[-35.6529,-9.1065],[-35.6495,-9.122],[-35.6445,-9.1185],[-35.6355,-9.1192],[-35.6166,-9.1364],[-35.5981,-9.167],[-35.595,-9.1812],[-35.5972,-9.1871],[-35.5906,-9.1912],[-35.5922,-9.2045],[-35.5972,-9.2113],[-35.5958,-9.2263],[-35.5944,-9.2323],[-35.5777,-9.2542],[-35.5771,-9.2559],[-35.5681,-9.2638],[-35.5552,-9.274],[-35.5362,-9.2891],[-35.5133,-9.3073],[-35.5133,-9.3138],[-35.5197,-9.323],[-35.5139,-9.3464],[-35.5175,-9.3541],[-35.523,-9.3544],[-35.536,-9.3464],[-35.5626,-9.3565],[-35.5673,-9.355],[-35.5887,-9.3597],[-35.6861,-9.3703],[-35.6916,-9.2981],[-35.6918,-9.2852],[-35.6932,-9.26],[-35.7027,-9.2293],[-35.712,-9.1851],[-35.7129,-9.1806],[-35.7246,-9.1249],[-35.7098,-9.1129],[-35.6974,-9.109],[-35.6892,-9.1015],[-35.6806,-9.0999]]]}},{"type":"Feature","properties":{"nome":"São Miguel dos Campos","cod":"2708600","uf":"AL"},"geometry":{"type":"Polygon","coordinates":[[[-36.0382,-9.8139],[-36.0393,-9.834],[-36.0439,-9.8492],[-36.041,-9.8578],[-36.0466,-9.8604],[-36.0512,-9.8722],[-36.0651,-9.8754],[-36.0667,-9.8817],[-36.0787,-9.8681],[-36.0876,-9.8685],[-36.0966,-9.8545],[-36.1171,-9.8437],[-36.1226,-9.8383],[-36.1256,-9.8376],[-36.1275,-9.8277],[-36.1342,-9.8388],[-36.1436,-9.8594],[-36.1605,-9.8553],[-36.1657,-9.8492],[-36.1663,-9.8405],[-36.1833,-9.8006],[-36.1869,-9.7946],[-36.2463,-9.732],[-36.2181,-9.729],[-36.1802,-9.7239],[-36.1783,-9.7168],[-36.1272,-9.7051],[-36.1108,-9.7014],[-36.0784,-9.694],[-36.0683,-9.6887],[-36.0785,-9.6792],[-36.0747,-9.6733],[-36.0339,-9.6683],[-36.0295,-9.6709],[-36.018,-9.6871],[-35.9923,-9.6932],[-35.9871,-9.703],[-35.9882,-9.7383],[-36.0042,-9.7667],[-36.0263,-9.8099],[-36.0263,-9.8108],[-36.0382,-9.8139]]]}},{"type":"Feature","properties":{"nome":"São Miguel dos Milagres","cod":"2708709","uf":"AL"},"geometry":{"type":"Polygon","coordinates":[[[-35.3739,-9.2776],[-35.3865,-9.2858],[-35.3954,-9.2717],[-35.4153,-9.2565],[-35.424,-9.2454],[-35.4653,-9.2241],[-35.4691,-9.2123],[-35.4758,-9.1997],[-35.4755,-9.1902],[-35.4274,-9.1934],[-35.3776,-9.2093],[-35.359,-9.2288],[-35.3488,-9.2296],[-35.3422,-9.2308],[-35.3429,-9.2378],[-35.3538,-9.255],[-35.3739,-9.2776]]]}},{"type":"Feature","properties":{"nome":"São Sebastião","cod":"2708808","uf":"AL"},"geometry":{"type":"Polygon","coordinates":[[[-36.5285,-9.8467],[-36.5154,-9.859],[-36.5059,-9.8549],[-36.503,-9.8573],[-36.4962,-9.8665],[-36.4971,-9.8824],[-36.4995,-9.8917],[-36.4941,-9.9052],[-36.4919,-9.908],[-36.4858,-9.9272],[-36.4784,-9.9326],[-36.4706,-9.9396],[-36.4731,-9.9543],[-36.4792,-9.961],[-36.4718,-9.9738],[-36.4736,-9.9965],[-36.4844,-10.0099],[-36.4882,-10.0192],[-36.4832,-10.0266],[-36.4739,-10.0271],[-36.4707,-10.0304],[-36.4579,-10.029],[-36.4546,-10.0318],[-36.4793,-10.0581],[-36.491,-10.0707],[-36.5072,-10.0688],[-36.5149,-10.0439],[-36.5169,-10.0401],[-36.5782,-10.0374],[-36.6414,-10.0346],[-36.6538,-10.034],[-36.6574,-10.0338],[-36.6513,-10.0265],[-36.6553,-10.0186],[-36.6544,-10.0131],[-36.6499,-10.0167],[-36.6476,-10.0115],[-36.6479,-10.0066],[-36.6537,-10.0052],[-36.6484,-9.9965],[-36.6427,-9.9933],[-36.6467,-9.9875],[-36.6463,-9.9858],[-36.6405,-9.986],[-36.6415,-9.9816],[-36.628,-9.9798],[-36.6306,-9.9687],[-36.6247,-9.965],[-36.6305,-9.9519],[-36.6132,-9.9506],[-36.613,-9.9361],[-36.6128,-9.9247],[-36.6128,-9.9246],[-36.6116,-9.9145],[-36.6144,-9.9123],[-36.6116,-9.905],[-36.6115,-9.9048],[-36.6032,-9.9024],[-36.6038,-9.8761],[-36.6039,-9.8722],[-36.5979,-9.8725],[-36.5918,-9.8723],[-36.5908,-9.8781],[-36.5844,-9.8809],[-36.5737,-9.8772],[-36.5734,-9.8771],[-36.5602,-9.874],[-36.5414,-9.8818],[-36.5411,-9.8712],[-36.5503,-9.8596],[-36.5551,-9.8505],[-36.5545,-9.8418],[-36.5546,-9.8389],[-36.5285,-9.8467]]]}},{"type":"Feature","properties":{"nome":"Satuba","cod":"2708907","uf":"AL"},"geometry":{"type":"Polygon","coordinates":[[[-35.8095,-9.5685],[-35.8155,-9.5767],[-35.8251,-9.577],[-35.8251,-9.5821],[-35.83,-9.5847],[-35.8451,-9.6057],[-35.8519,-9.6064],[-35.8499,-9.6116],[-35.8523,-9.6083],[-35.8547,-9.6096],[-35.8561,-9.6152],[-35.8673,-9.6262],[-35.8679,-9.6251],[-35.8771,-9.6008],[-35.8804,-9.6011],[-35.8803,-9.5972],[-35.8872,-9.5898],[-35.8767,-9.5635],[-35.8352,-9.5548],[-35.8331,-9.5526],[-35.8299,-9.545],[-35.8186,-9.5426],[-35.8178,-9.5385],[-35.8141,-9.5367],[-35.797,-9.5314],[-35.7962,-9.5311],[-35.8095,-9.5685]]]}},{"type":"Feature","properties":{"nome":"Senador Rui Palmeira","cod":"2708956","uf":"AL"},"geometry":{"type":"Polygon","coordinates":[[[-37.4459,-9.4715],[-37.445,-9.4762],[-37.4609,-9.4712],[-37.5126,-9.4549],[-37.5386,-9.4464],[-37.5721,-9.4354],[-37.5872,-9.4305],[-37.6158,-9.4211],[-37.6546,-9.4084],[-37.654,-9.4043],[-37.6476,-9.4011],[-37.6465,-9.3914],[-37.6362,-9.3762],[-37.6183,-9.3578],[-37.6113,-9.3383],[-37.5924,-9.3136],[-37.5856,-9.2956],[-37.5776,-9.2966],[-37.5601,-9.3047],[-37.5185,-9.3098],[-37.491,-9.337],[-37.4838,-9.3446],[-37.4442,-9.3572],[-37.4206,-9.3711],[-37.3315,-9.4237],[-37.3511,-9.4285],[-37.4127,-9.4438],[-37.4495,-9.4529],[-37.4459,-9.4715]]]}},{"type":"Feature","properties":{"nome":"Tanque d'Arca","cod":"2709004","uf":"AL"},"geometry":{"type":"Polygon","coordinates":[[[-36.3918,-9.6025],[-36.3914,-9.6054],[-36.3883,-9.6283],[-36.3805,-9.6349],[-36.3938,-9.6479],[-36.4083,-9.636],[-36.4047,-9.6264],[-36.399,-9.624],[-36.4008,-9.6186],[-36.4172,-9.6109],[-36.433,-9.6163],[-36.4443,-9.6055],[-36.4484,-9.608],[-36.4575,-9.6165],[-36.4734,-9.6022],[-36.4443,-9.5861],[-36.4453,-9.5853],[-36.4633,-9.5717],[-36.4652,-9.5663],[-36.4879,-9.5018],[-36.4799,-9.4937],[-36.4681,-9.4851],[-36.4506,-9.5048],[-36.4262,-9.5065],[-36.3967,-9.5085],[-36.3862,-9.5092],[-36.384,-9.5125],[-36.3867,-9.5162],[-36.3794,-9.5194],[-36.3757,-9.5277],[-36.3831,-9.5408],[-36.3788,-9.5681],[-36.3791,-9.5718],[-36.3733,-9.5727],[-36.3694,-9.581],[-36.3572,-9.5852],[-36.3505,-9.5919],[-36.3918,-9.6025]]]}},{"type":"Feature","properties":{"nome":"Taquarana","cod":"2709103","uf":"AL"},"geometry":{"type":"Polygon","coordinates":[[[-36.4734,-9.6022],[-36.4575,-9.6165],[-36.4484,-9.608],[-36.4443,-9.6055],[-36.433,-9.6163],[-36.4172,-9.6109],[-36.4008,-9.6186],[-36.399,-9.624],[-36.4047,-9.6264],[-36.4083,-9.636],[-36.3938,-9.6479],[-36.388,-9.6513],[-36.4072,-9.6573],[-36.4281,-9.6633],[-36.4338,-9.6649],[-36.4459,-9.6684],[-36.4648,-9.6737],[-36.4985,-9.6871],[-36.5083,-9.6912],[-36.5261,-9.6877],[-36.5329,-9.6699],[-36.5358,-9.6627],[-36.5407,-9.6479],[-36.5422,-9.6409],[-36.5435,-9.6273],[-36.5509,-9.6203],[-36.5556,-9.6063],[-36.5557,-9.6061],[-36.5699,-9.5649],[-36.5735,-9.565],[-36.5714,-9.561],[-36.5662,-9.5605],[-36.5659,-9.5553],[-36.5586,-9.5498],[-36.5545,-9.5407],[-36.5442,-9.5341],[-36.5317,-9.5317],[-36.504,-9.5604],[-36.4971,-9.5835],[-36.4923,-9.5851],[-36.4788,-9.5938],[-36.4734,-9.6022]]]}},{"type":"Feature","properties":{"nome":"Teotônio Vilela","cod":"2709152","uf":"AL"},"geometry":{"type":"Polygon","coordinates":[[[-36.2808,-9.9346],[-36.2849,-9.9668],[-36.2909,-9.9998],[-36.2977,-10.0124],[-36.3052,-10.019],[-36.3039,-10.0307],[-36.305,-10.0308],[-36.3656,-10.0337],[-36.4165,-10.0362],[-36.4533,-10.0379],[-36.4546,-10.0318],[-36.4579,-10.029],[-36.4707,-10.0304],[-36.4739,-10.0271],[-36.4832,-10.0266],[-36.4882,-10.0192],[-36.4844,-10.0099],[-36.4736,-9.9965],[-36.4718,-9.9738],[-36.4792,-9.961],[-36.4697,-9.9676],[-36.4693,-9.9711],[-36.4616,-9.963],[-36.4504,-9.9606],[-36.4134,-9.9085],[-36.3985,-9.8877],[-36.3955,-9.8741],[-36.3794,-9.8765],[-36.3535,-9.8803],[-36.3484,-9.881],[-36.3127,-9.8865],[-36.2775,-9.8919],[-36.2807,-9.9341],[-36.2808,-9.9346]]]}},{"type":"Feature","properties":{"nome":"Traipu","cod":"2709202","uf":"AL"},"geometry":{"type":"Polygon","coordinates":[[[-36.9024,-9.7926],[-36.9031,-9.8101],[-36.916,-9.8172],[-36.9192,-9.819],[-36.9205,-9.8422],[-36.9212,-9.8556],[-36.9226,-9.8816],[-36.9101,-9.893],[-36.91,-9.893],[-36.8809,-9.9024],[-36.8488,-9.9292],[-36.8268,-9.9288],[-36.8287,-9.9423],[-36.8227,-9.9502],[-36.8106,-9.9605],[-36.7979,-9.9585],[-36.7993,-9.9606],[-36.8104,-9.9831],[-36.827,-9.9975],[-36.8381,-10.0015],[-36.8427,-10.0098],[-36.8544,-10.0219],[-36.8633,-10.0312],[-36.8685,-10.0467],[-36.9422,-10.0768],[-36.9476,-10.074],[-36.9519,-10.0744],[-36.9536,-10.0712],[-36.9588,-10.0501],[-36.9561,-10.0233],[-36.9561,-10.0232],[-36.9572,-10.0151],[-36.9575,-10.0142],[-36.9575,-10.0141],[-36.9581,-10.0125],[-36.9587,-10.0107],[-36.9673,-9.9925],[-36.9945,-9.9749],[-37.0052,-9.9758],[-37.0296,-9.9859],[-37.0439,-9.9883],[-37.0615,-9.978],[-37.0622,-9.9774],[-37.0649,-9.9753],[-37.0747,-9.9663],[-37.0803,-9.9609],[-37.1323,-9.9134],[-37.1282,-9.9084],[-37.1345,-9.899],[-37.1281,-9.9004],[-37.1252,-9.893],[-37.1187,-9.8906],[-37.1185,-9.8752],[-37.1137,-9.8692],[-37.1081,-9.8674],[-37.1072,-9.8553],[-37.1028,-9.8482],[-37.1027,-9.8482],[-37.0408,-9.8083],[-37.0352,-9.8102],[-37.0369,-9.8047],[-37.0325,-9.7929],[-37.0288,-9.7882],[-37.022,-9.7867],[-37.0173,-9.7749],[-37.0109,-9.7692],[-37.0106,-9.769],[-36.998,-9.7627],[-36.9987,-9.7398],[-37.0023,-9.733],[-36.9931,-9.7203],[-36.9847,-9.7145],[-36.9852,-9.7044],[-36.9792,-9.7005],[-36.9764,-9.6929],[-36.9692,-9.6937],[-36.9003,-9.7395],[-36.9016,-9.7722],[-36.9024,-9.7926]]]}},{"type":"Feature","properties":{"nome":"União dos Palmares","cod":"2709301","uf":"AL"},"geometry":{"type":"Polygon","coordinates":[[[-35.9542,-9.0306],[-35.945,-9.036],[-35.9255,-9.0316],[-35.9189,-9.042],[-35.9111,-9.0418],[-35.9031,-9.0476],[-35.9018,-9.0591],[-35.8895,-9.0674],[-35.884,-9.0665],[-35.8787,-9.0541],[-35.869,-9.0549],[-35.8602,-9.0531],[-35.8648,-9.0692],[-35.8831,-9.1222],[-35.8882,-9.1379],[-35.9423,-9.1637],[-35.9988,-9.189],[-36.0312,-9.2027],[-36.0323,-9.2032],[-36.0583,-9.215],[-36.0678,-9.2051],[-36.0798,-9.2051],[-36.0857,-9.2013],[-36.093,-9.2031],[-36.1009,-9.2066],[-36.108,-9.2091],[-36.1163,-9.2073],[-36.1271,-9.2011],[-36.1513,-9.2067],[-36.1651,-9.2121],[-36.1692,-9.21],[-36.1802,-9.2129],[-36.1799,-9.2124],[-36.1719,-9.2032],[-36.1333,-9.1584],[-36.1287,-9.1532],[-36.1254,-9.1253],[-36.1244,-9.1191],[-36.1202,-9.0932],[-36.1186,-9.0835],[-36.1141,-9.0559],[-36.09,-9.061],[-36.0949,-9.0666],[-36.093,-9.0728],[-36.0885,-9.0671],[-36.0742,-9.0676],[-36.0718,-9.061],[-36.0594,-9.0585],[-36.0508,-9.0582],[-36.0488,-9.0646],[-36.031,-9.056],[-36.0237,-9.0538],[-36.0298,-9.0482],[-36.0265,-9.0422],[-36.0282,-9.0384],[-36.0305,-9.0414],[-36.0286,-9.0366],[-36.0242,-9.0377],[-36.0174,-9.0462],[-36.0039,-9.0395],[-35.9542,-9.0306]]]}},{"type":"Feature","properties":{"nome":"Viçosa","cod":"2709400","uf":"AL"},"geometry":{"type":"Polygon","coordinates":[[[-36.1802,-9.2129],[-36.1816,-9.3086],[-36.1792,-9.3435],[-36.1786,-9.3589],[-36.1844,-9.3758],[-36.2015,-9.4255],[-36.2108,-9.4526],[-36.2659,-9.4384],[-36.2692,-9.4371],[-36.3017,-9.4257],[-36.3045,-9.4297],[-36.3104,-9.4277],[-36.3161,-9.4321],[-36.3212,-9.4317],[-36.3239,-9.4411],[-36.3294,-9.4426],[-36.3498,-9.448],[-36.3477,-9.452],[-36.3391,-9.4642],[-36.389,-9.425],[-36.3868,-9.4174],[-36.3741,-9.375],[-36.3736,-9.3746],[-36.3663,-9.3836],[-36.3618,-9.3825],[-36.3661,-9.3777],[-36.3658,-9.361],[-36.3396,-9.2863],[-36.332,-9.2829],[-36.3262,-9.2842],[-36.3219,-9.289],[-36.3256,-9.2955],[-36.3161,-9.2967],[-36.3132,-9.3021],[-36.3007,-9.3018],[-36.3015,-9.3083],[-36.2966,-9.3112],[-36.2774,-9.3047],[-36.2585,-9.2983],[-36.2353,-9.2893],[-36.1802,-9.2129]]]}}]}