{"type":"FeatureCollection","metadata":{"fonte":"IBGE, via github.com/tbrugz/geodata-br"},"features":[{"type":"Feature","properties":{"nome":"Brasília","cod":"5300108","uf":"DF"},"geometry":{"type":"Polygon","coordinates":[[[-47.414,-15.5477],[-47.4118,-15.5479],[-47.411,-15.547],[-47.4089,-15.5476],[-47.4064,-15.546],[-47.4054,-15.5457],[-47.4044,-15.546],[-47.401,-15.5493],[-47.3977,-15.5516],[-47.3976,-15.5526],[-47.3991,-15.5537],[-47.3993,-15.5547],[-47.3989,-15.5557],[-47.3982,-15.5566],[-47.3965,-15.5574],[-47.3944,-15.5577],[-47.3926,-15.5595],[-47.3917,-15.562],[-47.3895,-15.5649],[-47.3892,-15.567],[-47.388,-15.5671],[-47.387,-15.5665],[-47.385,-15.5662],[-47.3808,-15.5665],[-47.38,-15.5669],[-47.3791,-15.5728],[-47.3766,-15.5754],[-47.3738,-15.5774],[-47.3717,-15.5777],[-47.3694,-15.5788],[-47.3658,-15.5777],[-47.3623,-15.5775],[-47.3614,-15.5782],[-47.361,-15.5791],[-47.3586,-15.5797],[-47.357,-15.5809],[-47.356,-15.5809],[-47.3532,-15.5785],[-47.3508,-15.5797],[-47.3472,-15.5794],[-47.3439,-15.5812],[-47.3434,-15.5818],[-47.3415,-15.5825],[-47.3337,-15.5867],[-47.3319,-15.5863],[-47.3297,-15.5865],[-47.3266,-15.5885],[-47.3254,-15.5887],[-47.3234,-15.5861],[-47.3223,-15.5857],[-47.3213,-15.5858],[-47.318,-15.588],[-47.3169,-15.5881],[-47.3165,-15.5891],[-47.3167,-15.5914],[-47.3154,-15.594],[-47.316,-15.5958],[-47.322,-15.5975],[-47.323,-15.6028],[-47.3253,-15.6093],[-47.3272,-15.612],[-47.3294,-15.6195],[-47.3306,-15.6212],[-47.3298,-15.6219],[-47.3295,-15.6232],[-47.3317,-15.6262],[-47.3327,-15.6295],[-47.3325,-15.6315],[-47.3301,-15.6337],[-47.3302,-15.6371],[-47.3287,-15.6426],[-47.3296,-15.6445],[-47.3288,-15.6456],[-47.3263,-15.6473],[-47.3262,-15.6484],[-47.3273,-15.6488],[-47.3275,-15.6499],[-47.3263,-15.6515],[-47.3263,-15.6525],[-47.3272,-15.6528],[-47.3288,-15.6555],[-47.3283,-15.6583],[-47.3265,-15.6594],[-47.3261,-15.6615],[-47.3262,-15.6625],[-47.327,-15.6629],[-47.328,-15.6647],[-47.3262,-15.666],[-47.327,-15.669],[-47.3265,-15.6732],[-47.3276,-15.6753],[-47.3283,-15.6783],[-47.3289,-15.6793],[-47.3308,-15.6803],[-47.3311,-15.6812],[-47.3293,-15.6826],[-47.3287,-15.6845],[-47.3278,-15.6849],[-47.3274,-15.686],[-47.3276,-15.6875],[-47.3247,-15.6872],[-47.3213,-15.6879],[-47.3212,-15.6867],[-47.3203,-15.6863],[-47.3193,-15.6866],[-47.317,-15.6895],[-47.3164,-15.6918],[-47.3148,-15.6935],[-47.3123,-15.6941],[-47.3119,-15.695],[-47.3118,-15.6971],[-47.3137,-15.6988],[-47.3137,-15.7029],[-47.3132,-15.7051],[-47.3119,-15.7067],[-47.3125,-15.7078],[-47.3137,-15.7081],[-47.3134,-15.709],[-47.3137,-15.7099],[-47.3151,-15.7114],[-47.3147,-15.7146],[-47.3181,-15.717],[-47.3178,-15.7181],[-47.3186,-15.7185],[-47.3194,-15.7198],[-47.319,-15.7218],[-47.3175,-15.7234],[-47.3171,-15.7259],[-47.3175,-15.7268],[-47.3164,-15.7284],[-47.3171,-15.729],[-47.3183,-15.7292],[-47.3187,-15.7305],[-47.3184,-15.7325],[-47.3174,-15.7329],[-47.3165,-15.7326],[-47.3164,-15.735],[-47.3154,-15.7357],[-47.3149,-15.7347],[-47.314,-15.7353],[-47.314,-15.7362],[-47.3125,-15.7376],[-47.3133,-15.7382],[-47.3125,-15.7389],[-47.3122,-15.7399],[-47.3129,-15.7416],[-47.3137,-15.7423],[-47.3131,-15.7448],[-47.3137,-15.7468],[-47.3147,-15.7466],[-47.3153,-15.7456],[-47.3162,-15.7453],[-47.3165,-15.7465],[-47.3161,-15.7474],[-47.3169,-15.7483],[-47.3167,-15.7504],[-47.3179,-15.7517],[-47.3182,-15.7541],[-47.3215,-15.7535],[-47.3211,-15.7549],[-47.3199,-15.7554],[-47.3196,-15.7565],[-47.3203,-15.7574],[-47.3223,-15.7576],[-47.3229,-15.7588],[-47.3228,-15.7602],[-47.3239,-15.7604],[-47.3246,-15.7616],[-47.3253,-15.7635],[-47.325,-15.7646],[-47.3254,-15.7655],[-47.3263,-15.7646],[-47.3267,-15.7656],[-47.3283,-15.767],[-47.3278,-15.769],[-47.3268,-15.7696],[-47.3264,-15.7706],[-47.3278,-15.7718],[-47.3287,-15.7734],[-47.3297,-15.7734],[-47.3294,-15.779],[-47.3305,-15.779],[-47.3317,-15.7798],[-47.3338,-15.7801],[-47.3348,-15.784],[-47.3358,-15.7845],[-47.3366,-15.7858],[-47.3387,-15.7904],[-47.3379,-15.7913],[-47.3378,-15.7933],[-47.3383,-15.7942],[-47.3403,-15.794],[-47.3406,-15.7948],[-47.3401,-15.7957],[-47.3409,-15.7965],[-47.3429,-15.7957],[-47.3442,-15.7975],[-47.3433,-15.7994],[-47.3453,-15.8024],[-47.346,-15.803],[-47.3471,-15.8028],[-47.3482,-15.8033],[-47.3475,-15.8041],[-47.3466,-15.8075],[-47.3477,-15.8076],[-47.3485,-15.8071],[-47.3491,-15.8091],[-47.3519,-15.8118],[-47.3512,-15.8123],[-47.3508,-15.8133],[-47.3529,-15.8138],[-47.353,-15.8148],[-47.3517,-15.8167],[-47.3538,-15.8179],[-47.3537,-15.8188],[-47.3548,-15.8191],[-47.3544,-15.8201],[-47.3534,-15.8207],[-47.3534,-15.8218],[-47.3544,-15.8222],[-47.3565,-15.8213],[-47.3567,-15.8223],[-47.3558,-15.8226],[-47.357,-15.8233],[-47.358,-15.8229],[-47.3586,-15.82],[-47.3596,-15.8202],[-47.3598,-15.8214],[-47.3589,-15.8224],[-47.3608,-15.8234],[-47.3614,-15.8245],[-47.361,-15.8263],[-47.3623,-15.8271],[-47.3647,-15.8272],[-47.3655,-15.8277],[-47.3645,-15.8308],[-47.3648,-15.8317],[-47.3633,-15.8334],[-47.3641,-15.8343],[-47.3642,-15.8362],[-47.365,-15.8367],[-47.3662,-15.8352],[-47.3669,-15.8361],[-47.3657,-15.8376],[-47.3663,-15.8383],[-47.3672,-15.8383],[-47.3676,-15.8402],[-47.369,-15.8411],[-47.3675,-15.8414],[-47.3681,-15.8468],[-47.3698,-15.8482],[-47.3687,-15.8487],[-47.3679,-15.8483],[-47.367,-15.8487],[-47.3668,-15.8541],[-47.3688,-15.8541],[-47.3692,-15.8553],[-47.3682,-15.8559],[-47.3688,-15.8608],[-47.3693,-15.8616],[-47.3723,-15.8633],[-47.3723,-15.8643],[-47.3692,-15.8647],[-47.3695,-15.8658],[-47.3718,-15.8697],[-47.3702,-15.8708],[-47.3701,-15.8719],[-47.3723,-15.8725],[-47.3722,-15.8735],[-47.371,-15.8735],[-47.371,-15.8744],[-47.3718,-15.8765],[-47.3739,-15.8796],[-47.3746,-15.8802],[-47.3788,-15.8804],[-47.379,-15.8813],[-47.3757,-15.8824],[-47.3772,-15.8862],[-47.377,-15.8871],[-47.375,-15.887],[-47.376,-15.8901],[-47.3756,-15.8909],[-47.3747,-15.891],[-47.3742,-15.893],[-47.3748,-15.895],[-47.3757,-15.8954],[-47.3753,-15.8962],[-47.3734,-15.8968],[-47.3738,-15.8978],[-47.3731,-15.8989],[-47.3719,-15.8989],[-47.3707,-15.8997],[-47.3723,-15.9037],[-47.3723,-15.9063],[-47.3662,-15.9077],[-47.3642,-15.9076],[-47.3632,-15.9085],[-47.3629,-15.9094],[-47.364,-15.9099],[-47.366,-15.9096],[-47.3662,-15.9105],[-47.3649,-15.9122],[-47.3649,-15.9132],[-47.3657,-15.9143],[-47.3666,-15.9149],[-47.3671,-15.9172],[-47.3652,-15.9205],[-47.3643,-15.9205],[-47.3624,-15.9195],[-47.3613,-15.9193],[-47.3594,-15.9244],[-47.3598,-15.9252],[-47.3607,-15.9255],[-47.3602,-15.9266],[-47.3607,-15.9275],[-47.3606,-15.9285],[-47.3615,-15.9288],[-47.3614,-15.9298],[-47.3606,-15.9302],[-47.3603,-15.9312],[-47.3622,-15.9315],[-47.3622,-15.9305],[-47.363,-15.9298],[-47.3639,-15.9307],[-47.3628,-15.933],[-47.3638,-15.9333],[-47.365,-15.9328],[-47.3661,-15.9332],[-47.3668,-15.9341],[-47.3712,-15.9352],[-47.3721,-15.9361],[-47.3717,-15.9371],[-47.3687,-15.9363],[-47.3681,-15.937],[-47.3685,-15.938],[-47.3704,-15.9389],[-47.3701,-15.9399],[-47.3682,-15.9399],[-47.3671,-15.9404],[-47.3673,-15.9413],[-47.3683,-15.9416],[-47.3678,-15.9445],[-47.3667,-15.9462],[-47.367,-15.9473],[-47.3687,-15.9461],[-47.3692,-15.947],[-47.3686,-15.9516],[-47.3702,-15.9527],[-47.3698,-15.9555],[-47.3721,-15.9558],[-47.3731,-15.9567],[-47.3726,-15.9578],[-47.3715,-15.9584],[-47.3714,-15.9596],[-47.3718,-15.9605],[-47.3756,-15.9617],[-47.3763,-15.9624],[-47.3763,-15.9633],[-47.3752,-15.9636],[-47.3732,-15.9663],[-47.3739,-15.968],[-47.3749,-15.9686],[-47.3757,-15.968],[-47.3767,-15.9684],[-47.3764,-15.9696],[-47.3747,-15.9708],[-47.3754,-15.9717],[-47.3766,-15.9722],[-47.3774,-15.9734],[-47.3757,-15.9743],[-47.3759,-15.9757],[-47.3767,-15.9769],[-47.3765,-15.9779],[-47.3744,-15.9777],[-47.3736,-15.9784],[-47.3738,-15.9794],[-47.3718,-15.9792],[-47.3711,-15.98],[-47.3723,-15.9816],[-47.3744,-15.9818],[-47.374,-15.9844],[-47.3754,-15.9862],[-47.3744,-15.9863],[-47.3737,-15.9856],[-47.3729,-15.9866],[-47.371,-15.9941],[-47.3691,-15.9935],[-47.3681,-15.9936],[-47.3679,-15.9961],[-47.3688,-15.999],[-47.3686,-15.9999],[-47.3682,-16.0015],[-47.3672,-16.0016],[-47.3654,-16.0003],[-47.3636,-16.0003],[-47.3636,-16.0004],[-47.364,-16.0037],[-47.3622,-16.0051],[-47.361,-16.0052],[-47.359,-16.0044],[-47.3582,-16.0052],[-47.3594,-16.0073],[-47.3563,-16.0075],[-47.3522,-16.0061],[-47.3494,-16.0062],[-47.3474,-16.0056],[-47.3465,-16.0061],[-47.3471,-16.007],[-47.3471,-16.0079],[-47.3463,-16.0085],[-47.3449,-16.0085],[-47.3443,-16.0109],[-47.34,-16.0107],[-47.3369,-16.0116],[-47.3368,-16.0128],[-47.3398,-16.014],[-47.3396,-16.0152],[-47.3387,-16.0156],[-47.3389,-16.0166],[-47.3397,-16.0177],[-47.3391,-16.0185],[-47.3358,-16.0164],[-47.3348,-16.0164],[-47.334,-16.0201],[-47.3316,-16.0212],[-47.3299,-16.0213],[-47.3293,-16.0222],[-47.3295,-16.0241],[-47.3288,-16.0248],[-47.3273,-16.025],[-47.328,-16.0268],[-47.3252,-16.0275],[-47.3246,-16.0283],[-47.3235,-16.0286],[-47.3239,-16.0263],[-47.3235,-16.0254],[-47.3214,-16.0258],[-47.3207,-16.0268],[-47.3211,-16.0296],[-47.3207,-16.0305],[-47.3188,-16.0304],[-47.317,-16.0314],[-47.3168,-16.0325],[-47.3181,-16.034],[-47.3196,-16.0343],[-47.3187,-16.0362],[-47.3169,-16.0365],[-47.312,-16.0348],[-47.3086,-16.0356],[-47.3087,-16.0371],[-47.3107,-16.0399],[-47.311,-16.0409],[-47.31,-16.0414],[-47.3088,-16.0411],[-47.3082,-16.0416],[-47.3082,-16.0424],[-47.3097,-16.0433],[-47.3091,-16.0448],[-47.3078,-16.0453],[-47.3092,-16.0472],[-47.3084,-16.0501],[-47.4152,-16.0502],[-47.6171,-16.0502],[-47.6735,-16.0502],[-47.683,-16.0502],[-47.7385,-16.0504],[-47.8141,-16.0506],[-47.8896,-16.0508],[-47.9388,-16.051],[-47.9387,-16.0508],[-47.9814,-16.051],[-48.034,-16.0512],[-48.0502,-16.0512],[-48.0649,-16.0512],[-48.0862,-16.0513],[-48.1446,-16.0513],[-48.2595,-16.0511],[-48.2787,-16.0511],[-48.2783,-16.049],[-48.2785,-16.0442],[-48.278,-16.0428],[-48.2773,-16.0415],[-48.2769,-16.0393],[-48.2769,-16.0381],[-48.2758,-16.0364],[-48.2748,-16.0359],[-48.2737,-16.0358],[-48.2731,-16.0336],[-48.2728,-16.031],[-48.2714,-16.0292],[-48.2712,-16.0283],[-48.2712,-16.027],[-48.2717,-16.0249],[-48.2717,-16.0234],[-48.2704,-16.022],[-48.2702,-16.0208],[-48.2702,-16.0195],[-48.2705,-16.0171],[-48.2709,-16.016],[-48.2713,-16.0141],[-48.2712,-16.0127],[-48.2716,-16.0115],[-48.2722,-16.0104],[-48.2724,-16.0092],[-48.2724,-16.008],[-48.2717,-16.0059],[-48.2697,-16.0038],[-48.2687,-16.0021],[-48.2684,-16.0012],[-48.2669,-15.9995],[-48.2672,-15.9982],[-48.2669,-15.9971],[-48.2657,-15.9953],[-48.2644,-15.9943],[-48.264,-15.9932],[-48.2642,-15.9911],[-48.2635,-15.9871],[-48.2632,-15.9862],[-48.2617,-15.9845],[-48.2611,-15.9836],[-48.2604,-15.9829],[-48.2599,-15.9818],[-48.2606,-15.979],[-48.2599,-15.9773],[-48.2593,-15.9762],[-48.259,-15.9752],[-48.2589,-15.9733],[-48.2591,-15.971],[-48.2595,-15.9696],[-48.2608,-15.9676],[-48.2607,-15.9666],[-48.2593,-15.9651],[-48.2584,-15.9633],[-48.2582,-15.9622],[-48.2576,-15.9612],[-48.2565,-15.9611],[-48.2559,-15.9601],[-48.2554,-15.9578],[-48.2547,-15.9565],[-48.2527,-15.9547],[-48.2521,-15.9537],[-48.2519,-15.9526],[-48.2525,-15.9504],[-48.2529,-15.9494],[-48.2528,-15.9482],[-48.2522,-15.9474],[-48.2512,-15.947],[-48.2507,-15.946],[-48.2512,-15.9447],[-48.252,-15.9433],[-48.2523,-15.9426],[-48.2523,-15.9423],[-48.2523,-15.9419],[-48.2525,-15.9407],[-48.2521,-15.9363],[-48.2526,-15.9354],[-48.2534,-15.9349],[-48.2546,-15.9345],[-48.2554,-15.9338],[-48.2562,-15.9329],[-48.2567,-15.9319],[-48.2577,-15.9317],[-48.2583,-15.9308],[-48.2585,-15.9299],[-48.2591,-15.9292],[-48.2607,-15.9285],[-48.2614,-15.9282],[-48.2625,-15.9281],[-48.2638,-15.9286],[-48.2653,-15.9304],[-48.2657,-15.9314],[-48.2667,-15.932],[-48.2678,-15.9324],[-48.2706,-15.9323],[-48.2727,-15.9317],[-48.2738,-15.9311],[-48.2754,-15.9307],[-48.2763,-15.9301],[-48.2758,-15.9278],[-48.2762,-15.9268],[-48.2771,-15.9264],[-48.2764,-15.9243],[-48.2765,-15.9222],[-48.2757,-15.9215],[-48.2729,-15.9205],[-48.2726,-15.9196],[-48.2719,-15.9187],[-48.2715,-15.9176],[-48.2712,-15.9147],[-48.2707,-15.9138],[-48.2702,-15.9113],[-48.2707,-15.9101],[-48.2716,-15.9096],[-48.2727,-15.9095],[-48.2737,-15.9091],[-48.2745,-15.9083],[-48.2753,-15.9078],[-48.2769,-15.9059],[-48.2766,-15.9049],[-48.2759,-15.9042],[-48.2753,-15.9035],[-48.2754,-15.9025],[-48.2767,-15.901],[-48.2763,-15.8988],[-48.2742,-15.8982],[-48.2744,-15.8972],[-48.275,-15.8964],[-48.276,-15.8961],[-48.2764,-15.8952],[-48.276,-15.8942],[-48.274,-15.8926],[-48.275,-15.8921],[-48.2762,-15.8919],[-48.2768,-15.8911],[-48.2763,-15.8902],[-48.2752,-15.8893],[-48.2725,-15.8837],[-48.2722,-15.8824],[-48.2717,-15.8812],[-48.272,-15.8803],[-48.2729,-15.8798],[-48.2736,-15.8791],[-48.2746,-15.879],[-48.2757,-15.8784],[-48.2755,-15.8774],[-48.2757,-15.8763],[-48.2763,-15.8754],[-48.2771,-15.8749],[-48.2777,-15.8737],[-48.278,-15.8725],[-48.278,-15.8715],[-48.2775,-15.8706],[-48.2769,-15.8688],[-48.2776,-15.8682],[-48.2784,-15.8681],[-48.2789,-15.868],[-48.2798,-15.8677],[-48.28,-15.8667],[-48.2798,-15.8654],[-48.2794,-15.8646],[-48.2799,-15.8634],[-48.28,-15.8624],[-48.2797,-15.8612],[-48.2799,-15.8603],[-48.2815,-15.8592],[-48.2814,-15.8559],[-48.2817,-15.8549],[-48.2841,-15.8544],[-48.2843,-15.8533],[-48.2842,-15.8523],[-48.2835,-15.8503],[-48.2839,-15.8483],[-48.2843,-15.8472],[-48.2845,-15.8458],[-48.2852,-15.8451],[-48.2861,-15.8448],[-48.2867,-15.8427],[-48.2862,-15.8419],[-48.2852,-15.8415],[-48.2846,-15.8407],[-48.2852,-15.8398],[-48.286,-15.8375],[-48.2859,-15.8363],[-48.2853,-15.8352],[-48.285,-15.8343],[-48.2831,-15.8316],[-48.2822,-15.8291],[-48.281,-15.824],[-48.2805,-15.823],[-48.277,-15.8178],[-48.2743,-15.8152],[-48.2724,-15.8138],[-48.2712,-15.812],[-48.2708,-15.811],[-48.2702,-15.8101],[-48.2687,-15.8084],[-48.2683,-15.8075],[-48.2675,-15.8064],[-48.2667,-15.8074],[-48.2658,-15.8067],[-48.265,-15.8056],[-48.2642,-15.8051],[-48.2632,-15.8049],[-48.2623,-15.8045],[-48.2604,-15.8034],[-48.2597,-15.8027],[-48.2579,-15.8014],[-48.2567,-15.8012],[-48.2545,-15.8012],[-48.2522,-15.8006],[-48.2512,-15.8001],[-48.2491,-15.8002],[-48.2492,-15.7992],[-48.249,-15.7981],[-48.248,-15.7986],[-48.2469,-15.7984],[-48.2467,-15.797],[-48.2457,-15.7965],[-48.2445,-15.7967],[-48.2427,-15.7982],[-48.2415,-15.7982],[-48.241,-15.7972],[-48.241,-15.7921],[-48.2402,-15.7913],[-48.2392,-15.7911],[-48.2388,-15.7903],[-48.2381,-15.788],[-48.2383,-15.7868],[-48.2383,-15.7857],[-48.2378,-15.7843],[-48.2367,-15.7837],[-48.2352,-15.7835],[-48.2343,-15.7829],[-48.2337,-15.7822],[-48.2333,-15.7814],[-48.233,-15.7808],[-48.2327,-15.7782],[-48.2321,-15.7773],[-48.2311,-15.7767],[-48.2297,-15.7764],[-48.2276,-15.7745],[-48.2246,-15.7725],[-48.2229,-15.7691],[-48.22,-15.7676],[-48.2197,-15.7667],[-48.2189,-15.7656],[-48.2169,-15.7636],[-48.2159,-15.7622],[-48.2151,-15.7612],[-48.2137,-15.7599],[-48.2131,-15.7592],[-48.2125,-15.7581],[-48.2123,-15.7566],[-48.2118,-15.7555],[-48.2116,-15.7541],[-48.21,-15.7506],[-48.2074,-15.7478],[-48.2065,-15.7457],[-48.2056,-15.741],[-48.2063,-15.739],[-48.2064,-15.7367],[-48.206,-15.7342],[-48.2048,-15.7299],[-48.2047,-15.7271],[-48.2051,-15.7258],[-48.2053,-15.7239],[-48.2065,-15.719],[-48.2071,-15.7179],[-48.2078,-15.7172],[-48.2113,-15.7148],[-48.2126,-15.713],[-48.2138,-15.7121],[-48.2177,-15.7076],[-48.2187,-15.7074],[-48.2212,-15.708],[-48.224,-15.7083],[-48.2262,-15.7087],[-48.2278,-15.7087],[-48.2299,-15.7091],[-48.2323,-15.7091],[-48.2332,-15.7085],[-48.2366,-15.7081],[-48.2376,-15.7077],[-48.2386,-15.7077],[-48.2393,-15.707],[-48.2404,-15.7065],[-48.2409,-15.7054],[-48.2413,-15.7041],[-48.2415,-15.7022],[-48.2407,-15.6981],[-48.2407,-15.6967],[-48.2409,-15.6957],[-48.2407,-15.6931],[-48.2411,-15.6906],[-48.2417,-15.6899],[-48.2422,-15.6887],[-48.242,-15.6876],[-48.2406,-15.6853],[-48.2403,-15.6835],[-48.2398,-15.6822],[-48.238,-15.6742],[-48.2373,-15.672],[-48.2363,-15.67],[-48.2357,-15.668],[-48.2349,-15.6641],[-48.2347,-15.6608],[-48.2345,-15.6586],[-48.2361,-15.6492],[-48.2352,-15.6447],[-48.2325,-15.6387],[-48.2286,-15.6328],[-48.2235,-15.6273],[-48.2185,-15.6222],[-48.2111,-15.6209],[-48.2052,-15.6211],[-48.1999,-15.6214],[-48.1994,-15.6159],[-48.1989,-15.6097],[-48.2001,-15.4997],[-48.0528,-15.4997],[-48.0357,-15.4997],[-47.9786,-15.4998],[-47.8525,-15.5],[-47.7716,-15.5],[-47.6883,-15.5],[-47.6166,-15.5],[-47.5238,-15.5],[-47.5001,-15.5],[-47.4955,-15.4999],[-47.4955,-15.4999],[-47.4926,-15.4999],[-47.4169,-15.4999],[-47.4173,-15.5464],[-47.4158,-15.5464],[-47.414,-15.5477]]]}}]}