{"type":"FeatureCollection","metadata":{"fonte":"IBGE, via github.com/tbrugz/geodata-br"},"features":[{"type":"Feature","properties":{"nome":"Amparo de São Francisco","cod":"2800100","uf":"SE"},"geometry":{"type":"Polygon","coordinates":[[[-36.9256,-10.1277],[-36.9237,-10.1293],[-36.9212,-10.1279],[-36.9182,-10.1317],[-36.9181,-10.1318],[-36.9106,-10.1375],[-36.8873,-10.1426],[-36.8803,-10.1446],[-36.9031,-10.1735],[-36.9431,-10.2271],[-36.94,-10.162],[-36.9398,-10.158],[-36.9344,-10.1205],[-36.9256,-10.1277]]]}},{"type":"Feature","properties":{"nome":"Aquidabã","cod":"2800209","uf":"SE"},"geometry":{"type":"Polygon","coordinates":[[[-37.0571,-10.1807],[-37.0166,-10.1906],[-36.9945,-10.1772],[-36.9832,-10.1952],[-36.9713,-10.2041],[-36.9626,-10.2299],[-36.9608,-10.2352],[-36.9584,-10.234],[-36.9431,-10.2271],[-36.9287,-10.2224],[-36.952,-10.2661],[-36.9334,-10.2757],[-36.9368,-10.2778],[-36.9558,-10.2896],[-37.009,-10.3019],[-37.0117,-10.3109],[-37.012,-10.312],[-37.0121,-10.3124],[-37.0178,-10.332],[-37.0183,-10.3319],[-37.0258,-10.3302],[-37.0287,-10.3258],[-37.0341,-10.3285],[-37.0387,-10.3271],[-37.0524,-10.3404],[-37.0623,-10.3287],[-37.0766,-10.3389],[-37.0785,-10.3458],[-37.0851,-10.347],[-37.0897,-10.3578],[-37.0991,-10.3597],[-37.0973,-10.362],[-37.1022,-10.3692],[-37.1094,-10.3694],[-37.1115,-10.373],[-37.1188,-10.3683],[-37.1246,-10.3752],[-37.1279,-10.3739],[-37.1258,-10.3717],[-37.1284,-10.3717],[-37.135,-10.3588],[-37.1401,-10.3602],[-37.1396,-10.3629],[-37.1441,-10.3617],[-37.1437,-10.3669],[-37.1469,-10.3661],[-37.1459,-10.362],[-37.1526,-10.3673],[-37.1534,-10.3639],[-37.1584,-10.3655],[-37.159,-10.3616],[-37.1531,-10.3583],[-37.1575,-10.3502],[-37.1535,-10.3474],[-37.1635,-10.3399],[-37.1618,-10.3341],[-37.1651,-10.332],[-37.1489,-10.3224],[-37.1492,-10.3151],[-37.1553,-10.307],[-37.1474,-10.3027],[-37.1493,-10.2929],[-37.1504,-10.2885],[-37.147,-10.2877],[-37.1394,-10.2805],[-37.1378,-10.2746],[-37.1384,-10.2617],[-37.1424,-10.2561],[-37.1407,-10.2462],[-37.1486,-10.241],[-37.1507,-10.2355],[-37.1498,-10.2224],[-37.1428,-10.2044],[-37.1364,-10.2],[-37.1362,-10.1998],[-37.137,-10.1933],[-37.1539,-10.187],[-37.1518,-10.1649],[-37.1516,-10.1648],[-37.0576,-10.1806],[-37.0572,-10.1806],[-37.0571,-10.1807]]]}},{"type":"Feature","properties":{"nome":"Aracaju","cod":"2800308","uf":"SE"},"geometry":{"type":"Polygon","coordinates":[[[-37.0744,-10.8644],[-37.0677,-10.8769],[-37.0574,-10.8645],[-37.0442,-10.8645],[-37.0354,-10.8679],[-37.0394,-10.8837],[-37.0437,-10.894],[-37.0425,-10.9155],[-37.0418,-10.9394],[-37.0362,-10.9558],[-37.0259,-10.9637],[-37.0557,-10.9977],[-37.1306,-11.1049],[-37.1541,-11.1516],[-37.1571,-11.1574],[-37.163,-11.1521],[-37.1669,-11.1463],[-37.1619,-11.1329],[-37.1617,-11.1172],[-37.1662,-11.1048],[-37.1627,-11.0919],[-37.172,-11.0834],[-37.1736,-11.077],[-37.165,-11.0657],[-37.1562,-11.0542],[-37.1441,-11.0578],[-37.1383,-11.0634],[-37.1021,-10.9693],[-37.0992,-10.9617],[-37.091,-10.9405],[-37.1004,-10.9195],[-37.1071,-10.9044],[-37.1022,-10.8955],[-37.1057,-10.8899],[-37.1039,-10.8863],[-37.0974,-10.8846],[-37.1036,-10.8767],[-37.0972,-10.8751],[-37.0831,-10.8634],[-37.0744,-10.8644]]]}},{"type":"Feature","properties":{"nome":"Arauá","cod":"2800407","uf":"SE"},"geometry":{"type":"Polygon","coordinates":[[[-37.5543,-11.1834],[-37.5502,-11.1853],[-37.5472,-11.1821],[-37.5433,-11.1885],[-37.5365,-11.1884],[-37.5322,-11.1972],[-37.5376,-11.2189],[-37.5325,-11.2275],[-37.5255,-11.2268],[-37.525,-11.2318],[-37.5298,-11.2371],[-37.5287,-11.242],[-37.5241,-11.2422],[-37.5263,-11.2542],[-37.5234,-11.2582],[-37.5151,-11.2652],[-37.5141,-11.2719],[-37.5067,-11.2738],[-37.5157,-11.2886],[-37.5208,-11.2914],[-37.5242,-11.2929],[-37.5232,-11.2996],[-37.5298,-11.3052],[-37.5493,-11.3047],[-37.5718,-11.323],[-37.5808,-11.3264],[-37.5904,-11.3255],[-37.6005,-11.3426],[-37.6037,-11.342],[-37.6072,-11.339],[-37.6086,-11.3377],[-37.6183,-11.3292],[-37.6631,-11.2895],[-37.6631,-11.2817],[-37.6633,-11.2538],[-37.6653,-11.2458],[-37.6697,-11.2444],[-37.672,-11.2385],[-37.6602,-11.2187],[-37.6506,-11.2202],[-37.6416,-11.2168],[-37.635,-11.2196],[-37.6154,-11.2152],[-37.6077,-11.2172],[-37.597,-11.2137],[-37.5962,-11.2031],[-37.5866,-11.196],[-37.5775,-11.1892],[-37.576,-11.1881],[-37.5746,-11.1871],[-37.5466,-11.1664],[-37.5495,-11.1727],[-37.5564,-11.1783],[-37.5543,-11.1834]]]}},{"type":"Feature","properties":{"nome":"Areia Branca","cod":"2800506","uf":"SE"},"geometry":{"type":"Polygon","coordinates":[[[-37.3186,-10.7378],[-37.3159,-10.7403],[-37.299,-10.7298],[-37.2932,-10.7224],[-37.2827,-10.7211],[-37.2799,-10.7259],[-37.2821,-10.7289],[-37.2822,-10.7382],[-37.2715,-10.7472],[-37.2729,-10.7519],[-37.2453,-10.7779],[-37.2728,-10.7983],[-37.2833,-10.806],[-37.3173,-10.8312],[-37.318,-10.8317],[-37.3177,-10.8318],[-37.318,-10.8341],[-37.3288,-10.833],[-37.3368,-10.8392],[-37.3411,-10.848],[-37.351,-10.8495],[-37.3632,-10.8467],[-37.3752,-10.8522],[-37.4032,-10.8441],[-37.4066,-10.8317],[-37.4043,-10.8257],[-37.4027,-10.8239],[-37.3957,-10.8094],[-37.3925,-10.8027],[-37.3772,-10.771],[-37.3759,-10.7683],[-37.3631,-10.7417],[-37.3629,-10.7412],[-37.3531,-10.7326],[-37.3445,-10.727],[-37.336,-10.7214],[-37.3322,-10.7262],[-37.3176,-10.7308],[-37.3148,-10.7312],[-37.3115,-10.7325],[-37.3146,-10.7336],[-37.3186,-10.7378]]]}},{"type":"Feature","properties":{"nome":"Barra dos Coqueiros","cod":"2800605","uf":"SE"},"geometry":{"type":"Polygon","coordinates":[[[-36.8725,-10.7408],[-36.8691,-10.7436],[-36.8611,-10.742],[-36.8537,-10.7432],[-36.9127,-10.8054],[-36.9327,-10.8264],[-36.9359,-10.83],[-36.9565,-10.8551],[-36.9913,-10.8997],[-37.012,-10.9272],[-37.0197,-10.9396],[-37.0216,-10.9426],[-37.0263,-10.9511],[-37.0259,-10.9637],[-37.0362,-10.9558],[-37.0418,-10.9394],[-37.0425,-10.9155],[-37.0437,-10.894],[-37.0394,-10.8837],[-37.0277,-10.8848],[-37.0238,-10.8769],[-37.0161,-10.8745],[-37.0153,-10.8639],[-37.0089,-10.8644],[-37.0057,-10.8589],[-36.9982,-10.8603],[-36.9947,-10.8572],[-36.9973,-10.8526],[-36.9948,-10.8474],[-36.9893,-10.8519],[-36.9829,-10.8485],[-36.9814,-10.8434],[-36.9881,-10.8363],[-36.9843,-10.8317],[-36.9823,-10.8354],[-36.9786,-10.832],[-36.9686,-10.8328],[-36.9649,-10.8193],[-36.9599,-10.8168],[-36.9602,-10.8087],[-36.9567,-10.8087],[-36.9473,-10.7982],[-36.9391,-10.7956],[-36.937,-10.7868],[-36.9286,-10.7901],[-36.9272,-10.7867],[-36.9257,-10.7882],[-36.8991,-10.7721],[-36.8836,-10.7474],[-36.8764,-10.7386],[-36.8725,-10.7408]]]}},{"type":"Feature","properties":{"nome":"Boquim","cod":"2800670","uf":"SE"},"geometry":{"type":"Polygon","coordinates":[[[-37.5284,-11.0526],[-37.5389,-11.096],[-37.5531,-11.1408],[-37.5484,-11.1416],[-37.5411,-11.1428],[-37.5463,-11.1477],[-37.5437,-11.1538],[-37.5547,-11.1539],[-37.5466,-11.1664],[-37.5746,-11.1871],[-37.576,-11.1881],[-37.5775,-11.1892],[-37.5866,-11.196],[-37.5962,-11.2031],[-37.6059,-11.1998],[-37.6063,-11.1995],[-37.6086,-11.2018],[-37.6401,-11.1983],[-37.6409,-11.1979],[-37.6691,-11.183],[-37.67,-11.1826],[-37.6785,-11.1895],[-37.6834,-11.1798],[-37.6911,-11.1708],[-37.7051,-11.1924],[-37.7005,-11.1839],[-37.7021,-11.1807],[-37.7066,-11.1752],[-37.6952,-11.1662],[-37.6722,-11.1482],[-37.6721,-11.1481],[-37.6464,-11.1258],[-37.6491,-11.1087],[-37.6336,-11.0819],[-37.6236,-11.0882],[-37.6179,-11.0829],[-37.6119,-11.078],[-37.6164,-11.0723],[-37.6148,-11.0699],[-37.6221,-11.067],[-37.6219,-11.067],[-37.5648,-11.0396],[-37.5697,-11.0343],[-37.5682,-11.025],[-37.5488,-11.0099],[-37.5468,-11.0084],[-37.5307,-10.9958],[-37.5284,-11.0526]]]}},{"type":"Feature","properties":{"nome":"Brejo Grande","cod":"2800704","uf":"SE"},"geometry":{"type":"Polygon","coordinates":[[[-36.3995,-10.5114],[-36.3996,-10.5195],[-36.4059,-10.5173],[-36.4353,-10.5208],[-36.4973,-10.538],[-36.4843,-10.5282],[-36.4991,-10.5126],[-36.5851,-10.4993],[-36.5569,-10.4833],[-36.5274,-10.4654],[-36.5128,-10.4464],[-36.4969,-10.4407],[-36.4838,-10.4367],[-36.4893,-10.4236],[-36.4871,-10.4225],[-36.4871,-10.4225],[-36.4632,-10.4063],[-36.4565,-10.4069],[-36.4433,-10.4176],[-36.4376,-10.418],[-36.4301,-10.4249],[-36.417,-10.4536],[-36.4049,-10.4813],[-36.4048,-10.4818],[-36.3935,-10.4999],[-36.3935,-10.5036],[-36.3995,-10.5114]]]}},{"type":"Feature","properties":{"nome":"Campo do Brito","cod":"2801009","uf":"SE"},"geometry":{"type":"Polygon","coordinates":[[[-37.5606,-10.6913],[-37.5484,-10.697],[-37.5483,-10.6969],[-37.5357,-10.6941],[-37.5322,-10.6883],[-37.5266,-10.688],[-37.5003,-10.6876],[-37.4998,-10.6929],[-37.4956,-10.6946],[-37.4815,-10.6998],[-37.4741,-10.7101],[-37.4633,-10.7126],[-37.4581,-10.721],[-37.4517,-10.7377],[-37.45,-10.7502],[-37.4505,-10.7628],[-37.4487,-10.7664],[-37.4522,-10.7696],[-37.4422,-10.7764],[-37.4409,-10.7826],[-37.4429,-10.7852],[-37.4459,-10.7818],[-37.4487,-10.7869],[-37.4433,-10.8022],[-37.4312,-10.8307],[-37.4268,-10.8298],[-37.4238,-10.8291],[-37.4027,-10.8239],[-37.4043,-10.8257],[-37.4421,-10.8668],[-37.4562,-10.8822],[-37.4593,-10.8793],[-37.4572,-10.872],[-37.471,-10.8526],[-37.4776,-10.8589],[-37.4831,-10.858],[-37.4806,-10.8405],[-37.4882,-10.8375],[-37.4883,-10.8327],[-37.4938,-10.8304],[-37.4975,-10.8326],[-37.5071,-10.8242],[-37.5118,-10.8255],[-37.5242,-10.8191],[-37.5196,-10.8123],[-37.5242,-10.8094],[-37.524,-10.8093],[-37.5167,-10.8037],[-37.516,-10.7984],[-37.5214,-10.8002],[-37.5197,-10.7922],[-37.5226,-10.7938],[-37.5298,-10.7904],[-37.5279,-10.7841],[-37.5347,-10.7822],[-37.5358,-10.7845],[-37.5434,-10.7799],[-37.5495,-10.7833],[-37.5584,-10.7784],[-37.5611,-10.7753],[-37.5659,-10.7674],[-37.5626,-10.7606],[-37.5597,-10.7569],[-37.5644,-10.751],[-37.5702,-10.7437],[-37.5875,-10.7208],[-37.5859,-10.7116],[-37.59,-10.7006],[-37.5954,-10.6956],[-37.5852,-10.6804],[-37.5767,-10.6847],[-37.5739,-10.6898],[-37.5606,-10.6913]]]}},{"type":"Feature","properties":{"nome":"Canhoba","cod":"2801108","uf":"SE"},"geometry":{"type":"Polygon","coordinates":[[[-36.9302,-10.1053],[-36.9212,-10.1279],[-36.9237,-10.1293],[-36.9256,-10.1277],[-36.9344,-10.1205],[-36.9398,-10.158],[-36.94,-10.162],[-36.9431,-10.2271],[-36.9584,-10.234],[-36.9608,-10.2352],[-36.9626,-10.2299],[-36.9713,-10.2041],[-36.9832,-10.1952],[-36.9945,-10.1772],[-37.0166,-10.1906],[-37.0571,-10.1807],[-37.0572,-10.1806],[-37.0576,-10.1806],[-37.1516,-10.1648],[-37.1464,-10.1631],[-37.0899,-10.1444],[-37.0646,-10.136],[-37.0552,-10.1268],[-37.0467,-10.1245],[-37.0437,-10.1329],[-37.0402,-10.1325],[-37.0404,-10.137],[-37.0321,-10.1323],[-37.0283,-10.1211],[-37.0159,-10.1097],[-37.0081,-10.1038],[-36.9902,-10.0828],[-36.9851,-10.0812],[-36.9536,-10.0712],[-36.9519,-10.0744],[-36.9505,-10.0771],[-36.9468,-10.0861],[-36.9302,-10.1053]]]}},{"type":"Feature","properties":{"nome":"Canindé de São Francisco","cod":"2801207","uf":"SE"},"geometry":{"type":"Polygon","coordinates":[[[-37.9559,-9.5337],[-37.9168,-9.5485],[-37.8938,-9.5391],[-37.8858,-9.5497],[-37.8419,-9.579],[-37.8372,-9.5829],[-37.8328,-9.5945],[-37.8234,-9.5909],[-37.8179,-9.5925],[-37.8067,-9.6097],[-37.7928,-9.6202],[-37.7873,-9.6326],[-37.7847,-9.6382],[-37.7783,-9.6383],[-37.7465,-9.6253],[-37.7367,-9.6266],[-37.7114,-9.6309],[-37.6865,-9.6442],[-37.6805,-9.6476],[-37.6705,-9.6562],[-37.6661,-9.6656],[-37.7485,-9.6843],[-37.7811,-9.6916],[-37.7816,-9.6918],[-37.8214,-9.7008],[-37.8228,-9.7011],[-37.8306,-9.7029],[-37.8335,-9.7095],[-37.8431,-9.7479],[-37.8407,-9.7617],[-37.8542,-9.7828],[-37.854,-9.7837],[-37.854,-9.7956],[-37.8591,-9.8009],[-37.8687,-9.8412],[-37.8637,-9.847],[-37.8682,-9.8542],[-37.8691,-9.866],[-37.8678,-9.8977],[-37.8824,-9.9105],[-37.8868,-9.9133],[-37.897,-9.9126],[-37.9003,-9.9202],[-37.9199,-9.9355],[-37.9252,-9.9435],[-37.9261,-9.9534],[-37.9363,-9.9656],[-37.9492,-9.971],[-37.9571,-9.9709],[-37.968,-9.9624],[-37.9876,-9.9214],[-37.9973,-9.9163],[-37.9974,-9.9104],[-37.9915,-9.9022],[-37.9854,-9.8894],[-37.9822,-9.8684],[-37.9764,-9.8601],[-37.9726,-9.8477],[-37.9762,-9.8417],[-37.9743,-9.8296],[-37.9661,-9.8195],[-37.9663,-9.8156],[-37.973,-9.814],[-37.9974,-9.8029],[-38.0168,-9.787],[-38.0198,-9.7775],[-38.0279,-9.7757],[-38.0312,-9.7706],[-38.0295,-9.7651],[-38.0333,-9.7597],[-38.0387,-9.7341],[-38.0394,-9.7329],[-38.043,-9.7118],[-38.0415,-9.691],[-38.0396,-9.6862],[-38.0246,-9.6825],[-38.0218,-9.6664],[-38.0067,-9.6513],[-37.9967,-9.65],[-37.9927,-9.6564],[-37.99,-9.6555],[-37.9902,-9.65],[-37.9875,-9.647],[-37.9898,-9.6412],[-38.0077,-9.636],[-38.0084,-9.6314],[-38.0156,-9.629],[-38.0184,-9.6231],[-38.0349,-9.6122],[-38.0402,-9.6022],[-38.0387,-9.5831],[-38.0365,-9.5807],[-38.0408,-9.5758],[-38.0399,-9.572],[-38.0314,-9.5676],[-38.0296,-9.574],[-38.0264,-9.5745],[-38.0198,-9.5614],[-38.0177,-9.552],[-38.0227,-9.5486],[-38.0215,-9.5406],[-38.0135,-9.5345],[-38.0128,-9.5279],[-38.0029,-9.5146],[-37.989,-9.5269],[-37.9559,-9.5337]]]}},{"type":"Feature","properties":{"nome":"Capela","cod":"2801306","uf":"SE"},"geometry":{"type":"Polygon","coordinates":[[[-37.0287,-10.3258],[-37.0258,-10.3302],[-37.0183,-10.3319],[-37.0178,-10.332],[-37.0062,-10.3262],[-36.9998,-10.3283],[-37.0001,-10.3522],[-36.9969,-10.3537],[-36.9843,-10.3716],[-36.982,-10.3697],[-36.9776,-10.3731],[-36.9865,-10.3847],[-36.9807,-10.395],[-36.9834,-10.4029],[-36.9741,-10.4178],[-36.9672,-10.4246],[-36.9635,-10.4381],[-36.9615,-10.4424],[-36.953,-10.4431],[-36.9427,-10.4445],[-36.9372,-10.4513],[-36.935,-10.45],[-36.9449,-10.4847],[-36.956,-10.5233],[-36.9774,-10.5298],[-36.9758,-10.5381],[-36.9757,-10.5385],[-36.9759,-10.5433],[-36.9923,-10.5889],[-37.0108,-10.6405],[-37.0358,-10.6251],[-37.0733,-10.6154],[-37.0669,-10.608],[-37.066,-10.5979],[-37.0679,-10.5913],[-37.0771,-10.5891],[-37.0747,-10.5773],[-37.07,-10.5731],[-37.0736,-10.5605],[-37.0685,-10.5293],[-37.0696,-10.5291],[-37.0808,-10.527],[-37.1068,-10.5307],[-37.1036,-10.5284],[-37.1025,-10.5102],[-37.1133,-10.4922],[-37.1146,-10.4824],[-37.123,-10.4756],[-37.1378,-10.4701],[-37.1377,-10.4687],[-37.1352,-10.4516],[-37.1184,-10.441],[-37.1129,-10.4329],[-37.1119,-10.4246],[-37.1107,-10.4144],[-37.1143,-10.4123],[-37.1178,-10.4097],[-37.11,-10.4048],[-37.1127,-10.401],[-37.1071,-10.4],[-37.1182,-10.4],[-37.118,-10.3884],[-37.1317,-10.3838],[-37.1246,-10.3752],[-37.1188,-10.3683],[-37.1115,-10.373],[-37.1094,-10.3694],[-37.1022,-10.3692],[-37.0973,-10.362],[-37.0991,-10.3597],[-37.0897,-10.3578],[-37.0851,-10.347],[-37.0785,-10.3458],[-37.0766,-10.3389],[-37.0623,-10.3287],[-37.0524,-10.3404],[-37.0387,-10.3271],[-37.0341,-10.3285],[-37.0287,-10.3258]]]}},{"type":"Feature","properties":{"nome":"Carira","cod":"2801405","uf":"SE"},"geometry":{"type":"Polygon","coordinates":[[[-37.7002,-10.1927],[-37.7007,-10.2007],[-37.6951,-10.2072],[-37.6887,-10.2036],[-37.6814,-10.2081],[-37.6812,-10.2083],[-37.6735,-10.206],[-37.6535,-10.2184],[-37.6485,-10.2252],[-37.6232,-10.2438],[-37.6163,-10.2402],[-37.6132,-10.2491],[-37.6064,-10.2395],[-37.6,-10.2427],[-37.6008,-10.2469],[-37.5962,-10.2504],[-37.6111,-10.2771],[-37.5888,-10.3121],[-37.5888,-10.3122],[-37.5776,-10.3299],[-37.5752,-10.3709],[-37.6224,-10.4102],[-37.627,-10.4149],[-37.6807,-10.4804],[-37.724,-10.5086],[-37.7249,-10.5092],[-37.7309,-10.5157],[-37.7725,-10.5062],[-37.7793,-10.5106],[-37.7974,-10.5087],[-37.8087,-10.5126],[-37.8153,-10.517],[-37.8167,-10.5127],[-37.8127,-10.5081],[-37.817,-10.5035],[-37.8207,-10.4842],[-37.849,-10.4427],[-37.8585,-10.4298],[-37.8508,-10.4157],[-37.8529,-10.4061],[-37.8369,-10.4006],[-37.8422,-10.3981],[-37.8403,-10.3895],[-37.8332,-10.3849],[-37.8386,-10.3788],[-37.8337,-10.3797],[-37.8303,-10.3745],[-37.8237,-10.3776],[-37.8217,-10.3719],[-37.8127,-10.3658],[-37.8074,-10.3662],[-37.7873,-10.3541],[-37.7853,-10.3483],[-37.7762,-10.3438],[-37.7622,-10.344],[-37.7432,-10.3373],[-37.7345,-10.3324],[-37.741,-10.3175],[-37.7412,-10.3169],[-37.7654,-10.1958],[-37.7549,-10.2003],[-37.717,-10.1875],[-37.7002,-10.1927]]]}},{"type":"Feature","properties":{"nome":"Carmópolis","cod":"2801504","uf":"SE"},"geometry":{"type":"Polygon","coordinates":[[[-36.909,-10.6777],[-36.9002,-10.6933],[-36.9027,-10.6919],[-36.9054,-10.6974],[-36.9119,-10.7002],[-36.9123,-10.7048],[-36.9149,-10.6999],[-36.9193,-10.7011],[-36.9172,-10.6858],[-36.9431,-10.6853],[-36.9819,-10.6828],[-36.9877,-10.6813],[-37.011,-10.6753],[-37.0108,-10.6405],[-36.9916,-10.6312],[-36.9806,-10.6309],[-36.9685,-10.6305],[-36.9702,-10.6375],[-36.9608,-10.6499],[-36.9338,-10.6541],[-36.9296,-10.6698],[-36.9232,-10.6764],[-36.909,-10.6777]]]}},{"type":"Feature","properties":{"nome":"Cedro de São João","cod":"2801603","uf":"SE"},"geometry":{"type":"Polygon","coordinates":[[[-36.8556,-10.2781],[-36.875,-10.2967],[-36.8806,-10.2964],[-36.8859,-10.3004],[-36.9023,-10.3238],[-36.9322,-10.3081],[-36.9355,-10.3063],[-36.9334,-10.2757],[-36.952,-10.2661],[-36.9287,-10.2224],[-36.8991,-10.2255],[-36.8877,-10.2263],[-36.8674,-10.2278],[-36.8514,-10.2378],[-36.8482,-10.2398],[-36.8441,-10.2615],[-36.8556,-10.2781]]]}},{"type":"Feature","properties":{"nome":"Cristinápolis","cod":"2801702","uf":"SE"},"geometry":{"type":"Polygon","coordinates":[[[-37.7201,-11.4072],[-37.7039,-11.4165],[-37.7038,-11.4168],[-37.7023,-11.4208],[-37.6928,-11.4246],[-37.6915,-11.4324],[-37.6856,-11.4344],[-37.6824,-11.4436],[-37.6765,-11.4464],[-37.6718,-11.4567],[-37.6771,-11.4725],[-37.6603,-11.4849],[-37.6535,-11.479],[-37.6524,-11.4821],[-37.646,-11.4865],[-37.6447,-11.4986],[-37.6484,-11.4995],[-37.6456,-11.5032],[-37.6367,-11.5013],[-37.6361,-11.5121],[-37.6316,-11.5183],[-37.6367,-11.5175],[-37.6435,-11.5238],[-37.6514,-11.5178],[-37.6535,-11.5288],[-37.6571,-11.5328],[-37.6646,-11.5328],[-37.6615,-11.543],[-37.6722,-11.559],[-37.6698,-11.5636],[-37.6732,-11.5682],[-37.6843,-11.5616],[-37.6878,-11.5658],[-37.7001,-11.5619],[-37.6955,-11.549],[-37.6962,-11.5446],[-37.7025,-11.5399],[-37.7119,-11.5522],[-37.719,-11.5496],[-37.7276,-11.5523],[-37.7307,-11.5371],[-37.7482,-11.538],[-37.7592,-11.5245],[-37.763,-11.5242],[-37.7629,-11.528],[-37.7703,-11.531],[-37.7746,-11.524],[-37.7908,-11.5233],[-37.7947,-11.5181],[-37.8004,-11.52],[-37.812,-11.5156],[-37.8192,-11.5012],[-37.8182,-11.4989],[-37.8128,-11.5009],[-37.8086,-11.4965],[-37.8159,-11.4916],[-37.8245,-11.4912],[-37.8327,-11.4826],[-37.8108,-11.4218],[-37.807,-11.4119],[-37.7469,-11.4116],[-37.7356,-11.4079],[-37.7297,-11.4014],[-37.7235,-11.399],[-37.7201,-11.4072]]]}},{"type":"Feature","properties":{"nome":"Cumbe","cod":"2801900","uf":"SE"},"geometry":{"type":"Polygon","coordinates":[[[-37.2142,-10.3],[-37.2106,-10.3],[-37.2096,-10.2959],[-37.2068,-10.2995],[-37.2001,-10.2965],[-37.1934,-10.303],[-37.1856,-10.3015],[-37.1815,-10.3074],[-37.1719,-10.3113],[-37.1688,-10.3208],[-37.1723,-10.3242],[-37.1663,-10.3277],[-37.1685,-10.3333],[-37.1744,-10.3343],[-37.1712,-10.3378],[-37.1734,-10.3388],[-37.1676,-10.3421],[-37.1635,-10.3399],[-37.1535,-10.3474],[-37.1575,-10.3502],[-37.1531,-10.3583],[-37.159,-10.3616],[-37.1584,-10.3655],[-37.1534,-10.3639],[-37.1526,-10.3673],[-37.1459,-10.362],[-37.1469,-10.3661],[-37.1437,-10.3669],[-37.1441,-10.3617],[-37.1396,-10.3629],[-37.1401,-10.3602],[-37.135,-10.3588],[-37.1284,-10.3717],[-37.1258,-10.3717],[-37.1279,-10.3739],[-37.1246,-10.3752],[-37.1317,-10.3838],[-37.118,-10.3884],[-37.1182,-10.4],[-37.1071,-10.4],[-37.1127,-10.401],[-37.11,-10.4048],[-37.1178,-10.4097],[-37.1185,-10.409],[-37.1214,-10.4054],[-37.1282,-10.4108],[-37.1321,-10.4062],[-37.1441,-10.42],[-37.148,-10.4162],[-37.1522,-10.418],[-37.1512,-10.4143],[-37.1572,-10.411],[-37.162,-10.4108],[-37.1692,-10.4175],[-37.175,-10.4147],[-37.1806,-10.4156],[-37.1896,-10.4064],[-37.2066,-10.4018],[-37.2097,-10.3952],[-37.2109,-10.3925],[-37.2113,-10.3921],[-37.2235,-10.3812],[-37.2251,-10.3798],[-37.228,-10.3765],[-37.2281,-10.3759],[-37.2324,-10.3631],[-37.2394,-10.3588],[-37.2394,-10.3411],[-37.2489,-10.3181],[-37.2351,-10.3053],[-37.2352,-10.3014],[-37.2371,-10.3005],[-37.2423,-10.2931],[-37.2413,-10.2869],[-37.2558,-10.2797],[-37.2579,-10.2677],[-37.2927,-10.2553],[-37.2611,-10.2372],[-37.2609,-10.2379],[-37.2495,-10.2567],[-37.2423,-10.2624],[-37.2357,-10.2739],[-37.2365,-10.2796],[-37.2312,-10.2833],[-37.225,-10.2967],[-37.2142,-10.3]]]}},{"type":"Feature","properties":{"nome":"Divina Pastora","cod":"2802007","uf":"SE"},"geometry":{"type":"Polygon","coordinates":[[[-37.2069,-10.6072],[-37.1776,-10.625],[-37.1502,-10.6204],[-37.1586,-10.6274],[-37.143,-10.6248],[-37.1457,-10.636],[-37.142,-10.6441],[-37.1337,-10.6508],[-37.1145,-10.647],[-37.0986,-10.6438],[-37.094,-10.6382],[-37.0925,-10.6409],[-37.0888,-10.6478],[-37.0903,-10.6547],[-37.1152,-10.6845],[-37.1211,-10.702],[-37.1422,-10.7],[-37.1465,-10.7194],[-37.1518,-10.7222],[-37.1537,-10.7259],[-37.151,-10.7326],[-37.1507,-10.7381],[-37.158,-10.7418],[-37.1571,-10.7468],[-37.161,-10.751],[-37.1635,-10.7434],[-37.1606,-10.7363],[-37.1714,-10.7339],[-37.1679,-10.727],[-37.1749,-10.7234],[-37.1806,-10.7181],[-37.1853,-10.7239],[-37.1873,-10.7253],[-37.1937,-10.7284],[-37.2074,-10.7251],[-37.1997,-10.7201],[-37.2031,-10.7161],[-37.2022,-10.7104],[-37.2066,-10.7062],[-37.2031,-10.6976],[-37.1967,-10.6923],[-37.1995,-10.6894],[-37.1994,-10.6767],[-37.1926,-10.6765],[-37.1906,-10.6687],[-37.1937,-10.6676],[-37.1902,-10.6635],[-37.1895,-10.6577],[-37.181,-10.6547],[-37.1837,-10.6487],[-37.1815,-10.6414],[-37.185,-10.6403],[-37.1933,-10.6268],[-37.203,-10.628],[-37.2047,-10.6245],[-37.2025,-10.6142],[-37.2069,-10.6072]]]}},{"type":"Feature","properties":{"nome":"Estância","cod":"2802106","uf":"SE"},"geometry":{"type":"Polygon","coordinates":[[[-37.3375,-11.1664],[-37.3418,-11.1751],[-37.3456,-11.176],[-37.3483,-11.1929],[-37.3493,-11.1967],[-37.3403,-11.2067],[-37.3303,-11.2141],[-37.3322,-11.2184],[-37.3275,-11.222],[-37.3309,-11.2309],[-37.329,-11.2368],[-37.3131,-11.248],[-37.3122,-11.249],[-37.2821,-11.273],[-37.2609,-11.2884],[-37.2806,-11.3196],[-37.2928,-11.3446],[-37.3189,-11.4265],[-37.3253,-11.4314],[-37.3296,-11.4447],[-37.3408,-11.4419],[-37.3524,-11.442],[-37.3729,-11.4542],[-37.4007,-11.4342],[-37.4009,-11.4339],[-37.4027,-11.4313],[-37.4084,-11.4234],[-37.4084,-11.4232],[-37.4098,-11.4104],[-37.406,-11.3927],[-37.3882,-11.3693],[-37.3883,-11.3545],[-37.3775,-11.337],[-37.387,-11.3194],[-37.3994,-11.3134],[-37.4074,-11.3009],[-37.4219,-11.3019],[-37.4259,-11.3069],[-37.4462,-11.2933],[-37.4518,-11.301],[-37.4522,-11.3012],[-37.4621,-11.3106],[-37.4878,-11.3031],[-37.5021,-11.3038],[-37.5232,-11.2996],[-37.5242,-11.2929],[-37.5208,-11.2914],[-37.5157,-11.2886],[-37.5067,-11.2738],[-37.5141,-11.2719],[-37.5151,-11.2652],[-37.5234,-11.2582],[-37.5263,-11.2542],[-37.5241,-11.2422],[-37.5287,-11.242],[-37.5298,-11.2371],[-37.525,-11.2318],[-37.5255,-11.2268],[-37.5325,-11.2275],[-37.5376,-11.2189],[-37.5322,-11.1972],[-37.5365,-11.1884],[-37.5433,-11.1885],[-37.5472,-11.1821],[-37.5502,-11.1853],[-37.5543,-11.1834],[-37.5564,-11.1783],[-37.5495,-11.1727],[-37.5466,-11.1664],[-37.5011,-11.1558],[-37.4995,-11.1554],[-37.4875,-11.1526],[-37.4586,-11.1459],[-37.4369,-11.1264],[-37.4349,-11.1174],[-37.4387,-11.1156],[-37.4371,-11.1112],[-37.4322,-11.1102],[-37.43,-11.1049],[-37.4382,-11.0966],[-37.4379,-11.0866],[-37.4221,-11.0758],[-37.389,-11.0531],[-37.3889,-11.0533],[-37.3846,-11.0549],[-37.3784,-11.0688],[-37.3699,-11.0716],[-37.3655,-11.0777],[-37.3573,-11.0879],[-37.3505,-11.0906],[-37.3369,-11.1124],[-37.3393,-11.1283],[-37.3314,-11.1381],[-37.3321,-11.1472],[-37.3387,-11.1521],[-37.3389,-11.1615],[-37.3375,-11.1664]]]}},{"type":"Feature","properties":{"nome":"Feira Nova","cod":"2802205","uf":"SE"},"geometry":{"type":"Polygon","coordinates":[[[-37.2558,-10.2797],[-37.2413,-10.2869],[-37.2423,-10.2931],[-37.2371,-10.3005],[-37.2436,-10.2976],[-37.2543,-10.3047],[-37.2648,-10.3032],[-37.2737,-10.3061],[-37.2726,-10.3086],[-37.2701,-10.3142],[-37.2796,-10.3114],[-37.2862,-10.3136],[-37.2873,-10.3189],[-37.2947,-10.3196],[-37.2971,-10.3253],[-37.3024,-10.3278],[-37.301,-10.333],[-37.3085,-10.3474],[-37.3176,-10.3513],[-37.3162,-10.3586],[-37.3258,-10.3656],[-37.3261,-10.3746],[-37.3343,-10.3787],[-37.3434,-10.3781],[-37.3451,-10.3802],[-37.3409,-10.3838],[-37.3486,-10.3841],[-37.3496,-10.3761],[-37.3496,-10.3761],[-37.3493,-10.3712],[-37.3564,-10.3684],[-37.3536,-10.3627],[-37.351,-10.3646],[-37.3449,-10.3625],[-37.3445,-10.358],[-37.3499,-10.3554],[-37.3499,-10.3465],[-37.3592,-10.3445],[-37.3604,-10.3363],[-37.3559,-10.3339],[-37.3625,-10.3288],[-37.3688,-10.33],[-37.3713,-10.3274],[-37.3733,-10.33],[-37.3779,-10.3169],[-37.3824,-10.3154],[-37.3875,-10.3195],[-37.3913,-10.3173],[-37.3852,-10.3086],[-37.3873,-10.3047],[-37.3866,-10.2931],[-37.3893,-10.2939],[-37.3938,-10.2882],[-37.3904,-10.2732],[-37.394,-10.2596],[-37.3982,-10.2553],[-37.3909,-10.2378],[-37.3843,-10.2179],[-37.3609,-10.2145],[-37.3361,-10.211],[-37.332,-10.2104],[-37.2611,-10.2372],[-37.2927,-10.2553],[-37.2579,-10.2677],[-37.2558,-10.2797]]]}},{"type":"Feature","properties":{"nome":"Frei Paulo","cod":"2802304","uf":"SE"},"geometry":{"type":"Polygon","coordinates":[[[-37.5057,-10.6201],[-37.5301,-10.6454],[-37.5582,-10.619],[-37.6121,-10.6093],[-37.6298,-10.6061],[-37.6409,-10.6041],[-37.6495,-10.5912],[-37.6746,-10.5534],[-37.6883,-10.5329],[-37.7249,-10.5092],[-37.724,-10.5086],[-37.6807,-10.4804],[-37.627,-10.4149],[-37.6224,-10.4102],[-37.5752,-10.3709],[-37.558,-10.4436],[-37.5481,-10.4611],[-37.548,-10.4612],[-37.5474,-10.462],[-37.5107,-10.5056],[-37.5062,-10.5151],[-37.5002,-10.5281],[-37.4992,-10.5296],[-37.474,-10.566],[-37.4739,-10.5661],[-37.4892,-10.5919],[-37.499,-10.6086],[-37.5057,-10.6201]]]}},{"type":"Feature","properties":{"nome":"Gararu","cod":"2802403","uf":"SE"},"geometry":{"type":"Polygon","coordinates":[[[-37.1323,-9.9134],[-37.0803,-9.9609],[-37.0747,-9.9663],[-37.0649,-9.9753],[-37.0622,-9.9774],[-37.0615,-9.978],[-37.0439,-9.9883],[-37.0296,-9.9859],[-37.0052,-9.9758],[-36.9945,-9.9749],[-36.9673,-9.9925],[-36.9587,-10.0107],[-36.9581,-10.0125],[-36.9575,-10.0141],[-36.9575,-10.0142],[-36.9572,-10.0151],[-36.9561,-10.0232],[-36.9561,-10.0233],[-36.9578,-10.0238],[-36.9654,-10.0259],[-37.0064,-10.0373],[-37.0268,-10.0543],[-37.0607,-10.061],[-37.0617,-10.0611],[-37.1023,-10.0506],[-37.1029,-10.0553],[-37.1115,-10.0512],[-37.1277,-10.0569],[-37.1307,-10.0537],[-37.1381,-10.0565],[-37.139,-10.0527],[-37.1464,-10.0509],[-37.1595,-10.0523],[-37.1728,-10.049],[-37.18,-10.0341],[-37.1899,-10.0279],[-37.1963,-10.0261],[-37.1924,-10.0307],[-37.1883,-10.0306],[-37.1903,-10.0336],[-37.1866,-10.041],[-37.1921,-10.0494],[-37.1853,-10.0547],[-37.1886,-10.057],[-37.1889,-10.0611],[-37.1971,-10.0688],[-37.1904,-10.0702],[-37.1859,-10.0661],[-37.1846,-10.0736],[-37.1949,-10.0743],[-37.199,-10.081],[-37.2113,-10.077],[-37.2127,-10.082],[-37.2048,-10.0956],[-37.2166,-10.0899],[-37.2185,-10.091],[-37.214,-10.1019],[-37.2217,-10.0998],[-37.2286,-10.1003],[-37.2321,-10.1138],[-37.2307,-10.1162],[-37.2242,-10.1116],[-37.2197,-10.1132],[-37.2261,-10.1198],[-37.2228,-10.1187],[-37.2203,-10.1219],[-37.2219,-10.1253],[-37.2181,-10.1308],[-37.2226,-10.133],[-37.22,-10.1352],[-37.2192,-10.1415],[-37.2239,-10.1436],[-37.2196,-10.1494],[-37.221,-10.1567],[-37.2279,-10.1528],[-37.2303,-10.1587],[-37.2382,-10.1589],[-37.2454,-10.1471],[-37.2493,-10.1541],[-37.2552,-10.1522],[-37.2613,-10.1549],[-37.2617,-10.1589],[-37.262,-10.1636],[-37.2681,-10.1664],[-37.2718,-10.1645],[-37.2797,-10.171],[-37.2843,-10.1685],[-37.2816,-10.1596],[-37.2855,-10.156],[-37.3003,-10.1556],[-37.3104,-10.155],[-37.3138,-10.1533],[-37.3451,-10.1559],[-37.3314,-10.1282],[-37.3485,-10.1148],[-37.3823,-10.0874],[-37.3824,-10.0873],[-37.4104,-10.0644],[-37.4198,-10.0618],[-37.4092,-10.0517],[-37.401,-10.0523],[-37.4,-10.0452],[-37.3945,-10.0489],[-37.3918,-10.0404],[-37.3832,-10.0376],[-37.3847,-10.0303],[-37.3763,-10.0256],[-37.38,-10.021],[-37.3729,-10.0209],[-37.3727,-10.0168],[-37.3793,-10.0099],[-37.3668,-10.0071],[-37.3638,-10.0099],[-37.3648,-10.0154],[-37.3596,-10.0132],[-37.3537,-10.0153],[-37.3482,-10.0035],[-37.3543,-10.0042],[-37.3545,-9.9997],[-37.3518,-9.9936],[-37.3486,-9.9996],[-37.3431,-9.9989],[-37.3436,-9.9922],[-37.3391,-9.9864],[-37.3327,-9.9933],[-37.3341,-10.0038],[-37.328,-10.0097],[-37.3323,-10.0154],[-37.325,-10.0126],[-37.316,-10.0076],[-37.3127,-9.9995],[-37.3079,-9.9994],[-37.302,-10.0022],[-37.2943,-10.0155],[-37.2862,-10.0094],[-37.2883,-9.9935],[-37.2847,-9.9882],[-37.2656,-9.9934],[-37.2726,-9.9652],[-37.2681,-9.9611],[-37.261,-9.9651],[-37.2569,-9.9583],[-37.2337,-9.9569],[-37.2309,-9.9123],[-37.2262,-9.8991],[-37.195,-9.8976],[-37.1526,-9.9004],[-37.1323,-9.9134]]]}},{"type":"Feature","properties":{"nome":"General Maynard","cod":"2802502","uf":"SE"},"geometry":{"type":"Polygon","coordinates":[[[-36.9355,-10.6961],[-36.9489,-10.7116],[-36.9505,-10.7132],[-36.9612,-10.7046],[-36.9701,-10.7062],[-36.975,-10.7009],[-36.9803,-10.7003],[-36.9919,-10.7029],[-37.0053,-10.696],[-37.0161,-10.6844],[-37.0106,-10.681],[-37.011,-10.6753],[-36.9877,-10.6813],[-36.9819,-10.6828],[-36.9431,-10.6853],[-36.9172,-10.6858],[-36.9355,-10.6961]]]}},{"type":"Feature","properties":{"nome":"Gracho Cardoso","cod":"2802601","uf":"SE"},"geometry":{"type":"Polygon","coordinates":[[[-37.2025,-10.1542],[-37.2037,-10.1578],[-37.1985,-10.1583],[-37.194,-10.1626],[-37.1894,-10.1584],[-37.1797,-10.1744],[-37.1744,-10.1736],[-37.1731,-10.1697],[-37.1632,-10.171],[-37.1518,-10.1649],[-37.1539,-10.187],[-37.137,-10.1933],[-37.1362,-10.1998],[-37.1364,-10.2],[-37.1428,-10.2044],[-37.1498,-10.2224],[-37.1507,-10.2355],[-37.1486,-10.241],[-37.1407,-10.2462],[-37.1424,-10.2561],[-37.1384,-10.2617],[-37.1378,-10.2746],[-37.1394,-10.2805],[-37.147,-10.2877],[-37.1504,-10.2885],[-37.1493,-10.2929],[-37.1474,-10.3027],[-37.1553,-10.307],[-37.1492,-10.3151],[-37.1489,-10.3224],[-37.1651,-10.332],[-37.1618,-10.3341],[-37.1635,-10.3399],[-37.1676,-10.3421],[-37.1734,-10.3388],[-37.1712,-10.3378],[-37.1744,-10.3343],[-37.1685,-10.3333],[-37.1663,-10.3277],[-37.1723,-10.3242],[-37.1688,-10.3208],[-37.1719,-10.3113],[-37.1815,-10.3074],[-37.1856,-10.3015],[-37.1934,-10.303],[-37.2001,-10.2965],[-37.2068,-10.2995],[-37.2096,-10.2959],[-37.2106,-10.3],[-37.2142,-10.3],[-37.225,-10.2967],[-37.2312,-10.2833],[-37.2365,-10.2796],[-37.2357,-10.2739],[-37.2423,-10.2624],[-37.2495,-10.2567],[-37.2609,-10.2379],[-37.2611,-10.2372],[-37.332,-10.2104],[-37.3138,-10.1533],[-37.3104,-10.155],[-37.3003,-10.1556],[-37.2855,-10.156],[-37.2816,-10.1596],[-37.2843,-10.1685],[-37.2797,-10.171],[-37.2718,-10.1645],[-37.2681,-10.1664],[-37.262,-10.1636],[-37.2617,-10.1589],[-37.2613,-10.1549],[-37.2552,-10.1522],[-37.2493,-10.1541],[-37.2454,-10.1471],[-37.2382,-10.1589],[-37.2303,-10.1587],[-37.2279,-10.1528],[-37.221,-10.1567],[-37.2196,-10.1494],[-37.2239,-10.1436],[-37.2192,-10.1415],[-37.22,-10.1352],[-37.2036,-10.1468],[-37.2069,-10.1499],[-37.2025,-10.1542]]]}},{"type":"Feature","properties":{"nome":"Ilha das Flores","cod":"2802700","uf":"SE"},"geometry":{"type":"Polygon","coordinates":[[[-36.5627,-10.4193],[-36.5443,-10.4296],[-36.5382,-10.4219],[-36.5102,-10.421],[-36.519,-10.4243],[-36.5219,-10.4327],[-36.5097,-10.4324],[-36.4893,-10.4236],[-36.4838,-10.4367],[-36.4969,-10.4407],[-36.5128,-10.4464],[-36.5274,-10.4654],[-36.5569,-10.4833],[-36.5851,-10.4993],[-36.5998,-10.4964],[-36.6002,-10.4912],[-36.5916,-10.4817],[-36.5998,-10.4776],[-36.5936,-10.4598],[-36.595,-10.4486],[-36.5905,-10.4449],[-36.5859,-10.4506],[-36.5863,-10.4445],[-36.583,-10.4398],[-36.5804,-10.441],[-36.5819,-10.4372],[-36.5746,-10.4381],[-36.5754,-10.4349],[-36.5657,-10.4319],[-36.5627,-10.4193]]]}},{"type":"Feature","properties":{"nome":"Indiaroba","cod":"2802809","uf":"SE"},"geometry":{"type":"Polygon","coordinates":[[[-37.5349,-11.416],[-37.5252,-11.4227],[-37.5077,-11.4143],[-37.5033,-11.4279],[-37.4935,-11.443],[-37.493,-11.4432],[-37.4852,-11.4432],[-37.4801,-11.45],[-37.4699,-11.4496],[-37.4716,-11.447],[-37.4692,-11.4465],[-37.4639,-11.4513],[-37.4607,-11.444],[-37.4465,-11.4407],[-37.4406,-11.4253],[-37.4317,-11.4239],[-37.4218,-11.4301],[-37.4138,-11.4277],[-37.4084,-11.4234],[-37.4027,-11.4313],[-37.4009,-11.4339],[-37.4007,-11.4342],[-37.3729,-11.4542],[-37.3922,-11.4785],[-37.4027,-11.488],[-37.4116,-11.4947],[-37.4498,-11.5199],[-37.4633,-11.5231],[-37.5032,-11.524],[-37.5093,-11.53],[-37.5157,-11.5354],[-37.5195,-11.5484],[-37.5525,-11.5471],[-37.5582,-11.5504],[-37.5619,-11.5428],[-37.5685,-11.5394],[-37.5734,-11.5422],[-37.5722,-11.5483],[-37.5785,-11.5516],[-37.5853,-11.5419],[-37.5788,-11.5339],[-37.5811,-11.5307],[-37.589,-11.5277],[-37.603,-11.5399],[-37.6082,-11.5359],[-37.6163,-11.5376],[-37.6278,-11.5293],[-37.6316,-11.5183],[-37.6361,-11.5121],[-37.6367,-11.5013],[-37.6456,-11.5032],[-37.6484,-11.4995],[-37.6447,-11.4986],[-37.646,-11.4865],[-37.6524,-11.4821],[-37.6409,-11.4607],[-37.6345,-11.4488],[-37.6105,-11.4042],[-37.6021,-11.3884],[-37.602,-11.3884],[-37.5792,-11.4022],[-37.579,-11.4023],[-37.5725,-11.4062],[-37.5697,-11.4079],[-37.5644,-11.4111],[-37.5588,-11.4145],[-37.5349,-11.416]]]}},{"type":"Feature","properties":{"nome":"Itabaiana","cod":"2802908","uf":"SE"},"geometry":{"type":"Polygon","coordinates":[[[-37.4722,-10.5703],[-37.4617,-10.5952],[-37.4419,-10.5855],[-37.4223,-10.5759],[-37.4121,-10.5781],[-37.3946,-10.582],[-37.3924,-10.585],[-37.3914,-10.5888],[-37.3875,-10.5957],[-37.3898,-10.6015],[-37.3879,-10.6165],[-37.3879,-10.617],[-37.3898,-10.6256],[-37.3868,-10.6292],[-37.3804,-10.6299],[-37.3795,-10.6231],[-37.3745,-10.6305],[-37.3696,-10.6317],[-37.3676,-10.6376],[-37.3654,-10.6441],[-37.3595,-10.6446],[-37.3615,-10.6504],[-37.3591,-10.6543],[-37.3465,-10.6577],[-37.3286,-10.6532],[-37.3212,-10.687],[-37.3254,-10.7048],[-37.3306,-10.7178],[-37.336,-10.7214],[-37.3445,-10.727],[-37.3531,-10.7326],[-37.3629,-10.7412],[-37.3631,-10.7417],[-37.3759,-10.7683],[-37.3772,-10.771],[-37.3925,-10.8027],[-37.3957,-10.8094],[-37.4027,-10.8239],[-37.4238,-10.8291],[-37.4268,-10.8298],[-37.4312,-10.8307],[-37.4433,-10.8022],[-37.4487,-10.7869],[-37.4459,-10.7818],[-37.4429,-10.7852],[-37.4409,-10.7826],[-37.4422,-10.7764],[-37.4522,-10.7696],[-37.4487,-10.7664],[-37.4505,-10.7628],[-37.45,-10.7502],[-37.4517,-10.7377],[-37.4581,-10.721],[-37.4633,-10.7126],[-37.4741,-10.7101],[-37.4815,-10.6998],[-37.4956,-10.6946],[-37.4998,-10.6929],[-37.5003,-10.6876],[-37.505,-10.6801],[-37.5075,-10.6718],[-37.5183,-10.6656],[-37.5196,-10.655],[-37.5213,-10.6536],[-37.5301,-10.6454],[-37.5057,-10.6201],[-37.499,-10.6086],[-37.4892,-10.5919],[-37.4739,-10.5661],[-37.4722,-10.5703]]]}},{"type":"Feature","properties":{"nome":"Itabaianinha","cod":"2803005","uf":"SE"},"geometry":{"type":"Polygon","coordinates":[[[-37.7753,-11.1326],[-37.7654,-11.1422],[-37.7615,-11.1413],[-37.7507,-11.1489],[-37.7427,-11.1546],[-37.7376,-11.1505],[-37.7277,-11.165],[-37.7188,-11.1621],[-37.7119,-11.1686],[-37.7066,-11.1752],[-37.7021,-11.1807],[-37.7005,-11.1839],[-37.7051,-11.1924],[-37.7046,-11.1928],[-37.6965,-11.1985],[-37.6957,-11.2052],[-37.69,-11.2043],[-37.6833,-11.2212],[-37.6772,-11.2355],[-37.672,-11.2385],[-37.6697,-11.2444],[-37.6653,-11.2458],[-37.6633,-11.2538],[-37.6631,-11.2817],[-37.6631,-11.2895],[-37.6918,-11.3077],[-37.6918,-11.3164],[-37.6918,-11.3297],[-37.6919,-11.3654],[-37.702,-11.375],[-37.7297,-11.4014],[-37.7356,-11.4079],[-37.7469,-11.4116],[-37.7511,-11.4004],[-37.7509,-11.4053],[-37.7592,-11.4067],[-37.7635,-11.4037],[-37.7612,-11.3938],[-37.769,-11.3897],[-37.7705,-11.3772],[-37.7775,-11.3784],[-37.785,-11.373],[-37.7855,-11.365],[-37.7868,-11.3591],[-37.791,-11.3597],[-37.7914,-11.3476],[-37.8152,-11.3315],[-37.8152,-11.3244],[-37.8152,-11.3243],[-37.822,-11.3189],[-37.8287,-11.3207],[-37.8361,-11.3144],[-37.8377,-11.3126],[-37.8455,-11.3048],[-37.8482,-11.3011],[-37.8523,-11.2974],[-37.8554,-11.3002],[-37.8633,-11.2995],[-37.8709,-11.2845],[-37.874,-11.2846],[-37.8784,-11.2886],[-37.9011,-11.2718],[-37.9073,-11.264],[-37.9177,-11.265],[-37.927,-11.252],[-37.9149,-11.2348],[-37.904,-11.2213],[-37.8864,-11.2125],[-37.8834,-11.211],[-37.8784,-11.2171],[-37.8681,-11.2218],[-37.8659,-11.2098],[-37.8706,-11.207],[-37.8693,-11.2008],[-37.8759,-11.1898],[-37.876,-11.1862],[-37.8615,-11.1739],[-37.8611,-11.1735],[-37.846,-11.1607],[-37.828,-11.1515],[-37.7926,-11.1332],[-37.7845,-11.1321],[-37.7843,-11.1321],[-37.7753,-11.1326]]]}},{"type":"Feature","properties":{"nome":"Itabi","cod":"2803104","uf":"SE"},"geometry":{"type":"Polygon","coordinates":[[[-37.1728,-10.049],[-37.1595,-10.0523],[-37.1464,-10.0509],[-37.139,-10.0527],[-37.1381,-10.0565],[-37.1307,-10.0537],[-37.1277,-10.0569],[-37.1115,-10.0512],[-37.1029,-10.0553],[-37.1023,-10.0506],[-37.0617,-10.0611],[-37.0638,-10.0719],[-37.0649,-10.0777],[-37.0676,-10.0919],[-37.0646,-10.136],[-37.0899,-10.1444],[-37.1464,-10.1631],[-37.1516,-10.1648],[-37.1518,-10.1649],[-37.1632,-10.171],[-37.1731,-10.1697],[-37.1744,-10.1736],[-37.1797,-10.1744],[-37.1894,-10.1584],[-37.194,-10.1626],[-37.1985,-10.1583],[-37.2037,-10.1578],[-37.2025,-10.1542],[-37.2069,-10.1499],[-37.2036,-10.1468],[-37.22,-10.1352],[-37.2226,-10.133],[-37.2181,-10.1308],[-37.2219,-10.1253],[-37.2203,-10.1219],[-37.2228,-10.1187],[-37.2261,-10.1198],[-37.2197,-10.1132],[-37.2242,-10.1116],[-37.2307,-10.1162],[-37.2321,-10.1138],[-37.2286,-10.1003],[-37.2217,-10.0998],[-37.214,-10.1019],[-37.2185,-10.091],[-37.2166,-10.0899],[-37.2048,-10.0956],[-37.2127,-10.082],[-37.2113,-10.077],[-37.199,-10.081],[-37.1949,-10.0743],[-37.1846,-10.0736],[-37.1859,-10.0661],[-37.1904,-10.0702],[-37.1971,-10.0688],[-37.1889,-10.0611],[-37.1886,-10.057],[-37.1853,-10.0547],[-37.1921,-10.0494],[-37.1866,-10.041],[-37.1903,-10.0336],[-37.1883,-10.0306],[-37.1924,-10.0307],[-37.1963,-10.0261],[-37.1899,-10.0279],[-37.18,-10.0341],[-37.1728,-10.049]]]}},{"type":"Feature","properties":{"nome":"Itaporanga d'Ajuda","cod":"2803203","uf":"SE"},"geometry":{"type":"Polygon","coordinates":[[[-37.4032,-10.8441],[-37.3752,-10.8522],[-37.3632,-10.8467],[-37.351,-10.8495],[-37.3411,-10.848],[-37.3368,-10.8392],[-37.3288,-10.833],[-37.318,-10.8341],[-37.3288,-10.9213],[-37.3314,-10.9388],[-37.3384,-10.9458],[-37.3353,-10.9525],[-37.3331,-10.964],[-37.3246,-10.9711],[-37.3285,-10.9774],[-37.306,-10.9859],[-37.3053,-10.9932],[-37.3032,-10.9977],[-37.3032,-10.9978],[-37.2988,-11.0101],[-37.2952,-11.017],[-37.2852,-11.023],[-37.2846,-11.027],[-37.2533,-11.0344],[-37.2268,-11.0402],[-37.2244,-11.065],[-37.2189,-11.0761],[-37.2045,-11.0855],[-37.1831,-11.0933],[-37.1662,-11.1048],[-37.1617,-11.1172],[-37.1619,-11.1329],[-37.1669,-11.1463],[-37.163,-11.1521],[-37.1571,-11.1574],[-37.1515,-11.1623],[-37.1974,-11.2124],[-37.2046,-11.2202],[-37.2609,-11.2884],[-37.2821,-11.273],[-37.3122,-11.249],[-37.3131,-11.248],[-37.329,-11.2368],[-37.3309,-11.2309],[-37.3275,-11.222],[-37.3322,-11.2184],[-37.3303,-11.2141],[-37.3403,-11.2067],[-37.3493,-11.1967],[-37.3483,-11.1929],[-37.3456,-11.176],[-37.3418,-11.1751],[-37.3375,-11.1664],[-37.3389,-11.1615],[-37.3387,-11.1521],[-37.3321,-11.1472],[-37.3314,-11.1381],[-37.3393,-11.1283],[-37.3369,-11.1124],[-37.3505,-11.0906],[-37.3573,-11.0879],[-37.3655,-11.0777],[-37.3699,-11.0716],[-37.3784,-11.0688],[-37.3846,-11.0549],[-37.3889,-11.0533],[-37.389,-11.0531],[-37.4039,-11.0346],[-37.4041,-11.0343],[-37.4052,-11.0276],[-37.4127,-11.0084],[-37.4259,-11.0006],[-37.4275,-10.9891],[-37.434,-10.9876],[-37.4395,-10.9816],[-37.4553,-10.9771],[-37.4708,-10.9524],[-37.4741,-10.9472],[-37.48,-10.9378],[-37.4807,-10.9366],[-37.5031,-10.9009],[-37.496,-10.9045],[-37.4853,-10.9001],[-37.4727,-10.8933],[-37.4649,-10.8928],[-37.4562,-10.8822],[-37.4421,-10.8668],[-37.4043,-10.8257],[-37.4066,-10.8317],[-37.4032,-10.8441]]]}},{"type":"Feature","properties":{"nome":"Japaratuba","cod":"2803302","uf":"SE"},"geometry":{"type":"Polygon","coordinates":[[[-36.8766,-10.4121],[-36.8682,-10.4187],[-36.857,-10.4195],[-36.8573,-10.4277],[-36.8673,-10.4308],[-36.875,-10.4383],[-36.87,-10.4544],[-36.8676,-10.48],[-36.8676,-10.4848],[-36.8616,-10.4898],[-36.8596,-10.4968],[-36.8472,-10.4981],[-36.8378,-10.5072],[-36.8306,-10.5319],[-36.808,-10.5493],[-36.8082,-10.5693],[-36.8085,-10.5742],[-36.7833,-10.5755],[-36.8398,-10.619],[-36.8526,-10.6289],[-36.8932,-10.6601],[-36.8988,-10.6631],[-36.903,-10.6618],[-36.9059,-10.6639],[-36.9101,-10.667],[-36.9232,-10.6764],[-36.9296,-10.6698],[-36.9338,-10.6541],[-36.9608,-10.6499],[-36.9702,-10.6375],[-36.9685,-10.6305],[-36.9806,-10.6309],[-36.9916,-10.6312],[-37.0108,-10.6405],[-36.9923,-10.5889],[-36.9759,-10.5433],[-36.9757,-10.5385],[-36.9758,-10.5381],[-36.9774,-10.5298],[-36.956,-10.5233],[-36.9449,-10.4847],[-36.935,-10.45],[-36.9324,-10.4268],[-36.9287,-10.4245],[-36.9246,-10.4269],[-36.9171,-10.4198],[-36.9111,-10.4204],[-36.9049,-10.4169],[-36.904,-10.4123],[-36.9028,-10.4029],[-36.883,-10.3968],[-36.8768,-10.4055],[-36.8766,-10.4121]]]}},{"type":"Feature","properties":{"nome":"Japoatã","cod":"2803401","uf":"SE"},"geometry":{"type":"Polygon","coordinates":[[[-36.7936,-10.2881],[-36.7892,-10.2985],[-36.7783,-10.3079],[-36.778,-10.3082],[-36.7696,-10.3104],[-36.7617,-10.3182],[-36.7503,-10.3136],[-36.7392,-10.321],[-36.7361,-10.3264],[-36.738,-10.3398],[-36.7328,-10.3581],[-36.7185,-10.38],[-36.7017,-10.4055],[-36.7123,-10.4517],[-36.714,-10.4587],[-36.7307,-10.5221],[-36.733,-10.5307],[-36.7498,-10.5945],[-36.7549,-10.5937],[-36.7652,-10.5805],[-36.7833,-10.5755],[-36.8085,-10.5742],[-36.8082,-10.5693],[-36.808,-10.5493],[-36.8306,-10.5319],[-36.8378,-10.5072],[-36.8472,-10.4981],[-36.8596,-10.4968],[-36.8616,-10.4898],[-36.8676,-10.4848],[-36.8676,-10.48],[-36.87,-10.4544],[-36.875,-10.4383],[-36.8673,-10.4308],[-36.8573,-10.4277],[-36.857,-10.4195],[-36.8682,-10.4187],[-36.8766,-10.4121],[-36.8768,-10.4055],[-36.883,-10.3968],[-36.9028,-10.4029],[-36.8947,-10.3858],[-36.8553,-10.3816],[-36.8487,-10.3728],[-36.8396,-10.3557],[-36.8385,-10.3419],[-36.8271,-10.3322],[-36.821,-10.311],[-36.8173,-10.3106],[-36.8226,-10.3035],[-36.8188,-10.2973],[-36.8107,-10.2973],[-36.8017,-10.2838],[-36.799,-10.2821],[-36.8,-10.2866],[-36.7936,-10.2881]]]}},{"type":"Feature","properties":{"nome":"Lagarto","cod":"2803500","uf":"SE"},"geometry":{"type":"Polygon","coordinates":[[[-37.6466,-10.7089],[-37.637,-10.7124],[-37.6203,-10.7059],[-37.618,-10.7116],[-37.6171,-10.7141],[-37.6298,-10.7248],[-37.6321,-10.7317],[-37.6283,-10.7403],[-37.6327,-10.7469],[-37.6199,-10.748],[-37.6075,-10.7671],[-37.6003,-10.7809],[-37.6134,-10.7954],[-37.6136,-10.8007],[-37.6101,-10.8123],[-37.6003,-10.8145],[-37.5972,-10.8211],[-37.5969,-10.8218],[-37.5811,-10.8361],[-37.5727,-10.8393],[-37.5652,-10.8362],[-37.5516,-10.8399],[-37.5443,-10.835],[-37.5406,-10.8384],[-37.5171,-10.844],[-37.5111,-10.8434],[-37.5092,-10.835],[-37.4975,-10.8326],[-37.4938,-10.8304],[-37.4883,-10.8327],[-37.4882,-10.8375],[-37.4806,-10.8405],[-37.4831,-10.858],[-37.4776,-10.8589],[-37.471,-10.8526],[-37.4572,-10.872],[-37.4593,-10.8793],[-37.4562,-10.8822],[-37.4649,-10.8928],[-37.4727,-10.8933],[-37.4853,-10.9001],[-37.496,-10.9045],[-37.5031,-10.9009],[-37.4807,-10.9366],[-37.48,-10.9378],[-37.4741,-10.9472],[-37.4708,-10.9524],[-37.4553,-10.9771],[-37.4556,-10.977],[-37.5056,-10.9636],[-37.5181,-10.9602],[-37.5194,-10.9603],[-37.528,-10.9873],[-37.5298,-10.9932],[-37.5299,-10.9932],[-37.5307,-10.9958],[-37.5468,-11.0084],[-37.5488,-11.0099],[-37.5682,-11.025],[-37.5697,-11.0343],[-37.5648,-11.0396],[-37.6219,-11.067],[-37.6221,-11.067],[-37.6343,-11.0642],[-37.6437,-11.0463],[-37.6506,-11.0469],[-37.6561,-11.0403],[-37.67,-11.0314],[-37.6748,-11.0223],[-37.6847,-11.0269],[-37.6924,-11.0262],[-37.713,-11.0005],[-37.7188,-10.9966],[-37.7252,-10.993],[-37.7432,-10.9898],[-37.7453,-10.9967],[-37.7396,-11.0015],[-37.7411,-11.0108],[-37.7487,-11.0104],[-37.7538,-11.0036],[-37.7607,-11.0109],[-37.766,-11.0097],[-37.7683,-11.0167],[-37.7736,-11.0168],[-37.7763,-11.0062],[-37.7815,-11.0107],[-37.7858,-11.0076],[-37.7927,-11.019],[-37.7979,-11.0122],[-37.8089,-11.011],[-37.8117,-11.0032],[-37.8159,-11.0069],[-37.8217,-11.0049],[-37.8215,-10.9957],[-37.8251,-10.9899],[-37.8367,-10.9877],[-37.8318,-10.9799],[-37.8391,-10.9699],[-37.8382,-10.9642],[-37.8388,-10.9554],[-37.8342,-10.951],[-37.8398,-10.9472],[-37.8464,-10.934],[-37.8512,-10.9341],[-37.8746,-10.921],[-37.866,-10.898],[-37.8765,-10.8639],[-37.8605,-10.8689],[-37.8483,-10.865],[-37.828,-10.8586],[-37.8135,-10.8694],[-37.8048,-10.8406],[-37.7992,-10.8355],[-37.7911,-10.8314],[-37.7659,-10.8185],[-37.7517,-10.8066],[-37.7397,-10.8024],[-37.7331,-10.7973],[-37.724,-10.7857],[-37.7177,-10.7693],[-37.7205,-10.7667],[-37.7092,-10.7541],[-37.7099,-10.7508],[-37.7072,-10.7377],[-37.6981,-10.7367],[-37.6791,-10.7267],[-37.6784,-10.7139],[-37.6687,-10.7075],[-37.6639,-10.7164],[-37.6537,-10.7092],[-37.6468,-10.6955],[-37.6421,-10.6993],[-37.6466,-10.7089]]]}},{"type":"Feature","properties":{"nome":"Laranjeiras","cod":"2803609","uf":"SE"},"geometry":{"type":"Polygon","coordinates":[[[-37.161,-10.751],[-37.1526,-10.7691],[-37.1476,-10.7708],[-37.1443,-10.7657],[-37.1331,-10.768],[-37.134,-10.7761],[-37.1318,-10.7819],[-37.1256,-10.7859],[-37.1026,-10.7744],[-37.0878,-10.7827],[-37.087,-10.798],[-37.0749,-10.8071],[-37.0645,-10.8226],[-37.0932,-10.8232],[-37.1043,-10.8191],[-37.1113,-10.8288],[-37.1245,-10.8335],[-37.1374,-10.8351],[-37.1537,-10.8329],[-37.1577,-10.832],[-37.1585,-10.8363],[-37.1739,-10.8424],[-37.1802,-10.8546],[-37.1899,-10.8534],[-37.1899,-10.8527],[-37.2063,-10.8477],[-37.2151,-10.8481],[-37.2312,-10.8362],[-37.2433,-10.8335],[-37.3173,-10.8312],[-37.2833,-10.806],[-37.2728,-10.7983],[-37.2453,-10.7779],[-37.2286,-10.7611],[-37.2207,-10.7592],[-37.2153,-10.7658],[-37.1683,-10.753],[-37.161,-10.751]]]}},{"type":"Feature","properties":{"nome":"Macambira","cod":"2803708","uf":"SE"},"geometry":{"type":"Polygon","coordinates":[[[-37.5075,-10.6718],[-37.505,-10.6801],[-37.5003,-10.6876],[-37.5266,-10.688],[-37.5322,-10.6883],[-37.5357,-10.6941],[-37.5483,-10.6969],[-37.5484,-10.697],[-37.5606,-10.6913],[-37.5739,-10.6898],[-37.5767,-10.6847],[-37.5852,-10.6804],[-37.5954,-10.6956],[-37.6045,-10.6932],[-37.6078,-10.7],[-37.6053,-10.7087],[-37.6092,-10.7062],[-37.6112,-10.7121],[-37.618,-10.7116],[-37.6203,-10.7059],[-37.637,-10.7124],[-37.6466,-10.7089],[-37.6421,-10.6993],[-37.6468,-10.6955],[-37.6537,-10.7092],[-37.6639,-10.7164],[-37.6624,-10.7123],[-37.6662,-10.7072],[-37.662,-10.7025],[-37.6641,-10.6909],[-37.6635,-10.6811],[-37.6686,-10.6743],[-37.662,-10.6544],[-37.6559,-10.6473],[-37.6498,-10.6172],[-37.6409,-10.6041],[-37.6298,-10.6061],[-37.6121,-10.6093],[-37.5582,-10.619],[-37.5301,-10.6454],[-37.5213,-10.6536],[-37.5196,-10.655],[-37.5183,-10.6656],[-37.5075,-10.6718]]]}},{"type":"Feature","properties":{"nome":"Malhada dos Bois","cod":"2803807","uf":"SE"},"geometry":{"type":"Polygon","coordinates":[[[-36.9138,-10.379],[-36.9154,-10.393],[-36.927,-10.3809],[-36.9505,-10.3564],[-36.9696,-10.3364],[-37.009,-10.3019],[-36.9558,-10.2896],[-36.9368,-10.2778],[-36.9334,-10.2757],[-36.9355,-10.3063],[-36.9322,-10.3081],[-36.9023,-10.3238],[-36.9004,-10.3497],[-36.9133,-10.3743],[-36.9138,-10.379]]]}},{"type":"Feature","properties":{"nome":"Malhador","cod":"2803906","uf":"SE"},"geometry":{"type":"Polygon","coordinates":[[[-37.2961,-10.6006],[-37.2951,-10.6104],[-37.2914,-10.6102],[-37.2812,-10.62],[-37.2797,-10.6325],[-37.2686,-10.6352],[-37.2598,-10.6489],[-37.247,-10.6507],[-37.2475,-10.6612],[-37.2388,-10.6647],[-37.2315,-10.674],[-37.2279,-10.6844],[-37.2325,-10.6964],[-37.2239,-10.7044],[-37.227,-10.7078],[-37.2296,-10.7025],[-37.2332,-10.7045],[-37.2366,-10.7044],[-37.2388,-10.7082],[-37.2454,-10.7062],[-37.2499,-10.7088],[-37.2512,-10.7048],[-37.2593,-10.7022],[-37.2653,-10.7075],[-37.2653,-10.7126],[-37.2716,-10.7148],[-37.2763,-10.7111],[-37.2827,-10.7211],[-37.2932,-10.7224],[-37.299,-10.7298],[-37.3159,-10.7403],[-37.3186,-10.7378],[-37.3146,-10.7336],[-37.3115,-10.7325],[-37.3148,-10.7312],[-37.3176,-10.7308],[-37.3322,-10.7262],[-37.336,-10.7214],[-37.3306,-10.7178],[-37.3254,-10.7048],[-37.3212,-10.687],[-37.3286,-10.6532],[-37.3286,-10.6531],[-37.332,-10.6392],[-37.3278,-10.6281],[-37.321,-10.6192],[-37.3151,-10.6148],[-37.3032,-10.6059],[-37.2961,-10.6006]]]}},{"type":"Feature","properties":{"nome":"Maruim","cod":"2804003","uf":"SE"},"geometry":{"type":"Polygon","coordinates":[[[-37.089,-10.6828],[-37.0846,-10.6862],[-37.0751,-10.6843],[-37.0688,-10.6913],[-37.0591,-10.6918],[-37.0529,-10.7016],[-37.0625,-10.7175],[-37.0699,-10.7488],[-37.0703,-10.7507],[-37.0692,-10.769],[-37.075,-10.7787],[-37.0803,-10.778],[-37.0878,-10.7827],[-37.1026,-10.7744],[-37.1256,-10.7859],[-37.1318,-10.7819],[-37.134,-10.7761],[-37.1331,-10.768],[-37.1443,-10.7657],[-37.1476,-10.7708],[-37.1526,-10.7691],[-37.161,-10.751],[-37.1571,-10.7468],[-37.158,-10.7418],[-37.1507,-10.7381],[-37.151,-10.7326],[-37.1537,-10.7259],[-37.1518,-10.7222],[-37.1465,-10.7194],[-37.1422,-10.7],[-37.1211,-10.702],[-37.1152,-10.6845],[-37.0903,-10.6547],[-37.0926,-10.6733],[-37.089,-10.6828]]]}},{"type":"Feature","properties":{"nome":"Moita Bonita","cod":"2804102","uf":"SE"},"geometry":{"type":"Polygon","coordinates":[[[-37.3367,-10.5395],[-37.3338,-10.5434],[-37.3254,-10.5413],[-37.3207,-10.54],[-37.3179,-10.5465],[-37.3111,-10.5483],[-37.3136,-10.5581],[-37.3115,-10.5648],[-37.3035,-10.5742],[-37.2939,-10.5758],[-37.2844,-10.5738],[-37.2718,-10.578],[-37.2628,-10.5769],[-37.2487,-10.5946],[-37.251,-10.595],[-37.2654,-10.5864],[-37.281,-10.5869],[-37.287,-10.5936],[-37.2929,-10.5941],[-37.2961,-10.6006],[-37.3032,-10.6059],[-37.3151,-10.6148],[-37.321,-10.6192],[-37.3278,-10.6281],[-37.332,-10.6392],[-37.3286,-10.6531],[-37.3286,-10.6532],[-37.3465,-10.6577],[-37.3591,-10.6543],[-37.3615,-10.6504],[-37.3595,-10.6446],[-37.3654,-10.6441],[-37.3676,-10.6376],[-37.3696,-10.6317],[-37.3745,-10.6305],[-37.3795,-10.6231],[-37.3804,-10.6299],[-37.3868,-10.6292],[-37.3898,-10.6256],[-37.3879,-10.617],[-37.3879,-10.6165],[-37.3898,-10.6015],[-37.3875,-10.5957],[-37.3914,-10.5888],[-37.3924,-10.585],[-37.3946,-10.582],[-37.3733,-10.5628],[-37.3641,-10.5591],[-37.3635,-10.5485],[-37.3459,-10.5391],[-37.3367,-10.5395]]]}},{"type":"Feature","properties":{"nome":"Monte Alegre de Sergipe","cod":"2804201","uf":"SE"},"geometry":{"type":"Polygon","coordinates":[[[-37.5235,-10.0085],[-37.488,-10.0175],[-37.4697,-10.0221],[-37.4279,-10.0554],[-37.4198,-10.0618],[-37.4201,-10.0678],[-37.4125,-10.0687],[-37.4135,-10.0765],[-37.4296,-10.0642],[-37.4279,-10.0764],[-37.4353,-10.0716],[-37.4423,-10.0763],[-37.4399,-10.085],[-37.4328,-10.0849],[-37.4397,-10.0909],[-37.4358,-10.1006],[-37.4482,-10.1047],[-37.4485,-10.1046],[-37.46,-10.1024],[-37.4594,-10.0959],[-37.464,-10.0917],[-37.4749,-10.0958],[-37.4803,-10.0891],[-37.4839,-10.0917],[-37.49,-10.1016],[-37.4948,-10.0966],[-37.5051,-10.1036],[-37.5135,-10.1009],[-37.5186,-10.1086],[-37.5227,-10.1038],[-37.5241,-10.1102],[-37.5313,-10.1134],[-37.538,-10.1096],[-37.5418,-10.1151],[-37.5506,-10.1123],[-37.5507,-10.1122],[-37.5576,-10.1219],[-37.5629,-10.1071],[-37.5673,-10.1081],[-37.585,-10.0945],[-37.5834,-10.0912],[-37.5891,-10.0897],[-37.5944,-10.097],[-37.598,-10.0936],[-37.6034,-10.1027],[-37.6141,-10.0954],[-37.6212,-10.1057],[-37.6295,-10.1024],[-37.6374,-10.1102],[-37.6449,-10.1105],[-37.6526,-10.1214],[-37.6588,-10.1226],[-37.6606,-10.1288],[-37.6667,-10.1262],[-37.6715,-10.1296],[-37.679,-10.1226],[-37.6892,-10.1229],[-37.6956,-10.1285],[-37.6986,-10.1259],[-37.7229,-10.1187],[-37.7317,-10.1113],[-37.74,-10.1089],[-37.7457,-10.1117],[-37.7832,-10.0952],[-37.7768,-10.1334],[-37.7808,-10.1277],[-37.7979,-10.1086],[-37.8094,-10.0825],[-37.8206,-10.0569],[-37.8235,-10.0354],[-37.8079,-10.0315],[-37.7754,-10.0332],[-37.7541,-10.0257],[-37.7382,-10.029],[-37.738,-10.0246],[-37.7312,-10.0205],[-37.7307,-10.0236],[-37.722,-10.0279],[-37.7015,-10.0138],[-37.6976,-10.0212],[-37.6919,-10.0199],[-37.6849,-10.0276],[-37.6725,-10.0251],[-37.6659,-10.0153],[-37.6557,-10.0137],[-37.6446,-10.0224],[-37.6377,-10.0186],[-37.6332,-10.0241],[-37.6289,-10.0215],[-37.6257,-10.0261],[-37.6144,-10.0258],[-37.6065,-10.0192],[-37.5968,-10.0235],[-37.5949,-10.0157],[-37.5904,-10.0159],[-37.587,-10.0116],[-37.5824,-9.9982],[-37.5632,-9.9986],[-37.5435,-10.0035],[-37.5235,-10.0085]]]}},{"type":"Feature","properties":{"nome":"Muribeca","cod":"2804300","uf":"SE"},"geometry":{"type":"Polygon","coordinates":[[[-37.009,-10.3019],[-36.9696,-10.3364],[-36.9505,-10.3564],[-36.927,-10.3809],[-36.9154,-10.393],[-36.9028,-10.4029],[-36.904,-10.4123],[-36.9049,-10.4169],[-36.9111,-10.4204],[-36.9171,-10.4198],[-36.9246,-10.4269],[-36.9287,-10.4245],[-36.9324,-10.4268],[-36.935,-10.45],[-36.9372,-10.4513],[-36.9427,-10.4445],[-36.953,-10.4431],[-36.9615,-10.4424],[-36.9635,-10.4381],[-36.9672,-10.4246],[-36.9741,-10.4178],[-36.9834,-10.4029],[-36.9807,-10.395],[-36.9865,-10.3847],[-36.9776,-10.3731],[-36.982,-10.3697],[-36.9843,-10.3716],[-36.9969,-10.3537],[-37.0001,-10.3522],[-36.9998,-10.3283],[-37.0062,-10.3262],[-37.0178,-10.332],[-37.0121,-10.3124],[-37.012,-10.312],[-37.0117,-10.3109],[-37.009,-10.3019]]]}},{"type":"Feature","properties":{"nome":"Neópolis","cod":"2804409","uf":"SE"},"geometry":{"type":"Polygon","coordinates":[[[-36.749,-10.2613],[-36.7396,-10.2722],[-36.7357,-10.2819],[-36.7317,-10.2786],[-36.7121,-10.2819],[-36.7052,-10.2824],[-36.7071,-10.278],[-36.7017,-10.2705],[-36.6848,-10.2748],[-36.6813,-10.273],[-36.653,-10.3212],[-36.6007,-10.3058],[-36.5886,-10.3014],[-36.5738,-10.3148],[-36.5656,-10.3291],[-36.5656,-10.3291],[-36.5682,-10.3621],[-36.564,-10.3797],[-36.5613,-10.3853],[-36.5616,-10.404],[-36.5652,-10.4114],[-36.5627,-10.4193],[-36.5657,-10.4319],[-36.5754,-10.4349],[-36.5746,-10.4381],[-36.5819,-10.4372],[-36.5804,-10.441],[-36.583,-10.4398],[-36.5863,-10.4445],[-36.5859,-10.4506],[-36.5905,-10.4449],[-36.595,-10.4486],[-36.5936,-10.4598],[-36.5998,-10.4776],[-36.5916,-10.4817],[-36.6002,-10.4912],[-36.5998,-10.4964],[-36.6049,-10.4474],[-36.6053,-10.4439],[-36.6069,-10.4339],[-36.6077,-10.4204],[-36.5985,-10.4147],[-36.6124,-10.4112],[-36.6166,-10.4097],[-36.6494,-10.3994],[-36.7017,-10.4055],[-36.7185,-10.38],[-36.7328,-10.3581],[-36.738,-10.3398],[-36.7361,-10.3264],[-36.7392,-10.321],[-36.7503,-10.3136],[-36.7617,-10.3182],[-36.7696,-10.3104],[-36.778,-10.3082],[-36.7783,-10.3079],[-36.7892,-10.2985],[-36.7936,-10.2881],[-36.8,-10.2866],[-36.799,-10.2821],[-36.8017,-10.2838],[-36.7996,-10.2791],[-36.7987,-10.2785],[-36.795,-10.275],[-36.7869,-10.2618],[-36.777,-10.265],[-36.7593,-10.2541],[-36.7562,-10.2612],[-36.749,-10.2613]]]}},{"type":"Feature","properties":{"nome":"Nossa Senhora Aparecida","cod":"2804458","uf":"SE"},"geometry":{"type":"Polygon","coordinates":[[[-37.5789,-10.2466],[-37.5728,-10.2494],[-37.5694,-10.247],[-37.5683,-10.2559],[-37.5614,-10.2607],[-37.5568,-10.2589],[-37.5555,-10.2663],[-37.5506,-10.2622],[-37.5531,-10.2583],[-37.5389,-10.2583],[-37.5387,-10.2646],[-37.5429,-10.2635],[-37.5413,-10.2681],[-37.5453,-10.2686],[-37.539,-10.2719],[-37.531,-10.2824],[-37.5247,-10.2807],[-37.5225,-10.2887],[-37.5165,-10.2883],[-37.5159,-10.2884],[-37.5114,-10.2957],[-37.5071,-10.2904],[-37.5052,-10.294],[-37.4992,-10.2923],[-37.4978,-10.295],[-37.4878,-10.2835],[-37.4856,-10.2865],[-37.4821,-10.2824],[-37.4828,-10.295],[-37.4724,-10.288],[-37.4696,-10.2902],[-37.4683,-10.2817],[-37.4653,-10.2832],[-37.4624,-10.2784],[-37.4595,-10.2795],[-37.4585,-10.284],[-37.4616,-10.2849],[-37.459,-10.2875],[-37.4512,-10.2919],[-37.4464,-10.2893],[-37.4479,-10.2941],[-37.4419,-10.2974],[-37.4405,-10.295],[-37.4353,-10.2961],[-37.4358,-10.3036],[-37.4282,-10.3075],[-37.4274,-10.302],[-37.42,-10.3029],[-37.4202,-10.3063],[-37.4178,-10.3062],[-37.4148,-10.3032],[-37.4103,-10.305],[-37.4078,-10.2907],[-37.4031,-10.2918],[-37.4047,-10.3056],[-37.4059,-10.3091],[-37.4067,-10.3181],[-37.4131,-10.3458],[-37.4097,-10.3671],[-37.4107,-10.4162],[-37.4107,-10.4163],[-37.4205,-10.402],[-37.4742,-10.4595],[-37.4842,-10.4598],[-37.4925,-10.4601],[-37.5212,-10.4611],[-37.5474,-10.462],[-37.548,-10.4612],[-37.5481,-10.4611],[-37.558,-10.4436],[-37.5752,-10.3709],[-37.5776,-10.3299],[-37.5888,-10.3122],[-37.5888,-10.3121],[-37.6111,-10.2771],[-37.5962,-10.2504],[-37.5937,-10.2516],[-37.5912,-10.2447],[-37.5808,-10.24],[-37.5789,-10.2466]]]}},{"type":"Feature","properties":{"nome":"Nossa Senhora da Glória","cod":"2804508","uf":"SE"},"geometry":{"type":"Polygon","coordinates":[[[-37.4104,-10.0644],[-37.3824,-10.0873],[-37.3823,-10.0874],[-37.3485,-10.1148],[-37.3314,-10.1282],[-37.3451,-10.1559],[-37.3138,-10.1533],[-37.332,-10.2104],[-37.3361,-10.211],[-37.3609,-10.2145],[-37.3843,-10.2179],[-37.3909,-10.2378],[-37.3982,-10.2553],[-37.4079,-10.2453],[-37.4031,-10.2918],[-37.4078,-10.2907],[-37.4103,-10.305],[-37.4148,-10.3032],[-37.4178,-10.3062],[-37.4202,-10.3063],[-37.42,-10.3029],[-37.4274,-10.302],[-37.4282,-10.3075],[-37.4358,-10.3036],[-37.4353,-10.2961],[-37.4405,-10.295],[-37.4419,-10.2974],[-37.4479,-10.2941],[-37.4464,-10.2893],[-37.4512,-10.2919],[-37.459,-10.2875],[-37.4616,-10.2849],[-37.4585,-10.284],[-37.4595,-10.2795],[-37.4624,-10.2784],[-37.4653,-10.2832],[-37.4683,-10.2817],[-37.4696,-10.2902],[-37.4724,-10.288],[-37.4828,-10.295],[-37.4821,-10.2824],[-37.4856,-10.2865],[-37.4878,-10.2835],[-37.4978,-10.295],[-37.4992,-10.2923],[-37.5052,-10.294],[-37.5071,-10.2904],[-37.5114,-10.2957],[-37.5159,-10.2884],[-37.5165,-10.2883],[-37.5225,-10.2887],[-37.5247,-10.2807],[-37.531,-10.2824],[-37.539,-10.2719],[-37.5453,-10.2686],[-37.5413,-10.2681],[-37.5429,-10.2635],[-37.5387,-10.2646],[-37.5389,-10.2583],[-37.5531,-10.2583],[-37.5506,-10.2622],[-37.5555,-10.2663],[-37.5568,-10.2589],[-37.5614,-10.2607],[-37.5683,-10.2559],[-37.5694,-10.247],[-37.5728,-10.2494],[-37.5789,-10.2466],[-37.5808,-10.24],[-37.5912,-10.2447],[-37.5937,-10.2516],[-37.5962,-10.2504],[-37.6008,-10.2469],[-37.6,-10.2427],[-37.6064,-10.2395],[-37.6132,-10.2491],[-37.6163,-10.2402],[-37.6232,-10.2438],[-37.6485,-10.2252],[-37.6535,-10.2184],[-37.6735,-10.206],[-37.6812,-10.2083],[-37.6814,-10.2081],[-37.6887,-10.2036],[-37.6951,-10.2072],[-37.7007,-10.2007],[-37.7002,-10.1927],[-37.717,-10.1875],[-37.7549,-10.2003],[-37.7654,-10.1958],[-37.7798,-10.1874],[-37.7826,-10.1802],[-37.774,-10.1444],[-37.7768,-10.1334],[-37.7832,-10.0952],[-37.7457,-10.1117],[-37.74,-10.1089],[-37.7317,-10.1113],[-37.7229,-10.1187],[-37.6986,-10.1259],[-37.6956,-10.1285],[-37.6892,-10.1229],[-37.679,-10.1226],[-37.6715,-10.1296],[-37.6667,-10.1262],[-37.6606,-10.1288],[-37.6588,-10.1226],[-37.6526,-10.1214],[-37.6449,-10.1105],[-37.6374,-10.1102],[-37.6295,-10.1024],[-37.6212,-10.1057],[-37.6141,-10.0954],[-37.6034,-10.1027],[-37.598,-10.0936],[-37.5944,-10.097],[-37.5891,-10.0897],[-37.5834,-10.0912],[-37.585,-10.0945],[-37.5673,-10.1081],[-37.5629,-10.1071],[-37.5576,-10.1219],[-37.5507,-10.1122],[-37.5506,-10.1123],[-37.5418,-10.1151],[-37.538,-10.1096],[-37.5313,-10.1134],[-37.5241,-10.1102],[-37.5227,-10.1038],[-37.5186,-10.1086],[-37.5135,-10.1009],[-37.5051,-10.1036],[-37.4948,-10.0966],[-37.49,-10.1016],[-37.4839,-10.0917],[-37.4803,-10.0891],[-37.4749,-10.0958],[-37.464,-10.0917],[-37.4594,-10.0959],[-37.46,-10.1024],[-37.4485,-10.1046],[-37.4482,-10.1047],[-37.4358,-10.1006],[-37.4397,-10.0909],[-37.4328,-10.0849],[-37.4399,-10.085],[-37.4423,-10.0763],[-37.4353,-10.0716],[-37.4279,-10.0764],[-37.4296,-10.0642],[-37.4135,-10.0765],[-37.4125,-10.0687],[-37.4201,-10.0678],[-37.4198,-10.0618],[-37.4104,-10.0644]]]}},{"type":"Feature","properties":{"nome":"Nossa Senhora das Dores","cod":"2804607","uf":"SE"},"geometry":{"type":"Polygon","coordinates":[[[-37.2352,-10.3014],[-37.2351,-10.3053],[-37.2489,-10.3181],[-37.2394,-10.3411],[-37.2394,-10.3588],[-37.2324,-10.3631],[-37.2281,-10.3759],[-37.228,-10.3765],[-37.2251,-10.3798],[-37.2235,-10.3812],[-37.2113,-10.3921],[-37.2109,-10.3925],[-37.2097,-10.3952],[-37.2066,-10.4018],[-37.1896,-10.4064],[-37.1806,-10.4156],[-37.175,-10.4147],[-37.1692,-10.4175],[-37.162,-10.4108],[-37.1572,-10.411],[-37.1512,-10.4143],[-37.1522,-10.418],[-37.148,-10.4162],[-37.1441,-10.42],[-37.1321,-10.4062],[-37.1282,-10.4108],[-37.1214,-10.4054],[-37.1185,-10.409],[-37.1178,-10.4097],[-37.1143,-10.4123],[-37.1107,-10.4144],[-37.1119,-10.4246],[-37.1129,-10.4329],[-37.1184,-10.441],[-37.1352,-10.4516],[-37.1377,-10.4687],[-37.1378,-10.4701],[-37.1393,-10.5066],[-37.1562,-10.5286],[-37.1601,-10.5343],[-37.1601,-10.5343],[-37.1805,-10.5624],[-37.1779,-10.5651],[-37.1774,-10.5655],[-37.1719,-10.5712],[-37.1755,-10.5793],[-37.1943,-10.5919],[-37.2069,-10.6072],[-37.2025,-10.6142],[-37.2047,-10.6245],[-37.2111,-10.6179],[-37.2179,-10.6164],[-37.2185,-10.6112],[-37.2288,-10.6084],[-37.2307,-10.6038],[-37.2363,-10.6039],[-37.2487,-10.5946],[-37.2628,-10.5769],[-37.2718,-10.578],[-37.2844,-10.5738],[-37.2939,-10.5758],[-37.3035,-10.5742],[-37.3115,-10.5648],[-37.3136,-10.5581],[-37.3111,-10.5483],[-37.3179,-10.5465],[-37.3207,-10.54],[-37.3219,-10.5379],[-37.3256,-10.5321],[-37.3259,-10.5315],[-37.3355,-10.5197],[-37.3358,-10.5194],[-37.3594,-10.4828],[-37.349,-10.4911],[-37.3019,-10.4751],[-37.3011,-10.4748],[-37.2745,-10.465],[-37.2805,-10.4615],[-37.2901,-10.4666],[-37.2921,-10.4581],[-37.2874,-10.454],[-37.2896,-10.4482],[-37.2944,-10.4487],[-37.2954,-10.4412],[-37.2919,-10.4379],[-37.2944,-10.4332],[-37.3025,-10.436],[-37.3081,-10.4255],[-37.3181,-10.4337],[-37.3253,-10.433],[-37.3314,-10.4314],[-37.3341,-10.4266],[-37.3318,-10.4242],[-37.324,-10.4205],[-37.3315,-10.4175],[-37.3293,-10.4127],[-37.3327,-10.407],[-37.3347,-10.4001],[-37.348,-10.3997],[-37.3409,-10.3838],[-37.3451,-10.3802],[-37.3434,-10.3781],[-37.3343,-10.3787],[-37.3261,-10.3746],[-37.3258,-10.3656],[-37.3162,-10.3586],[-37.3176,-10.3513],[-37.3085,-10.3474],[-37.301,-10.333],[-37.3024,-10.3278],[-37.2971,-10.3253],[-37.2947,-10.3196],[-37.2873,-10.3189],[-37.2862,-10.3136],[-37.2796,-10.3114],[-37.2701,-10.3142],[-37.2726,-10.3086],[-37.2737,-10.3061],[-37.2648,-10.3032],[-37.2543,-10.3047],[-37.2436,-10.2976],[-37.2371,-10.3005],[-37.2352,-10.3014]]]}},{"type":"Feature","properties":{"nome":"Nossa Senhora de Lourdes","cod":"2804706","uf":"SE"},"geometry":{"type":"Polygon","coordinates":[[[-37.0283,-10.1211],[-37.0321,-10.1323],[-37.0404,-10.137],[-37.0402,-10.1325],[-37.0437,-10.1329],[-37.0467,-10.1245],[-37.0552,-10.1268],[-37.0646,-10.136],[-37.0676,-10.0919],[-37.0649,-10.0777],[-37.0638,-10.0719],[-37.0617,-10.0611],[-37.0607,-10.061],[-37.0268,-10.0543],[-37.0064,-10.0373],[-36.9654,-10.0259],[-36.9578,-10.0238],[-36.9561,-10.0233],[-36.9588,-10.0501],[-36.9536,-10.0712],[-36.9851,-10.0812],[-36.9902,-10.0828],[-37.0081,-10.1038],[-37.0159,-10.1097],[-37.0283,-10.1211]]]}},{"type":"Feature","properties":{"nome":"Nossa Senhora do Socorro","cod":"2804805","uf":"SE"},"geometry":{"type":"Polygon","coordinates":[[[-37.0454,-10.8254],[-37.0306,-10.8395],[-37.0292,-10.8548],[-37.0354,-10.8679],[-37.0442,-10.8645],[-37.0574,-10.8645],[-37.0677,-10.8769],[-37.0744,-10.8644],[-37.0831,-10.8634],[-37.0972,-10.8751],[-37.1036,-10.8767],[-37.0974,-10.8846],[-37.1039,-10.8863],[-37.1057,-10.8899],[-37.1022,-10.8955],[-37.1071,-10.9044],[-37.1004,-10.9195],[-37.11,-10.9154],[-37.1475,-10.9291],[-37.1538,-10.9243],[-37.1625,-10.9251],[-37.166,-10.9167],[-37.1666,-10.9164],[-37.1721,-10.913],[-37.1722,-10.9052],[-37.1774,-10.8996],[-37.1847,-10.8969],[-37.1906,-10.887],[-37.198,-10.8902],[-37.2063,-10.8766],[-37.2187,-10.8784],[-37.2362,-10.8688],[-37.2458,-10.8646],[-37.2506,-10.8546],[-37.2602,-10.8526],[-37.2667,-10.8466],[-37.2721,-10.8518],[-37.291,-10.8521],[-37.2997,-10.8471],[-37.309,-10.8326],[-37.3177,-10.8318],[-37.318,-10.8317],[-37.3173,-10.8312],[-37.2433,-10.8335],[-37.2312,-10.8362],[-37.2151,-10.8481],[-37.2063,-10.8477],[-37.1899,-10.8527],[-37.1899,-10.8534],[-37.1802,-10.8546],[-37.1739,-10.8424],[-37.1585,-10.8363],[-37.1577,-10.832],[-37.1537,-10.8329],[-37.1374,-10.8351],[-37.1245,-10.8335],[-37.1113,-10.8288],[-37.1043,-10.8191],[-37.0932,-10.8232],[-37.0645,-10.8226],[-37.0454,-10.8254]]]}},{"type":"Feature","properties":{"nome":"Pacatuba","cod":"2804904","uf":"SE"},"geometry":{"type":"Polygon","coordinates":[[[-36.6201,-10.589],[-36.6733,-10.6283],[-36.6801,-10.6254],[-36.6856,-10.6229],[-36.7014,-10.6159],[-36.707,-10.6134],[-36.7498,-10.5945],[-36.733,-10.5307],[-36.7307,-10.5221],[-36.714,-10.4587],[-36.7123,-10.4517],[-36.7017,-10.4055],[-36.6494,-10.3994],[-36.6166,-10.4097],[-36.6124,-10.4112],[-36.5985,-10.4147],[-36.6077,-10.4204],[-36.6069,-10.4339],[-36.6053,-10.4439],[-36.6049,-10.4474],[-36.5998,-10.4964],[-36.5851,-10.4993],[-36.4991,-10.5126],[-36.4843,-10.5282],[-36.4973,-10.538],[-36.5999,-10.5796],[-36.6201,-10.589]]]}},{"type":"Feature","properties":{"nome":"Pedra Mole","cod":"2805000","uf":"SE"},"geometry":{"type":"Polygon","coordinates":[[[-37.6409,-10.6041],[-37.6498,-10.6172],[-37.6559,-10.6473],[-37.662,-10.6544],[-37.6686,-10.6743],[-37.6635,-10.6811],[-37.6641,-10.6909],[-37.662,-10.7025],[-37.6662,-10.7072],[-37.6624,-10.7123],[-37.6639,-10.7164],[-37.6687,-10.7075],[-37.6784,-10.7139],[-37.6843,-10.7078],[-37.6736,-10.7022],[-37.6772,-10.6959],[-37.6857,-10.692],[-37.6835,-10.6842],[-37.686,-10.6818],[-37.6943,-10.6834],[-37.7025,-10.6772],[-37.7037,-10.6693],[-37.7097,-10.6711],[-37.7135,-10.6659],[-37.6976,-10.647],[-37.6933,-10.639],[-37.6963,-10.6387],[-37.7018,-10.6411],[-37.7062,-10.6328],[-37.7148,-10.6338],[-37.7193,-10.6239],[-37.7119,-10.6086],[-37.7113,-10.6089],[-37.7046,-10.6064],[-37.7046,-10.5916],[-37.6958,-10.582],[-37.6918,-10.5584],[-37.6883,-10.5329],[-37.6746,-10.5534],[-37.6495,-10.5912],[-37.6409,-10.6041]]]}},{"type":"Feature","properties":{"nome":"Pedrinhas","cod":"2805109","uf":"SE"},"geometry":{"type":"Polygon","coordinates":[[[-37.6834,-11.1798],[-37.6785,-11.1895],[-37.67,-11.1826],[-37.6691,-11.183],[-37.6409,-11.1979],[-37.6401,-11.1983],[-37.6086,-11.2018],[-37.6063,-11.1995],[-37.6059,-11.1998],[-37.5962,-11.2031],[-37.597,-11.2137],[-37.6077,-11.2172],[-37.6154,-11.2152],[-37.635,-11.2196],[-37.6416,-11.2168],[-37.6506,-11.2202],[-37.6602,-11.2187],[-37.672,-11.2385],[-37.6772,-11.2355],[-37.6833,-11.2212],[-37.69,-11.2043],[-37.6957,-11.2052],[-37.6965,-11.1985],[-37.7046,-11.1928],[-37.7051,-11.1924],[-37.6911,-11.1708],[-37.6834,-11.1798]]]}},{"type":"Feature","properties":{"nome":"Pinhão","cod":"2805208","uf":"SE"},"geometry":{"type":"Polygon","coordinates":[[[-37.7725,-10.5062],[-37.7309,-10.5157],[-37.7249,-10.5092],[-37.6883,-10.5329],[-37.6918,-10.5584],[-37.6958,-10.582],[-37.7046,-10.5916],[-37.7046,-10.6064],[-37.7113,-10.6089],[-37.7119,-10.6086],[-37.7193,-10.6239],[-37.7148,-10.6338],[-37.7062,-10.6328],[-37.7167,-10.6448],[-37.7241,-10.6401],[-37.7219,-10.6333],[-37.7307,-10.6301],[-37.7395,-10.6321],[-37.7497,-10.6207],[-37.7545,-10.623],[-37.7666,-10.6178],[-37.767,-10.6054],[-37.7715,-10.6028],[-37.7849,-10.6005],[-37.8001,-10.591],[-37.8074,-10.6002],[-37.8147,-10.5947],[-37.8183,-10.585],[-37.8301,-10.5843],[-37.8301,-10.5843],[-37.8255,-10.5799],[-37.8312,-10.5785],[-37.8303,-10.5726],[-37.835,-10.5707],[-37.8328,-10.5602],[-37.8393,-10.5556],[-37.8402,-10.5491],[-37.8314,-10.5509],[-37.8276,-10.5472],[-37.8291,-10.5408],[-37.8234,-10.5381],[-37.8192,-10.539],[-37.822,-10.5305],[-37.8153,-10.517],[-37.8087,-10.5126],[-37.7974,-10.5087],[-37.7793,-10.5106],[-37.7725,-10.5062]]]}},{"type":"Feature","properties":{"nome":"Pirambu","cod":"2805307","uf":"SE"},"geometry":{"type":"Polygon","coordinates":[[[-36.7035,-10.6417],[-36.7336,-10.6552],[-36.808,-10.7042],[-36.8438,-10.7349],[-36.8537,-10.7432],[-36.8611,-10.742],[-36.8691,-10.7436],[-36.8725,-10.7408],[-36.869,-10.7367],[-36.8722,-10.7352],[-36.8676,-10.7317],[-36.8713,-10.7244],[-36.8705,-10.7075],[-36.8753,-10.7077],[-36.8799,-10.6951],[-36.8859,-10.6974],[-36.8881,-10.6947],[-36.8899,-10.6975],[-36.8844,-10.7001],[-36.8924,-10.7009],[-36.8959,-10.7055],[-36.9009,-10.7022],[-36.9002,-10.6933],[-36.909,-10.6777],[-36.9232,-10.6764],[-36.9101,-10.667],[-36.9059,-10.6639],[-36.903,-10.6618],[-36.8988,-10.6631],[-36.8932,-10.6601],[-36.8526,-10.6289],[-36.8398,-10.619],[-36.7833,-10.5755],[-36.7652,-10.5805],[-36.7549,-10.5937],[-36.7498,-10.5945],[-36.707,-10.6134],[-36.7014,-10.6159],[-36.6856,-10.6229],[-36.6801,-10.6254],[-36.6733,-10.6283],[-36.7035,-10.6417]]]}},{"type":"Feature","properties":{"nome":"Poço Redondo","cod":"2805406","uf":"SE"},"geometry":{"type":"Polygon","coordinates":[[[-37.5458,-9.8743],[-37.5642,-9.9023],[-37.5672,-9.9069],[-37.6034,-9.9621],[-37.6035,-9.9623],[-37.6083,-9.9693],[-37.6192,-9.9736],[-37.6314,-9.9737],[-37.6409,-9.9786],[-37.6534,-9.9944],[-37.6635,-9.998],[-37.6659,-10.0153],[-37.6725,-10.0251],[-37.6849,-10.0276],[-37.6919,-10.0199],[-37.6976,-10.0212],[-37.7015,-10.0138],[-37.722,-10.0279],[-37.7307,-10.0236],[-37.7312,-10.0205],[-37.738,-10.0246],[-37.7382,-10.029],[-37.7541,-10.0257],[-37.7754,-10.0332],[-37.8079,-10.0315],[-37.8235,-10.0354],[-37.8236,-10.0341],[-37.823,-10.0152],[-37.8329,-9.9979],[-37.8493,-9.9927],[-37.8751,-9.9783],[-37.8811,-9.9803],[-37.9152,-9.9754],[-37.9218,-9.9728],[-37.927,-9.9652],[-37.9363,-9.9656],[-37.9261,-9.9534],[-37.9252,-9.9435],[-37.9199,-9.9355],[-37.9003,-9.9202],[-37.897,-9.9126],[-37.8868,-9.9133],[-37.8824,-9.9105],[-37.8678,-9.8977],[-37.8691,-9.866],[-37.8682,-9.8542],[-37.8637,-9.847],[-37.8687,-9.8412],[-37.8591,-9.8009],[-37.854,-9.7956],[-37.854,-9.7837],[-37.8542,-9.7828],[-37.8407,-9.7617],[-37.8431,-9.7479],[-37.8335,-9.7095],[-37.8306,-9.7029],[-37.8228,-9.7011],[-37.8214,-9.7008],[-37.7816,-9.6918],[-37.7811,-9.6916],[-37.7485,-9.6843],[-37.6661,-9.6656],[-37.66,-9.6768],[-37.6565,-9.6832],[-37.6447,-9.6913],[-37.6034,-9.7178],[-37.6016,-9.7188],[-37.5813,-9.7337],[-37.5716,-9.7383],[-37.5532,-9.7402],[-37.5273,-9.7437],[-37.5239,-9.7445],[-37.4734,-9.7464],[-37.4665,-9.7491],[-37.5065,-9.8142],[-37.5275,-9.8464],[-37.5275,-9.8465],[-37.5292,-9.849],[-37.5292,-9.8491],[-37.5458,-9.8743]]]}},{"type":"Feature","properties":{"nome":"Poço Verde","cod":"2805505","uf":"SE"},"geometry":{"type":"Polygon","coordinates":[[[-38.0337,-10.7121],[-38.0211,-10.7305],[-38.0123,-10.7348],[-37.9905,-10.7565],[-37.9848,-10.7586],[-37.9741,-10.7548],[-37.9723,-10.7541],[-37.9714,-10.7685],[-37.9714,-10.7686],[-37.9698,-10.7942],[-37.9699,-10.8254],[-38.026,-10.8154],[-38.0455,-10.818],[-38.0744,-10.8182],[-38.0783,-10.8217],[-38.086,-10.8217],[-38.086,-10.8247],[-38.0975,-10.8299],[-38.1024,-10.8295],[-38.1079,-10.8361],[-38.1145,-10.8338],[-38.1182,-10.8432],[-38.1246,-10.8482],[-38.1275,-10.857],[-38.1193,-10.8686],[-38.1289,-10.891],[-38.1354,-10.894],[-38.1386,-10.8998],[-38.1569,-10.9001],[-38.1623,-10.9108],[-38.1637,-10.9207],[-38.17,-10.9263],[-38.1672,-10.9404],[-38.1806,-10.9438],[-38.2007,-10.9379],[-38.2024,-10.9349],[-38.1988,-10.9269],[-38.2052,-10.9216],[-38.2108,-10.9308],[-38.2148,-10.9231],[-38.226,-10.9161],[-38.2298,-10.8938],[-38.2361,-10.8812],[-38.2374,-10.8591],[-38.2318,-10.8395],[-38.2392,-10.8259],[-38.2426,-10.8275],[-38.2447,-10.8225],[-38.2346,-10.8117],[-38.2363,-10.8076],[-38.236,-10.7958],[-38.2327,-10.7927],[-38.2181,-10.7821],[-38.21,-10.7562],[-38.21,-10.7561],[-38.2171,-10.7378],[-38.2178,-10.7358],[-38.2151,-10.7246],[-38.2104,-10.7168],[-38.1986,-10.7106],[-38.1859,-10.707],[-38.175,-10.7058],[-38.17,-10.7119],[-38.1564,-10.7121],[-38.1448,-10.7175],[-38.1226,-10.7179],[-38.1121,-10.7128],[-38.1004,-10.7124],[-38.0673,-10.7152],[-38.0489,-10.7055],[-38.0467,-10.6931],[-38.0417,-10.7004],[-38.0403,-10.7024],[-38.0337,-10.7121]]]}},{"type":"Feature","properties":{"nome":"Porto da Folha","cod":"2805604","uf":"SE"},"geometry":{"type":"Polygon","coordinates":[[[-37.2309,-9.9123],[-37.2337,-9.9569],[-37.2569,-9.9583],[-37.261,-9.9651],[-37.2681,-9.9611],[-37.2726,-9.9652],[-37.2656,-9.9934],[-37.2847,-9.9882],[-37.2883,-9.9935],[-37.2862,-10.0094],[-37.2943,-10.0155],[-37.302,-10.0022],[-37.3079,-9.9994],[-37.3127,-9.9995],[-37.316,-10.0076],[-37.325,-10.0126],[-37.3323,-10.0154],[-37.328,-10.0097],[-37.3341,-10.0038],[-37.3327,-9.9933],[-37.3391,-9.9864],[-37.3436,-9.9922],[-37.3431,-9.9989],[-37.3486,-9.9996],[-37.3518,-9.9936],[-37.3545,-9.9997],[-37.3543,-10.0042],[-37.3482,-10.0035],[-37.3537,-10.0153],[-37.3596,-10.0132],[-37.3648,-10.0154],[-37.3638,-10.0099],[-37.3668,-10.0071],[-37.3793,-10.0099],[-37.3727,-10.0168],[-37.3729,-10.0209],[-37.38,-10.021],[-37.3763,-10.0256],[-37.3847,-10.0303],[-37.3832,-10.0376],[-37.3918,-10.0404],[-37.3945,-10.0489],[-37.4,-10.0452],[-37.401,-10.0523],[-37.4092,-10.0517],[-37.4198,-10.0618],[-37.4279,-10.0554],[-37.4697,-10.0221],[-37.488,-10.0175],[-37.5235,-10.0085],[-37.5435,-10.0035],[-37.5632,-9.9986],[-37.5824,-9.9982],[-37.587,-10.0116],[-37.5904,-10.0159],[-37.5949,-10.0157],[-37.5968,-10.0235],[-37.6065,-10.0192],[-37.6144,-10.0258],[-37.6257,-10.0261],[-37.6289,-10.0215],[-37.6332,-10.0241],[-37.6377,-10.0186],[-37.6446,-10.0224],[-37.6557,-10.0137],[-37.6659,-10.0153],[-37.6635,-9.998],[-37.6534,-9.9944],[-37.6409,-9.9786],[-37.6314,-9.9737],[-37.6192,-9.9736],[-37.6083,-9.9693],[-37.6035,-9.9623],[-37.6034,-9.9621],[-37.5672,-9.9069],[-37.5642,-9.9023],[-37.5458,-9.8743],[-37.5292,-9.8491],[-37.5292,-9.849],[-37.5275,-9.8465],[-37.5275,-9.8464],[-37.5065,-9.8142],[-37.4665,-9.7491],[-37.4499,-9.7529],[-37.4174,-9.7625],[-37.4085,-9.7681],[-37.3973,-9.7771],[-37.3726,-9.7837],[-37.3625,-9.7865],[-37.348,-9.7927],[-37.3397,-9.8001],[-37.3208,-9.82],[-37.3113,-9.8241],[-37.2969,-9.8272],[-37.2851,-9.8305],[-37.2639,-9.85],[-37.2566,-9.8598],[-37.2468,-9.8842],[-37.2352,-9.8956],[-37.2262,-9.8991],[-37.2309,-9.9123]]]}},{"type":"Feature","properties":{"nome":"Propriá","cod":"2805703","uf":"SE"},"geometry":{"type":"Polygon","coordinates":[[[-36.8496,-10.1858],[-36.8483,-10.1879],[-36.8462,-10.1861],[-36.8453,-10.189],[-36.8353,-10.2036],[-36.8193,-10.2149],[-36.8186,-10.2154],[-36.8081,-10.2204],[-36.7765,-10.2255],[-36.7558,-10.2313],[-36.7504,-10.237],[-36.7558,-10.2459],[-36.7442,-10.2517],[-36.7362,-10.2516],[-36.7201,-10.2645],[-36.7017,-10.2705],[-36.7071,-10.278],[-36.7052,-10.2824],[-36.7121,-10.2819],[-36.7317,-10.2786],[-36.7357,-10.2819],[-36.7396,-10.2722],[-36.749,-10.2613],[-36.7562,-10.2612],[-36.7593,-10.2541],[-36.777,-10.265],[-36.7869,-10.2618],[-36.795,-10.275],[-36.7987,-10.2785],[-36.7996,-10.2791],[-36.8017,-10.2838],[-36.8107,-10.2973],[-36.8188,-10.2973],[-36.836,-10.2898],[-36.8369,-10.2814],[-36.8415,-10.2774],[-36.8391,-10.2703],[-36.8441,-10.2615],[-36.8482,-10.2398],[-36.8514,-10.2378],[-36.8674,-10.2278],[-36.8669,-10.2053],[-36.8604,-10.1854],[-36.8563,-10.176],[-36.8496,-10.1858]]]}},{"type":"Feature","properties":{"nome":"Riachão do Dantas","cod":"2805802","uf":"SE"},"geometry":{"type":"Polygon","coordinates":[[[-37.8765,-10.8639],[-37.866,-10.898],[-37.8746,-10.921],[-37.8512,-10.9341],[-37.8464,-10.934],[-37.8398,-10.9472],[-37.8342,-10.951],[-37.8388,-10.9554],[-37.8382,-10.9642],[-37.8391,-10.9699],[-37.8318,-10.9799],[-37.8367,-10.9877],[-37.8251,-10.9899],[-37.8215,-10.9957],[-37.8217,-11.0049],[-37.8159,-11.0069],[-37.8117,-11.0032],[-37.8089,-11.011],[-37.7979,-11.0122],[-37.7927,-11.019],[-37.7858,-11.0076],[-37.7815,-11.0107],[-37.7763,-11.0062],[-37.7736,-11.0168],[-37.7683,-11.0167],[-37.766,-11.0097],[-37.7607,-11.0109],[-37.7538,-11.0036],[-37.7487,-11.0104],[-37.7411,-11.0108],[-37.7396,-11.0015],[-37.7453,-10.9967],[-37.7432,-10.9898],[-37.7252,-10.993],[-37.7188,-10.9966],[-37.713,-11.0005],[-37.6924,-11.0262],[-37.6847,-11.0269],[-37.6748,-11.0223],[-37.67,-11.0314],[-37.6561,-11.0403],[-37.6506,-11.0469],[-37.6437,-11.0463],[-37.6343,-11.0642],[-37.6221,-11.067],[-37.6148,-11.0699],[-37.6164,-11.0723],[-37.6119,-11.078],[-37.6179,-11.0829],[-37.6236,-11.0882],[-37.6336,-11.0819],[-37.6491,-11.1087],[-37.6464,-11.1258],[-37.6721,-11.1481],[-37.6722,-11.1482],[-37.6952,-11.1662],[-37.7066,-11.1752],[-37.7119,-11.1686],[-37.7188,-11.1621],[-37.7277,-11.165],[-37.7376,-11.1505],[-37.7427,-11.1546],[-37.7507,-11.1489],[-37.7615,-11.1413],[-37.7654,-11.1422],[-37.7753,-11.1326],[-37.7843,-11.1321],[-37.7845,-11.1321],[-37.7926,-11.1332],[-37.8432,-11.1085],[-37.8668,-11.0795],[-37.8948,-11.0448],[-37.9053,-11.0336],[-37.915,-11.0245],[-37.9303,-11.0107],[-37.932,-11.0055],[-37.9387,-11.0043],[-37.9462,-10.9967],[-37.9487,-10.9862],[-37.9455,-10.9809],[-37.9414,-10.9849],[-37.9333,-10.9725],[-37.944,-10.9463],[-37.9566,-10.9337],[-37.9579,-10.9268],[-37.9725,-10.8799],[-37.939,-10.8884],[-37.9385,-10.8816],[-37.9322,-10.8806],[-37.9231,-10.8793],[-37.8969,-10.872],[-37.8767,-10.8639],[-37.8765,-10.8639]]]}},{"type":"Feature","properties":{"nome":"Riachuelo","cod":"2805901","uf":"SE"},"geometry":{"type":"Polygon","coordinates":[[[-37.2066,-10.7062],[-37.2022,-10.7104],[-37.2031,-10.7161],[-37.1997,-10.7201],[-37.2074,-10.7251],[-37.1937,-10.7284],[-37.1873,-10.7253],[-37.1853,-10.7239],[-37.1806,-10.7181],[-37.1749,-10.7234],[-37.1679,-10.727],[-37.1714,-10.7339],[-37.1606,-10.7363],[-37.1635,-10.7434],[-37.161,-10.751],[-37.1683,-10.753],[-37.2153,-10.7658],[-37.2207,-10.7592],[-37.2286,-10.7611],[-37.2453,-10.7779],[-37.2729,-10.7519],[-37.2715,-10.7472],[-37.2822,-10.7382],[-37.2821,-10.7289],[-37.2799,-10.7259],[-37.2827,-10.7211],[-37.2763,-10.7111],[-37.2716,-10.7148],[-37.2653,-10.7126],[-37.2653,-10.7075],[-37.2593,-10.7022],[-37.2512,-10.7048],[-37.2499,-10.7088],[-37.2454,-10.7062],[-37.2388,-10.7082],[-37.2366,-10.7044],[-37.2332,-10.7045],[-37.2296,-10.7025],[-37.227,-10.7078],[-37.2239,-10.7044],[-37.2325,-10.6964],[-37.2279,-10.6844],[-37.2315,-10.674],[-37.2291,-10.6742],[-37.1994,-10.6767],[-37.1995,-10.6894],[-37.1967,-10.6923],[-37.2031,-10.6976],[-37.2066,-10.7062]]]}},{"type":"Feature","properties":{"nome":"Ribeirópolis","cod":"2806008","uf":"SE"},"geometry":{"type":"Polygon","coordinates":[[[-37.3684,-10.4518],[-37.3691,-10.4592],[-37.3664,-10.467],[-37.3594,-10.4828],[-37.3358,-10.5194],[-37.3355,-10.5197],[-37.3259,-10.5315],[-37.3256,-10.5321],[-37.3219,-10.5379],[-37.3207,-10.54],[-37.3254,-10.5413],[-37.3338,-10.5434],[-37.3367,-10.5395],[-37.3459,-10.5391],[-37.3635,-10.5485],[-37.3641,-10.5591],[-37.3733,-10.5628],[-37.3946,-10.582],[-37.4121,-10.5781],[-37.4223,-10.5759],[-37.4419,-10.5855],[-37.4617,-10.5952],[-37.4722,-10.5703],[-37.4739,-10.5661],[-37.474,-10.566],[-37.4992,-10.5296],[-37.5002,-10.5281],[-37.5062,-10.5151],[-37.5107,-10.5056],[-37.5474,-10.462],[-37.5212,-10.4611],[-37.4925,-10.4601],[-37.4842,-10.4598],[-37.4742,-10.4595],[-37.4205,-10.402],[-37.4107,-10.4163],[-37.3717,-10.447],[-37.3684,-10.4518]]]}},{"type":"Feature","properties":{"nome":"Rosário do Catete","cod":"2806107","uf":"SE"},"geometry":{"type":"Polygon","coordinates":[[[-37.0106,-10.681],[-37.0161,-10.6844],[-37.0053,-10.696],[-36.9919,-10.7029],[-36.9803,-10.7003],[-36.975,-10.7009],[-36.9701,-10.7062],[-36.9612,-10.7046],[-36.9505,-10.7132],[-36.9787,-10.7386],[-36.9954,-10.7305],[-37.0105,-10.7328],[-37.0166,-10.7218],[-37.0683,-10.7474],[-37.0699,-10.7488],[-37.0625,-10.7175],[-37.0529,-10.7016],[-37.0591,-10.6918],[-37.0688,-10.6913],[-37.0751,-10.6843],[-37.0846,-10.6862],[-37.089,-10.6828],[-37.0926,-10.6733],[-37.0903,-10.6547],[-37.0888,-10.6478],[-37.0925,-10.6409],[-37.0837,-10.6362],[-37.0768,-10.6325],[-37.0758,-10.632],[-37.0754,-10.631],[-37.0733,-10.6154],[-37.0358,-10.6251],[-37.0108,-10.6405],[-37.011,-10.6753],[-37.0106,-10.681]]]}},{"type":"Feature","properties":{"nome":"Salgado","cod":"2806206","uf":"SE"},"geometry":{"type":"Polygon","coordinates":[[[-37.4586,-11.1459],[-37.4875,-11.1526],[-37.4995,-11.1554],[-37.5011,-11.1558],[-37.5466,-11.1664],[-37.5547,-11.1539],[-37.5437,-11.1538],[-37.5463,-11.1477],[-37.5411,-11.1428],[-37.5484,-11.1416],[-37.5531,-11.1408],[-37.5389,-11.096],[-37.5284,-11.0526],[-37.5307,-10.9958],[-37.5299,-10.9932],[-37.5298,-10.9932],[-37.528,-10.9873],[-37.5194,-10.9603],[-37.5181,-10.9602],[-37.5056,-10.9636],[-37.4556,-10.977],[-37.4553,-10.9771],[-37.4395,-10.9816],[-37.434,-10.9876],[-37.4275,-10.9891],[-37.4259,-11.0006],[-37.4127,-11.0084],[-37.4052,-11.0276],[-37.4041,-11.0343],[-37.4039,-11.0346],[-37.389,-11.0531],[-37.4221,-11.0758],[-37.4379,-11.0866],[-37.4382,-11.0966],[-37.43,-11.1049],[-37.4322,-11.1102],[-37.4371,-11.1112],[-37.4387,-11.1156],[-37.4349,-11.1174],[-37.4369,-11.1264],[-37.4586,-11.1459]]]}},{"type":"Feature","properties":{"nome":"Santa Luzia do Itanhy","cod":"2806305","uf":"SE"},"geometry":{"type":"Polygon","coordinates":[[[-37.6037,-11.342],[-37.6005,-11.3426],[-37.5904,-11.3255],[-37.5808,-11.3264],[-37.5718,-11.323],[-37.5493,-11.3047],[-37.5298,-11.3052],[-37.5232,-11.2996],[-37.5021,-11.3038],[-37.4878,-11.3031],[-37.4621,-11.3106],[-37.4522,-11.3012],[-37.4518,-11.301],[-37.4462,-11.2933],[-37.4259,-11.3069],[-37.4219,-11.3019],[-37.4074,-11.3009],[-37.3994,-11.3134],[-37.387,-11.3194],[-37.3775,-11.337],[-37.3883,-11.3545],[-37.3882,-11.3693],[-37.406,-11.3927],[-37.4098,-11.4104],[-37.4084,-11.4232],[-37.4084,-11.4234],[-37.4138,-11.4277],[-37.4218,-11.4301],[-37.4317,-11.4239],[-37.4406,-11.4253],[-37.4465,-11.4407],[-37.4607,-11.444],[-37.4639,-11.4513],[-37.4692,-11.4465],[-37.4716,-11.447],[-37.4699,-11.4496],[-37.4801,-11.45],[-37.4852,-11.4432],[-37.493,-11.4432],[-37.4935,-11.443],[-37.5033,-11.4279],[-37.5077,-11.4143],[-37.5252,-11.4227],[-37.5349,-11.416],[-37.5588,-11.4145],[-37.5644,-11.4111],[-37.5697,-11.4079],[-37.5725,-11.4062],[-37.579,-11.4023],[-37.5792,-11.4022],[-37.602,-11.3884],[-37.6021,-11.3884],[-37.6235,-11.3691],[-37.6251,-11.3677],[-37.6254,-11.3675],[-37.6386,-11.3556],[-37.6387,-11.3554],[-37.6741,-11.3236],[-37.675,-11.3228],[-37.6827,-11.3158],[-37.6918,-11.3077],[-37.6631,-11.2895],[-37.6183,-11.3292],[-37.6086,-11.3377],[-37.6072,-11.339],[-37.6037,-11.342]]]}},{"type":"Feature","properties":{"nome":"Santana do São Francisco","cod":"2806404","uf":"SE"},"geometry":{"type":"Polygon","coordinates":[[[-36.6007,-10.3058],[-36.653,-10.3212],[-36.6813,-10.273],[-36.679,-10.2694],[-36.6576,-10.2649],[-36.6441,-10.2521],[-36.6322,-10.2531],[-36.6306,-10.2536],[-36.6251,-10.2559],[-36.6216,-10.2588],[-36.6119,-10.2706],[-36.5992,-10.2814],[-36.5952,-10.2837],[-36.5908,-10.287],[-36.5886,-10.3014],[-36.6007,-10.3058]]]}},{"type":"Feature","properties":{"nome":"Santa Rosa de Lima","cod":"2806503","uf":"SE"},"geometry":{"type":"Polygon","coordinates":[[[-37.2654,-10.5864],[-37.251,-10.595],[-37.2487,-10.5946],[-37.2363,-10.6039],[-37.2307,-10.6038],[-37.2288,-10.6084],[-37.2185,-10.6112],[-37.2179,-10.6164],[-37.2111,-10.6179],[-37.2047,-10.6245],[-37.203,-10.628],[-37.1933,-10.6268],[-37.185,-10.6403],[-37.1815,-10.6414],[-37.1837,-10.6487],[-37.181,-10.6547],[-37.1895,-10.6577],[-37.1902,-10.6635],[-37.1937,-10.6676],[-37.1906,-10.6687],[-37.1926,-10.6765],[-37.1994,-10.6767],[-37.2291,-10.6742],[-37.2315,-10.674],[-37.2388,-10.6647],[-37.2475,-10.6612],[-37.247,-10.6507],[-37.2598,-10.6489],[-37.2686,-10.6352],[-37.2797,-10.6325],[-37.2812,-10.62],[-37.2914,-10.6102],[-37.2951,-10.6104],[-37.2961,-10.6006],[-37.2929,-10.5941],[-37.287,-10.5936],[-37.281,-10.5869],[-37.2654,-10.5864]]]}},{"type":"Feature","properties":{"nome":"Santo Amaro das Brotas","cod":"2806602","uf":"SE"},"geometry":{"type":"Polygon","coordinates":[[[-36.9172,-10.6858],[-36.9193,-10.7011],[-36.9149,-10.6999],[-36.9123,-10.7048],[-36.9119,-10.7002],[-36.9054,-10.6974],[-36.9027,-10.6919],[-36.9002,-10.6933],[-36.9009,-10.7022],[-36.8959,-10.7055],[-36.8924,-10.7009],[-36.8844,-10.7001],[-36.8899,-10.6975],[-36.8881,-10.6947],[-36.8859,-10.6974],[-36.8799,-10.6951],[-36.8753,-10.7077],[-36.8705,-10.7075],[-36.8713,-10.7244],[-36.8676,-10.7317],[-36.8722,-10.7352],[-36.869,-10.7367],[-36.8725,-10.7408],[-36.8764,-10.7386],[-36.8836,-10.7474],[-36.8991,-10.7721],[-36.9257,-10.7882],[-36.9272,-10.7867],[-36.9286,-10.7901],[-36.937,-10.7868],[-36.9391,-10.7956],[-36.9473,-10.7982],[-36.9567,-10.8087],[-36.9602,-10.8087],[-36.9599,-10.8168],[-36.9649,-10.8193],[-36.9686,-10.8328],[-36.9786,-10.832],[-36.9823,-10.8354],[-36.9843,-10.8317],[-36.9881,-10.8363],[-36.9814,-10.8434],[-36.9829,-10.8485],[-36.9893,-10.8519],[-36.9948,-10.8474],[-36.9973,-10.8526],[-36.9947,-10.8572],[-36.9982,-10.8603],[-37.0057,-10.8589],[-37.0089,-10.8644],[-37.0153,-10.8639],[-37.0161,-10.8745],[-37.0238,-10.8769],[-37.0277,-10.8848],[-37.0394,-10.8837],[-37.0354,-10.8679],[-37.0292,-10.8548],[-37.0306,-10.8395],[-37.0454,-10.8254],[-37.0645,-10.8226],[-37.0749,-10.8071],[-37.087,-10.798],[-37.0878,-10.7827],[-37.0803,-10.778],[-37.075,-10.7787],[-37.0692,-10.769],[-37.0703,-10.7507],[-37.0699,-10.7488],[-37.0683,-10.7474],[-37.0166,-10.7218],[-37.0105,-10.7328],[-36.9954,-10.7305],[-36.9787,-10.7386],[-36.9505,-10.7132],[-36.9489,-10.7116],[-36.9355,-10.6961],[-36.9172,-10.6858]]]}},{"type":"Feature","properties":{"nome":"São Cristóvão","cod":"2806701","uf":"SE"},"geometry":{"type":"Polygon","coordinates":[[[-37.291,-10.8521],[-37.2721,-10.8518],[-37.2667,-10.8466],[-37.2602,-10.8526],[-37.2506,-10.8546],[-37.2458,-10.8646],[-37.2362,-10.8688],[-37.2187,-10.8784],[-37.2063,-10.8766],[-37.198,-10.8902],[-37.1906,-10.887],[-37.1847,-10.8969],[-37.1774,-10.8996],[-37.1722,-10.9052],[-37.1721,-10.913],[-37.1666,-10.9164],[-37.166,-10.9167],[-37.1625,-10.9251],[-37.1538,-10.9243],[-37.1475,-10.9291],[-37.11,-10.9154],[-37.1004,-10.9195],[-37.091,-10.9405],[-37.0992,-10.9617],[-37.1021,-10.9693],[-37.1383,-11.0634],[-37.1441,-11.0578],[-37.1562,-11.0542],[-37.165,-11.0657],[-37.1736,-11.077],[-37.172,-11.0834],[-37.1627,-11.0919],[-37.1662,-11.1048],[-37.1831,-11.0933],[-37.2045,-11.0855],[-37.2189,-11.0761],[-37.2244,-11.065],[-37.2268,-11.0402],[-37.2533,-11.0344],[-37.2846,-11.027],[-37.2852,-11.023],[-37.2952,-11.017],[-37.2988,-11.0101],[-37.3032,-10.9978],[-37.3032,-10.9977],[-37.3053,-10.9932],[-37.306,-10.9859],[-37.3285,-10.9774],[-37.3246,-10.9711],[-37.3331,-10.964],[-37.3353,-10.9525],[-37.3384,-10.9458],[-37.3314,-10.9388],[-37.3288,-10.9213],[-37.318,-10.8341],[-37.3177,-10.8318],[-37.309,-10.8326],[-37.2997,-10.8471],[-37.291,-10.8521]]]}},{"type":"Feature","properties":{"nome":"São Domingos","cod":"2806800","uf":"SE"},"geometry":{"type":"Polygon","coordinates":[[[-37.59,-10.7006],[-37.5859,-10.7116],[-37.5875,-10.7208],[-37.5702,-10.7437],[-37.5644,-10.751],[-37.5597,-10.7569],[-37.5626,-10.7606],[-37.5659,-10.7674],[-37.5611,-10.7753],[-37.5584,-10.7784],[-37.5495,-10.7833],[-37.5434,-10.7799],[-37.5358,-10.7845],[-37.5347,-10.7822],[-37.5279,-10.7841],[-37.5298,-10.7904],[-37.5226,-10.7938],[-37.5197,-10.7922],[-37.5214,-10.8002],[-37.516,-10.7984],[-37.5167,-10.8037],[-37.524,-10.8093],[-37.5242,-10.8094],[-37.5196,-10.8123],[-37.5242,-10.8191],[-37.5118,-10.8255],[-37.5071,-10.8242],[-37.4975,-10.8326],[-37.5092,-10.835],[-37.5111,-10.8434],[-37.5171,-10.844],[-37.5406,-10.8384],[-37.5443,-10.835],[-37.5516,-10.8399],[-37.5652,-10.8362],[-37.5727,-10.8393],[-37.5811,-10.8361],[-37.5969,-10.8218],[-37.5972,-10.8211],[-37.6003,-10.8145],[-37.6101,-10.8123],[-37.6136,-10.8007],[-37.6134,-10.7954],[-37.6003,-10.7809],[-37.6075,-10.7671],[-37.6199,-10.748],[-37.6327,-10.7469],[-37.6283,-10.7403],[-37.6321,-10.7317],[-37.6298,-10.7248],[-37.6171,-10.7141],[-37.618,-10.7116],[-37.6112,-10.7121],[-37.6092,-10.7062],[-37.6053,-10.7087],[-37.6078,-10.7],[-37.6045,-10.6932],[-37.5954,-10.6956],[-37.59,-10.7006]]]}},{"type":"Feature","properties":{"nome":"São Francisco","cod":"2806909","uf":"SE"},"geometry":{"type":"Polygon","coordinates":[[[-36.836,-10.2898],[-36.8188,-10.2973],[-36.8226,-10.3035],[-36.8173,-10.3106],[-36.821,-10.311],[-36.8271,-10.3322],[-36.8385,-10.3419],[-36.8396,-10.3557],[-36.8487,-10.3728],[-36.8553,-10.3816],[-36.8947,-10.3858],[-36.9028,-10.4029],[-36.9154,-10.393],[-36.9138,-10.379],[-36.9133,-10.3743],[-36.9004,-10.3497],[-36.9023,-10.3238],[-36.8859,-10.3004],[-36.8806,-10.2964],[-36.875,-10.2967],[-36.8556,-10.2781],[-36.8441,-10.2615],[-36.8391,-10.2703],[-36.8415,-10.2774],[-36.8369,-10.2814],[-36.836,-10.2898]]]}},{"type":"Feature","properties":{"nome":"São Miguel do Aleixo","cod":"2807006","uf":"SE"},"geometry":{"type":"Polygon","coordinates":[[[-37.3938,-10.2882],[-37.3893,-10.2939],[-37.3866,-10.2931],[-37.3873,-10.3047],[-37.3852,-10.3086],[-37.3913,-10.3173],[-37.3875,-10.3195],[-37.3824,-10.3154],[-37.3779,-10.3169],[-37.3733,-10.33],[-37.3713,-10.3274],[-37.3688,-10.33],[-37.3625,-10.3288],[-37.3559,-10.3339],[-37.3604,-10.3363],[-37.3592,-10.3445],[-37.3499,-10.3465],[-37.3499,-10.3554],[-37.3445,-10.358],[-37.3449,-10.3625],[-37.351,-10.3646],[-37.3536,-10.3627],[-37.3564,-10.3684],[-37.3493,-10.3712],[-37.3496,-10.3761],[-37.3496,-10.3761],[-37.3486,-10.3841],[-37.3409,-10.3838],[-37.348,-10.3997],[-37.3347,-10.4001],[-37.3327,-10.407],[-37.3293,-10.4127],[-37.3315,-10.4175],[-37.324,-10.4205],[-37.3318,-10.4242],[-37.3341,-10.4266],[-37.3314,-10.4314],[-37.3253,-10.433],[-37.3181,-10.4337],[-37.3081,-10.4255],[-37.3025,-10.436],[-37.2944,-10.4332],[-37.2919,-10.4379],[-37.2954,-10.4412],[-37.2944,-10.4487],[-37.2896,-10.4482],[-37.2874,-10.454],[-37.2921,-10.4581],[-37.2901,-10.4666],[-37.2805,-10.4615],[-37.2745,-10.465],[-37.3011,-10.4748],[-37.3019,-10.4751],[-37.349,-10.4911],[-37.3594,-10.4828],[-37.3664,-10.467],[-37.3691,-10.4592],[-37.3684,-10.4518],[-37.3717,-10.447],[-37.4107,-10.4163],[-37.4107,-10.4162],[-37.4097,-10.3671],[-37.4131,-10.3458],[-37.4067,-10.3181],[-37.4059,-10.3091],[-37.4047,-10.3056],[-37.4031,-10.2918],[-37.4079,-10.2453],[-37.3982,-10.2553],[-37.394,-10.2596],[-37.3904,-10.2732],[-37.3938,-10.2882]]]}},{"type":"Feature","properties":{"nome":"Simão Dias","cod":"2807105","uf":"SE"},"geometry":{"type":"Polygon","coordinates":[[[-37.8147,-10.5947],[-37.8074,-10.6002],[-37.8001,-10.591],[-37.7849,-10.6005],[-37.7715,-10.6028],[-37.767,-10.6054],[-37.7666,-10.6178],[-37.7545,-10.623],[-37.7497,-10.6207],[-37.7395,-10.6321],[-37.7307,-10.6301],[-37.7219,-10.6333],[-37.7241,-10.6401],[-37.7167,-10.6448],[-37.7062,-10.6328],[-37.7018,-10.6411],[-37.6963,-10.6387],[-37.6933,-10.639],[-37.6976,-10.647],[-37.7135,-10.6659],[-37.7097,-10.6711],[-37.7037,-10.6693],[-37.7025,-10.6772],[-37.6943,-10.6834],[-37.686,-10.6818],[-37.6835,-10.6842],[-37.6857,-10.692],[-37.6772,-10.6959],[-37.6736,-10.7022],[-37.6843,-10.7078],[-37.6784,-10.7139],[-37.6791,-10.7267],[-37.6981,-10.7367],[-37.7072,-10.7377],[-37.7099,-10.7508],[-37.7092,-10.7541],[-37.7205,-10.7667],[-37.7177,-10.7693],[-37.724,-10.7857],[-37.7331,-10.7973],[-37.7397,-10.8024],[-37.7517,-10.8066],[-37.7659,-10.8185],[-37.7911,-10.8314],[-37.7992,-10.8355],[-37.8048,-10.8406],[-37.8135,-10.8694],[-37.828,-10.8586],[-37.8483,-10.865],[-37.8605,-10.8689],[-37.8765,-10.8639],[-37.8767,-10.8639],[-37.8969,-10.872],[-37.9231,-10.8793],[-37.9322,-10.8806],[-37.9385,-10.8816],[-37.939,-10.8884],[-37.9725,-10.8799],[-37.972,-10.8679],[-37.9699,-10.8254],[-37.9698,-10.7942],[-37.9714,-10.7686],[-37.9714,-10.7685],[-37.9723,-10.7541],[-37.9392,-10.7409],[-37.9199,-10.7331],[-37.9089,-10.7288],[-37.9007,-10.7255],[-37.8978,-10.7243],[-37.8818,-10.7179],[-37.8666,-10.7118],[-37.8446,-10.703],[-37.8442,-10.7028],[-37.8285,-10.6966],[-37.8136,-10.6906],[-37.8145,-10.6846],[-37.8208,-10.6441],[-37.8301,-10.5843],[-37.8183,-10.585],[-37.8147,-10.5947]]]}},{"type":"Feature","properties":{"nome":"Siriri","cod":"2807204","uf":"SE"},"geometry":{"type":"Polygon","coordinates":[[[-37.1036,-10.5284],[-37.1068,-10.5307],[-37.0808,-10.527],[-37.0696,-10.5291],[-37.0685,-10.5293],[-37.0736,-10.5605],[-37.07,-10.5731],[-37.0747,-10.5773],[-37.0771,-10.5891],[-37.0679,-10.5913],[-37.066,-10.5979],[-37.0669,-10.608],[-37.0733,-10.6154],[-37.0754,-10.631],[-37.0758,-10.632],[-37.0768,-10.6325],[-37.0837,-10.6362],[-37.0925,-10.6409],[-37.094,-10.6382],[-37.0986,-10.6438],[-37.1145,-10.647],[-37.1337,-10.6508],[-37.142,-10.6441],[-37.1457,-10.636],[-37.143,-10.6248],[-37.1586,-10.6274],[-37.1502,-10.6204],[-37.1776,-10.625],[-37.2069,-10.6072],[-37.1943,-10.5919],[-37.1755,-10.5793],[-37.1719,-10.5712],[-37.1774,-10.5655],[-37.1779,-10.5651],[-37.1805,-10.5624],[-37.1601,-10.5343],[-37.1601,-10.5343],[-37.1562,-10.5286],[-37.1393,-10.5066],[-37.1378,-10.4701],[-37.123,-10.4756],[-37.1146,-10.4824],[-37.1133,-10.4922],[-37.1025,-10.5102],[-37.1036,-10.5284]]]}},{"type":"Feature","properties":{"nome":"Telha","cod":"2807303","uf":"SE"},"geometry":{"type":"Polygon","coordinates":[[[-36.8483,-10.1624],[-36.8469,-10.1758],[-36.8468,-10.1797],[-36.8462,-10.1861],[-36.8483,-10.1879],[-36.8496,-10.1858],[-36.8563,-10.176],[-36.8604,-10.1854],[-36.8669,-10.2053],[-36.8674,-10.2278],[-36.8877,-10.2263],[-36.8991,-10.2255],[-36.9287,-10.2224],[-36.9431,-10.2271],[-36.9031,-10.1735],[-36.8803,-10.1446],[-36.867,-10.1571],[-36.8483,-10.1624]]]}},{"type":"Feature","properties":{"nome":"Tobias Barreto","cod":"2807402","uf":"SE"},"geometry":{"type":"Polygon","coordinates":[[[-38.026,-10.8154],[-37.9699,-10.8254],[-37.972,-10.8679],[-37.9725,-10.8799],[-37.9579,-10.9268],[-37.9566,-10.9337],[-37.944,-10.9463],[-37.9333,-10.9725],[-37.9414,-10.9849],[-37.9455,-10.9809],[-37.9487,-10.9862],[-37.9462,-10.9967],[-37.9387,-11.0043],[-37.932,-11.0055],[-37.9303,-11.0107],[-37.915,-11.0245],[-37.9053,-11.0336],[-37.8948,-11.0448],[-37.8668,-11.0795],[-37.8432,-11.1085],[-37.7926,-11.1332],[-37.828,-11.1515],[-37.846,-11.1607],[-37.8611,-11.1735],[-37.8615,-11.1739],[-37.876,-11.1862],[-37.8759,-11.1898],[-37.8693,-11.2008],[-37.8706,-11.207],[-37.8659,-11.2098],[-37.8681,-11.2218],[-37.8784,-11.2171],[-37.8834,-11.211],[-37.8864,-11.2125],[-37.904,-11.2213],[-37.9149,-11.2348],[-37.927,-11.252],[-37.9592,-11.3084],[-37.9821,-11.3477],[-37.9897,-11.3413],[-37.9932,-11.343],[-37.9998,-11.3389],[-37.9979,-11.3354],[-37.9875,-11.3311],[-37.9983,-11.3219],[-37.9905,-11.3204],[-37.992,-11.3123],[-37.9954,-11.3119],[-38.001,-11.3026],[-38.0031,-11.2923],[-38.0104,-11.2936],[-38.0145,-11.2852],[-38.004,-11.2857],[-37.9925,-11.279],[-37.993,-11.2725],[-37.987,-11.2715],[-37.9859,-11.2667],[-37.9906,-11.2658],[-37.9956,-11.2591],[-37.9867,-11.2533],[-37.9839,-11.2474],[-37.9871,-11.2455],[-37.9897,-11.2482],[-37.9933,-11.24],[-37.9863,-11.2371],[-37.9906,-11.2282],[-37.9775,-11.2215],[-37.9771,-11.2143],[-37.9816,-11.2099],[-37.9789,-11.2048],[-37.9809,-11.1984],[-37.9738,-11.1949],[-37.9797,-11.1914],[-37.9845,-11.1954],[-37.987,-11.1956],[-37.996,-11.1906],[-38.0005,-11.1946],[-38.0136,-11.1843],[-38.0228,-11.1775],[-38.0464,-11.1782],[-38.0614,-11.1717],[-38.0621,-11.1636],[-38.0664,-11.1604],[-38.066,-11.1487],[-38.0704,-11.1419],[-38.0648,-11.131],[-38.0651,-11.1226],[-38.0688,-11.1186],[-38.0835,-11.1193],[-38.0888,-11.1148],[-38.0886,-11.1059],[-38.0936,-11.1014],[-38.0918,-11.0979],[-38.086,-11.0973],[-38.0745,-11.0761],[-38.081,-11.0639],[-38.0841,-11.0648],[-38.0849,-11.0598],[-38.0905,-11.0576],[-38.0907,-11.0512],[-38.096,-11.0491],[-38.0999,-11.041],[-38.0977,-11.0383],[-38.1055,-11.0254],[-38.1006,-11.0202],[-38.1014,-11.0146],[-38.1207,-11.0069],[-38.1246,-11.0097],[-38.1235,-11.0179],[-38.129,-11.0184],[-38.1395,-11.0086],[-38.1437,-11.0018],[-38.1491,-11.0011],[-38.1802,-10.9743],[-38.1795,-10.9693],[-38.187,-10.9622],[-38.18,-10.9498],[-38.1806,-10.9438],[-38.1672,-10.9404],[-38.17,-10.9263],[-38.1637,-10.9207],[-38.1623,-10.9108],[-38.1569,-10.9001],[-38.1386,-10.8998],[-38.1354,-10.894],[-38.1289,-10.891],[-38.1193,-10.8686],[-38.1275,-10.857],[-38.1246,-10.8482],[-38.1182,-10.8432],[-38.1145,-10.8338],[-38.1079,-10.8361],[-38.1024,-10.8295],[-38.0975,-10.8299],[-38.086,-10.8247],[-38.086,-10.8217],[-38.0783,-10.8217],[-38.0744,-10.8182],[-38.0455,-10.818],[-38.026,-10.8154]]]}},{"type":"Feature","properties":{"nome":"Tomar do Geru","cod":"2807501","uf":"SE"},"geometry":{"type":"Polygon","coordinates":[[[-37.927,-11.252],[-37.9177,-11.265],[-37.9073,-11.264],[-37.9011,-11.2718],[-37.8784,-11.2886],[-37.874,-11.2846],[-37.8709,-11.2845],[-37.8633,-11.2995],[-37.8554,-11.3002],[-37.8523,-11.2974],[-37.8482,-11.3011],[-37.8455,-11.3048],[-37.8377,-11.3126],[-37.8361,-11.3144],[-37.8287,-11.3207],[-37.822,-11.3189],[-37.8152,-11.3243],[-37.8152,-11.3244],[-37.8152,-11.3315],[-37.7914,-11.3476],[-37.791,-11.3597],[-37.7868,-11.3591],[-37.7855,-11.365],[-37.785,-11.373],[-37.7775,-11.3784],[-37.7705,-11.3772],[-37.769,-11.3897],[-37.7612,-11.3938],[-37.7635,-11.4037],[-37.7592,-11.4067],[-37.7509,-11.4053],[-37.7511,-11.4004],[-37.7469,-11.4116],[-37.807,-11.4119],[-37.8108,-11.4218],[-37.8327,-11.4826],[-37.8398,-11.4812],[-37.8481,-11.4695],[-37.8628,-11.467],[-37.8633,-11.455],[-37.8628,-11.4522],[-37.8531,-11.4515],[-37.8522,-11.4459],[-37.8481,-11.4436],[-37.8505,-11.4398],[-37.8674,-11.442],[-37.8698,-11.4354],[-37.8807,-11.433],[-37.8739,-11.4279],[-37.8657,-11.4282],[-37.8676,-11.4258],[-37.8828,-11.4244],[-37.8916,-11.436],[-37.8934,-11.4333],[-37.9,-11.4366],[-37.9019,-11.4276],[-37.9071,-11.4263],[-37.9036,-11.4226],[-37.9061,-11.4197],[-37.9048,-11.4099],[-37.907,-11.4077],[-37.914,-11.4077],[-37.9167,-11.4026],[-37.9287,-11.4015],[-37.928,-11.4095],[-37.9349,-11.4132],[-37.9363,-11.4221],[-37.9417,-11.4228],[-37.9448,-11.4226],[-37.9425,-11.4182],[-37.9456,-11.4128],[-37.9556,-11.4071],[-37.9508,-11.404],[-37.9522,-11.3954],[-37.9576,-11.396],[-37.9607,-11.4013],[-37.9652,-11.4023],[-37.9648,-11.3927],[-37.9675,-11.3901],[-37.9776,-11.3931],[-37.9807,-11.3849],[-37.9684,-11.3814],[-37.9694,-11.3725],[-37.9726,-11.3733],[-37.9784,-11.3653],[-37.9821,-11.3477],[-37.9592,-11.3084],[-37.927,-11.252]]]}},{"type":"Feature","properties":{"nome":"Umbaúba","cod":"2807600","uf":"SE"},"geometry":{"type":"Polygon","coordinates":[[[-37.6021,-11.3884],[-37.6105,-11.4042],[-37.6345,-11.4488],[-37.6409,-11.4607],[-37.6524,-11.4821],[-37.6535,-11.479],[-37.6603,-11.4849],[-37.6771,-11.4725],[-37.6718,-11.4567],[-37.6765,-11.4464],[-37.6824,-11.4436],[-37.6856,-11.4344],[-37.6915,-11.4324],[-37.6928,-11.4246],[-37.7023,-11.4208],[-37.7038,-11.4168],[-37.7039,-11.4165],[-37.7201,-11.4072],[-37.7235,-11.399],[-37.7297,-11.4014],[-37.702,-11.375],[-37.6919,-11.3654],[-37.6918,-11.3297],[-37.6918,-11.3164],[-37.6918,-11.3077],[-37.6827,-11.3158],[-37.675,-11.3228],[-37.6741,-11.3236],[-37.6387,-11.3554],[-37.6386,-11.3556],[-37.6254,-11.3675],[-37.6251,-11.3677],[-37.6235,-11.3691],[-37.6021,-11.3884]]]}}]}