{"type":"FeatureCollection","metadata":{"camada":"ambulatorios","fonte":"GeoSampa (Prefeitura de São Paulo)","camada_fonte":"geoportal:equipamento_saude_ambulatorios_especializados","atualizado_em":"2026-10-06","total":149},"features":[{"type":"Feature","geometry":{"type":"Point","coordinates":[-46.6515,-23.524716]},"properties":{"nome":"AMA 12H Boracea - Dr. Luiz Baccala","endereco":"R. Dr. Ribeiro de Almeida, 14","bairro":"Barra Funda","telefone":"4210-5396 / 3392-1944","tipo":"AMA (Assistência Médica Ambulatorial)","id_fonte":"equipamento_saude_ambulatorios_especializados.120001","id":"ambulatorios-120001"}},{"type":"Feature","geometry":{"type":"Point","coordinates":[-46.634461,-23.523656]},"properties":{"nome":"AMA 12H Complexo Prates","endereco":"R. Prates, 1101","bairro":"Bom Retiro","telefone":"3229-8192","tipo":"AMA (Assistência Médica Ambulatorial)","id_fonte":"equipamento_saude_ambulatorios_especializados.120002","id":"ambulatorios-120002"}},{"type":"Feature","geometry":{"type":"Point","coordinates":[-46.732112,-23.5866]},"properties":{"nome":"AMA 12H Jardim Peri Peri","endereco":"R. João Guerra, 247","bairro":"Jd Peri Peri","telefone":"3744-3021 / 3744-3082","tipo":"AMA (Assistência Médica Ambulatorial)","id_fonte":"equipamento_saude_ambulatorios_especializados.120003","id":"ambulatorios-120003"}},{"type":"Feature","geometry":{"type":"Point","coordinates":[-46.743734,-23.660742]},"properties":{"nome":"AMA 12H Jardim São Luiz","endereco":"R. Luiz Antonio Verney, 98","bairro":"Jd São Luiz","telefone":"5511-1153 / 5816-5539","tipo":"AMA (Assistência Médica Ambulatorial)","id_fonte":"equipamento_saude_ambulatorios_especializados.120004","id":"ambulatorios-120004"}},{"type":"Feature","geometry":{"type":"Point","coordinates":[-46.550769,-23.5267]},"properties":{"nome":"AMA 12H Maurice Pate","endereco":"R. Frei Germano, 50","bairro":"Penha","telefone":"2097-5802","tipo":"AMA (Assistência Médica Ambulatorial)","id_fonte":"equipamento_saude_ambulatorios_especializados.120005","id":"ambulatorios-120005"}},{"type":"Feature","geometry":{"type":"Point","coordinates":[-46.39889,-23.565595]},"properties":{"nome":"AMA 12H Presidente Juscelino Kubitschek","endereco":"Av. Utaro Kanai, 286","bairro":"Cohab Presidente Juscelino","telefone":"4780-5072 / 2555-4474","tipo":"AMA (Assistência Médica Ambulatorial)","id_fonte":"equipamento_saude_ambulatorios_especializados.120006","id":"ambulatorios-120006"}},{"type":"Feature","geometry":{"type":"Point","coordinates":[-46.490492,-23.523251]},"properties":{"nome":"AMA Especialidades Burgo Paulista","endereco":"R. José Silva Alcantara Filho, 1031","bairro":"Burgo Paulista","telefone":"2026-1166 / 2280-0080","tipo":"AMA (Assistência Médica Ambulatorial)","id_fonte":"equipamento_saude_ambulatorios_especializados.120018","id":"ambulatorios-120018"}},{"type":"Feature","geometry":{"type":"Point","coordinates":[-46.773638,-23.675127]},"properties":{"nome":"AMA Especialidades Capão Redondo","endereco":"Av. Comendador Santana, 542","bairro":"Jd Boa Esperança","telefone":"5872-9902 / 5872-9906","tipo":"AMA (Assistência Médica Ambulatorial)","id_fonte":"equipamento_saude_ambulatorios_especializados.120019","id":"ambulatorios-120019"}},{"type":"Feature","geometry":{"type":"Point","coordinates":[-46.453444,-23.538814]},"properties":{"nome":"AMA Especialidades Itaquera","endereco":"R. Ken Sugaya, 189","bairro":"Itaquera","telefone":"2071-2422","tipo":"AMA (Assistência Médica Ambulatorial)","id_fonte":"equipamento_saude_ambulatorios_especializados.120020","id":"ambulatorios-120020"}},{"type":"Feature","geometry":{"type":"Point","coordinates":[-46.694313,-23.613265]},"properties":{"nome":"AMA Especialidades Jardim Edite","endereco":"R. Charles Coulomb, 80","bairro":"Cidade Moncoes","telefone":"4329-8860","tipo":"AMA (Assistência Médica Ambulatorial)","id_fonte":"equipamento_saude_ambulatorios_especializados.120021","id":"ambulatorios-120021"}},{"type":"Feature","geometry":{"type":"Point","coordinates":[-46.539917,-23.599765]},"properties":{"nome":"AMA Especialidades Jardim Guairacá","endereco":"R. Erva Imperial, 501","bairro":"Jd Guairaca","telefone":"2216-3332 / 2115-9644","tipo":"AMA (Assistência Médica Ambulatorial)","id_fonte":"equipamento_saude_ambulatorios_especializados.120022","id":"ambulatorios-120022"}},{"type":"Feature","geometry":{"type":"Point","coordinates":[-46.743734,-23.660742]},"properties":{"nome":"AMA Especialidades Jardim São Luiz","endereco":"R. Luiz Antonio Verney, 98","bairro":"Jardim São Luiz","telefone":"5511-8143","tipo":"AMA (Assistência Médica Ambulatorial)","id_fonte":"equipamento_saude_ambulatorios_especializados.120023","id":"ambulatorios-120023"}},{"type":"Feature","geometry":{"type":"Point","coordinates":[-46.65475,-23.497668]},"properties":{"nome":"AMA Especialidades Parque Peruche","endereco":"R. José Rangel de Camargo, 500","bairro":"Pq Peruche","telefone":"3856-8689 / 3856-8191","tipo":"AMA (Assistência Médica Ambulatorial)","id_fonte":"equipamento_saude_ambulatorios_especializados.120024","id":"ambulatorios-120024"}},{"type":"Feature","geometry":{"type":"Point","coordinates":[-46.724792,-23.613973]},"properties":{"nome":"AMA Especialidades Pediatricas Campo Limpo","endereco":"R. Manoel Antonio Pinto, 210","bairro":"Paraisopolis","telefone":"2151-0671","tipo":"AMA (Assistência Médica Ambulatorial)","id_fonte":"equipamento_saude_ambulatorios_especializados.120025","id":"ambulatorios-120025"}},{"type":"Feature","geometry":{"type":"Point","coordinates":[-46.738174,-23.40371]},"properties":{"nome":"AMA Especialidades Perus","endereco":"R. Antonio Jose Anacleto, 80","bairro":"Vila Fanton","telefone":"2901-4606","tipo":"AMA (Assistência Médica Ambulatorial)","id_fonte":"equipamento_saude_ambulatorios_especializados.120026","id":"ambulatorios-120026"}},{"type":"Feature","geometry":{"type":"Point","coordinates":[-46.652267,-23.531956]},"properties":{"nome":"AMA Especialidades Santa Cecília - Dr. Humberto Pascale","endereco":"R. Vitorino Carmilo, 599","bairro":"Campos Elíseos","telefone":"5193-0005 / 5193-0006","tipo":"AMA (Assistência Médica Ambulatorial)","id_fonte":"equipamento_saude_ambulatorios_especializados.120027","id":"ambulatorios-120027"}},{"type":"Feature","geometry":{"type":"Point","coordinates":[-46.666318,-23.673721]},"properties":{"nome":"AMA Especialidades Vila Constância - Dr Vicente Octavio Guido","endereco":"R. HERMENEGILDO MARTINI, S/Nº","bairro":"Vila do Castelo","telefone":"5562-6944 / 5562-7034","tipo":"AMA (Assistência Médica Ambulatorial)","id_fonte":"equipamento_saude_ambulatorios_especializados.120028","id":"ambulatorios-120028"}},{"type":"Feature","geometry":{"type":"Point","coordinates":[-46.711357,-23.476987]},"properties":{"nome":"AMA Especialidades Vila Zatt","endereco":"R. Monsenhor Manuel Gomes, 77","bairro":"Vila Zatt","telefone":"2905-7164","tipo":"AMA (Assistência Médica Ambulatorial)","id_fonte":"equipamento_saude_ambulatorios_especializados.120030","id":"ambulatorios-120030"}},{"type":"Feature","geometry":{"type":"Point","coordinates":[-46.604935,-23.629575]},"properties":{"nome":"AMA Especialidades Vila das Mercês","endereco":"R. Nossa Senhora das Mercês, 1315","bairro":"Vl das Mercês","telefone":"2351-3291 / 2264-1200","tipo":"AMA (Assistência Médica Ambulatorial)","id_fonte":"equipamento_saude_ambulatorios_especializados.120029","id":"ambulatorios-120029"}},{"type":"Feature","geometry":{"type":"Point","coordinates":[-46.691255,-23.703495]},"properties":{"nome":"AME DRª MARIA CRISTINA CURY (INTERLAGOS)","endereco":"R. Arthur Nascimento Junior, 120","bairro":"Jardim Satelite","telefone":"5668-2500","tipo":"AME (Ambulatório Médico de Especialidades)","id_fonte":"equipamento_saude_ambulatorios_especializados.120109","id":"ambulatorios-120109"}},{"type":"Feature","geometry":{"type":"Point","coordinates":[-46.701031,-23.522584]},"properties":{"nome":"AME Idoso Oeste","endereco":"R. Roma, 466","bairro":"Lapa","telefone":"","tipo":"AME (Ambulatório Médico de Especialidades)","id_fonte":"equipamento_saude_ambulatorios_especializados.120110","id":"ambulatorios-120110"}},{"type":"Feature","geometry":{"type":"Point","coordinates":[-46.636067,-23.593029]},"properties":{"nome":"AME Idoso Sudeste","endereco":"R. Domingos de Moraes, 1947","bairro":"Vila Mariana","telefone":"","tipo":"AME (Ambulatório Médico de Especialidades)","id_fonte":"equipamento_saude_ambulatorios_especializados.120111","id":"ambulatorios-120111"}},{"type":"Feature","geometry":{"type":"Point","coordinates":[-46.682378,-23.67158]},"properties":{"nome":"AME Jardim dos Prados","endereco":"R. Santana, 275","bairro":"Vila Sao Pedro","telefone":"5633-2491","tipo":"AME (Ambulatório Médico de Especialidades)","id_fonte":"equipamento_saude_ambulatorios_especializados.120112","id":"ambulatorios-120112"}},{"type":"Feature","geometry":{"type":"Point","coordinates":[-46.587403,-23.515682]},"properties":{"nome":"AME de Psiquiatria - Vila Maria","endereco":"Av. Guilherme Cotching, 1600","bairro":"Vila Maria","telefone":"3478-1377","tipo":"AME (Ambulatório Médico de Especialidades)","id_fonte":"equipamento_saude_ambulatorios_especializados.120107","id":"ambulatorios-120107"}},{"type":"Feature","geometry":{"type":"Point","coordinates":[-46.6997,-23.650272]},"properties":{"nome":"Amb Espec Alto da Boa Vista","endereco":"R. Ministro Roberto Cardoso Alves, 386","bairro":"Alto da Boa Vista","telefone":"5523-0069","tipo":"Ambulatório de especialidades","id_fonte":"equipamento_saude_ambulatorios_especializados.120091","id":"ambulatorios-120091"}},{"type":"Feature","geometry":{"type":"Point","coordinates":[-46.646352,-23.628622]},"properties":{"nome":"Amb Espec Ceci - Dr. Alexandre Kalil Yasbek","endereco":"Av. Ceci, 2235","bairro":"Planalto Paulista","telefone":"2275-6487","tipo":"Ambulatório de especialidades","id_fonte":"equipamento_saude_ambulatorios_especializados.120092","id":"ambulatorios-120092"}},{"type":"Feature","geometry":{"type":"Point","coordinates":[-46.68596,-23.755414]},"properties":{"nome":"Amb Espec Dr. Milton Aldred","endereco":"R. São Caetano do Sul, 381","bairro":"Grajaú","telefone":"5932-2015","tipo":"Ambulatório de especialidades","id_fonte":"equipamento_saude_ambulatorios_especializados.120094","id":"ambulatorios-120094"}},{"type":"Feature","geometry":{"type":"Point","coordinates":[-46.694136,-23.500057]},"properties":{"nome":"Amb Espec Freguesia do Ó","endereco":"R. Bonifácio Cubas, 304","bairro":"Freguesia do Ó","telefone":"3931-5956","tipo":"Ambulatório de especialidades","id_fonte":"equipamento_saude_ambulatorios_especializados.120095","id":"ambulatorios-120095"}},{"type":"Feature","geometry":{"type":"Point","coordinates":[-46.771112,-23.655685]},"properties":{"nome":"Amb Espec Jardim Marcelo","endereco":"R. Gastão Raul Fourton Bousquet, 377","bairro":"Jardim Marcelo","telefone":"5825-8666","tipo":"Ambulatório de especialidades","id_fonte":"equipamento_saude_ambulatorios_especializados.120096","id":"ambulatorios-120096"}},{"type":"Feature","geometry":{"type":"Point","coordinates":[-46.435016,-23.553462]},"properties":{"nome":"Amb Espec José Bonifacio IV","endereco":"R. Andreas Amon, 150","bairro":"Itaquera","telefone":"2523-3322","tipo":"Ambulatório de especialidades","id_fonte":"equipamento_saude_ambulatorios_especializados.120097","id":"ambulatorios-120097"}},{"type":"Feature","geometry":{"type":"Point","coordinates":[-46.604055,-23.555975]},"properties":{"nome":"Amb Espec Mooca - Ítalo Domingos Le Vocci","endereco":"R. Marina Crespi, 91","bairro":"Mooca","telefone":"2693-4281","tipo":"Ambulatório de especialidades","id_fonte":"equipamento_saude_ambulatorios_especializados.120098","id":"ambulatorios-120098"}},{"type":"Feature","geometry":{"type":"Point","coordinates":[-46.727152,-23.829395]},"properties":{"nome":"Amb Espec Parelheiros","endereco":"R. Juvenal Luz, S/n","bairro":"Jardim Novo Parelheiros","telefone":"5920-8860","tipo":"Ambulatório de especialidades","id_fonte":"equipamento_saude_ambulatorios_especializados.120099","id":"ambulatorios-120099"}},{"type":"Feature","geometry":{"type":"Point","coordinates":[-46.738174,-23.40371]},"properties":{"nome":"Amb Espec Perus","endereco":"R. Antonio Jose Anacleto, 80","bairro":"Vila Caiuba","telefone":"3917-1263 / 3915-4745","tipo":"Ambulatório de especialidades","id_fonte":"equipamento_saude_ambulatorios_especializados.120100","id":"ambulatorios-120100"}},{"type":"Feature","geometry":{"type":"Point","coordinates":[-46.727876,-23.484347]},"properties":{"nome":"Amb Espec Pirituba","endereco":"Av. Menotti Laudisio, 100","bairro":"Pirituba","telefone":"3394-8749","tipo":"Ambulatório de especialidades","id_fonte":"equipamento_saude_ambulatorios_especializados.120101","id":"ambulatorios-120101"}},{"type":"Feature","geometry":{"type":"Point","coordinates":[-46.492935,-23.611647]},"properties":{"nome":"Amb Espec Sapopemba","endereco":"R. João Lopes de Lima, 1151","bairro":"Jd Sapopemba","telefone":"2962-3480","tipo":"Ambulatório de especialidades","id_fonte":"equipamento_saude_ambulatorios_especializados.120103","id":"ambulatorios-120103"}},{"type":"Feature","geometry":{"type":"Point","coordinates":[-46.412888,-23.557899]},"properties":{"nome":"Amb Espec São Carlos","endereco":"R. Macabu, 35","bairro":"Jardim São Carlos","telefone":"2016-9559 / 4780-5036","tipo":"Ambulatório de especialidades","id_fonte":"equipamento_saude_ambulatorios_especializados.120102","id":"ambulatorios-120102"}},{"type":"Feature","geometry":{"type":"Point","coordinates":[-46.612658,-23.48132]},"properties":{"nome":"Amb Espec Tucuruvi - Armando de Aguiar Pupo","endereco":"Av. Nova Cantareira, 1467","bairro":"Tucuruvi","telefone":"2952-6700 / 2952-1555","tipo":"Ambulatório de especialidades","id_fonte":"equipamento_saude_ambulatorios_especializados.120104","id":"ambulatorios-120104"}},{"type":"Feature","geometry":{"type":"Point","coordinates":[-46.718991,-23.566633]},"properties":{"nome":"Ambulatorio Medico do Instituto Butantan","endereco":"Av. Vital Brasil, 1500","bairro":"Butantã","telefone":"2627-9614","tipo":"Ambulatório especializado","id_fonte":"equipamento_saude_ambulatorios_especializados.120106","id":"ambulatorios-120106"}},{"type":"Feature","geometry":{"type":"Point","coordinates":[-46.648579,-23.52475]},"properties":{"nome":"CCO - Centro de Cuidado Odontológico","endereco":"R. Jaraguá, 866","bairro":"Bom Retiro","telefone":"5194-2404","tipo":"Ambulatório especializado","id_fonte":"equipamento_saude_ambulatorios_especializados.120223","id":"ambulatorios-120223"}},{"type":"Feature","geometry":{"type":"Point","coordinates":[-46.673569,-23.553325]},"properties":{"nome":"CEO I Lapa","endereco":"Av. Dr Arnaldo, 925","bairro":"Cerqueira Cesar","telefone":"3862-7139","tipo":"Centro de Especialidades Odontológicas","id_fonte":"equipamento_saude_ambulatorios_especializados.120271","id":"ambulatorios-120271"}},{"type":"Feature","geometry":{"type":"Point","coordinates":[-46.633863,-23.594095]},"properties":{"nome":"CEO I Vila Mariana","endereco":"R. São Samuel, 70","bairro":"Vila Mariana","telefone":"5082-1003","tipo":"Centro de Especialidades Odontológicas","id_fonte":"equipamento_saude_ambulatorios_especializados.120272","id":"ambulatorios-120272"}},{"type":"Feature","geometry":{"type":"Point","coordinates":[-46.732112,-23.5866]},"properties":{"nome":"CEO II Butantã","endereco":"R. João Guerra, 247","bairro":"Jd Peri Peri","telefone":"3744-3021","tipo":"Centro de Especialidades Odontológicas","id_fonte":"equipamento_saude_ambulatorios_especializados.120273","id":"ambulatorios-120273"}},{"type":"Feature","geometry":{"type":"Point","coordinates":[-46.749938,-23.637944]},"properties":{"nome":"CEO II Campo Limpo","endereco":"R. Francisco Soares, 81","bairro":"Jardim Inga","telefone":"5511-5573","tipo":"Centro de Especialidades Odontológicas","id_fonte":"equipamento_saude_ambulatorios_especializados.120274","id":"ambulatorios-120274"}},{"type":"Feature","geometry":{"type":"Point","coordinates":[-46.68596,-23.755414]},"properties":{"nome":"CEO II Capela do Socorro","endereco":"R. São Caetano do Sul, 381","bairro":"Grajau","telefone":"5932-2015 / 5528-1475","tipo":"Centro de Especialidades Odontológicas","id_fonte":"equipamento_saude_ambulatorios_especializados.120276","id":"ambulatorios-120276"}},{"type":"Feature","geometry":{"type":"Point","coordinates":[-46.773322,-23.671623]},"properties":{"nome":"CEO II Capão Redondo","endereco":"Av. Comendador Santana, 542","bairro":"Capao Redondo","telefone":"3099-0321","tipo":"Centro de Especialidades Odontológicas","id_fonte":"equipamento_saude_ambulatorios_especializados.120275","id":"ambulatorios-120275"}},{"type":"Feature","geometry":{"type":"Point","coordinates":[-46.663986,-23.509428]},"properties":{"nome":"CEO II Casa Verde","endereco":"R. Mourao Vieira, 11","bairro":"Casa Verde Baixa","telefone":"3858-8593","tipo":"Centro de Especialidades Odontológicas","id_fonte":"equipamento_saude_ambulatorios_especializados.120277","id":"ambulatorios-120277"}},{"type":"Feature","geometry":{"type":"Point","coordinates":[-46.398651,-23.601376]},"properties":{"nome":"CEO II Cidade Tiradentes","endereco":"R. Fernando Ganga, 14","bairro":"Cidade Tiradentes","telefone":"2516-1522 / 2516-1729","tipo":"Centro de Especialidades Odontológicas","id_fonte":"equipamento_saude_ambulatorios_especializados.120278","id":"ambulatorios-120278"}},{"type":"Feature","geometry":{"type":"Point","coordinates":[-46.67071,-23.69752]},"properties":{"nome":"CEO II Dr. Humberto Nastari","endereco":"Estrada do Alvarenga, 257","bairro":"Pedreira","telefone":"5612-3024","tipo":"Centro de Especialidades Odontológicas","id_fonte":"equipamento_saude_ambulatorios_especializados.120279","id":"ambulatorios-120279"}},{"type":"Feature","geometry":{"type":"Point","coordinates":[-46.474236,-23.494931]},"properties":{"nome":"CEO II Ermelino Matarazzo","endereco":"R. José Goes Nogueira, 70","bairro":"Vl Paranagua","telefone":"2544-0887","tipo":"Centro de Especialidades Odontológicas","id_fonte":"equipamento_saude_ambulatorios_especializados.120280","id":"ambulatorios-120280"}},{"type":"Feature","geometry":{"type":"Point","coordinates":[-46.683952,-23.473448]},"properties":{"nome":"CEO II Freguesia do O/brasilandia","endereco":"R. Rui de Moraes Apocalipse, 4","bairro":"Jardim do Tiro","telefone":"3921-7759","tipo":"Centro de Especialidades Odontológicas","id_fonte":"equipamento_saude_ambulatorios_especializados.120281","id":"ambulatorios-120281"}},{"type":"Feature","geometry":{"type":"Point","coordinates":[-46.412888,-23.557899]},"properties":{"nome":"CEO II Guaianases","endereco":"R. Macabu, 35","bairro":"Jardim Sao Carlos","telefone":"2016-9559","tipo":"Centro de Especialidades Odontológicas","id_fonte":"equipamento_saude_ambulatorios_especializados.120282","id":"ambulatorios-120282"}},{"type":"Feature","geometry":{"type":"Point","coordinates":[-46.608734,-23.58729]},"properties":{"nome":"CEO II Ipiranga","endereco":"R. Xavier de Almeida, 210","bairro":"Ipiranga","telefone":"2063-2350","tipo":"Centro de Especialidades Odontológicas","id_fonte":"equipamento_saude_ambulatorios_especializados.120283","id":"ambulatorios-120283"}},{"type":"Feature","geometry":{"type":"Point","coordinates":[-46.435016,-23.553462]},"properties":{"nome":"CEO II Itaquera","endereco":"R. Andreas Amon, 150","bairro":"Jose Bonifacio","telefone":"2522-8287","tipo":"Centro de Especialidades Odontológicas","id_fonte":"equipamento_saude_ambulatorios_especializados.120284","id":"ambulatorios-120284"}},{"type":"Feature","geometry":{"type":"Point","coordinates":[-46.637902,-23.652274]},"properties":{"nome":"CEO II Jabaquara","endereco":"Av. Eng Armando de Arruda Pereira, 2944","bairro":"Vila do Encontro","telefone":"5588-2366","tipo":"Centro de Especialidades Odontológicas","id_fonte":"equipamento_saude_ambulatorios_especializados.120285","id":"ambulatorios-120285"}},{"type":"Feature","geometry":{"type":"Point","coordinates":[-46.755887,-23.657198]},"properties":{"nome":"CEO II M Boi Mirim","endereco":"R. Manuel Bordalo Pinheiro, 100","bairro":"Parque Santo Antonio","telefone":"5511-4249 / 5816-5546","tipo":"Centro de Especialidades Odontológicas","id_fonte":"equipamento_saude_ambulatorios_especializados.120286","id":"ambulatorios-120286"}},{"type":"Feature","geometry":{"type":"Point","coordinates":[-46.533072,-23.535396]},"properties":{"nome":"CEO II Penha - Dr. Wilson Ferreira do Vale","endereco":"R. Edgard Garcia Vieira, 130","bairro":"Vl Matilde","telefone":"2651-5123","tipo":"Centro de Especialidades Odontológicas","id_fonte":"equipamento_saude_ambulatorios_especializados.120287","id":"ambulatorios-120287"}},{"type":"Feature","geometry":{"type":"Point","coordinates":[-46.759182,-23.489099]},"properties":{"nome":"CEO II Pirituba","endereco":"R. Marcela Alves de Cassia, 175","bairro":"Jardim Jaragua","telefone":"3906-8408","tipo":"Centro de Especialidades Odontológicas","id_fonte":"equipamento_saude_ambulatorios_especializados.120288","id":"ambulatorios-120288"}},{"type":"Feature","geometry":{"type":"Point","coordinates":[-46.613129,-23.48228]},"properties":{"nome":"CEO II Santana","endereco":"Av. Nova Cantareira, 1467","bairro":"Tucuruvi","telefone":"","tipo":"Centro de Especialidades Odontológicas","id_fonte":"equipamento_saude_ambulatorios_especializados.120289","id":"ambulatorios-120289"}},{"type":"Feature","geometry":{"type":"Point","coordinates":[-46.492935,-23.611647]},"properties":{"nome":"CEO II Sapopemba","endereco":"R. João Lopes de Lima, 1151","bairro":"Sapopemba","telefone":"2962-3480","tipo":"Centro de Especialidades Odontológicas","id_fonte":"equipamento_saude_ambulatorios_especializados.120291","id":"ambulatorios-120291"}},{"type":"Feature","geometry":{"type":"Point","coordinates":[-46.492151,-23.58724]},"properties":{"nome":"CEO II São Mateus","endereco":"R. Senador Maynard Gomes, S/n","bairro":"Jardim Nove de Julho","telefone":"2012-4682","tipo":"Centro de Especialidades Odontológicas","id_fonte":"equipamento_saude_ambulatorios_especializados.120290","id":"ambulatorios-120290"}},{"type":"Feature","geometry":{"type":"Point","coordinates":[-46.781399,-23.734693]},"properties":{"nome":"CEO II Vera Cruz - M Boi Mirim","endereco":"Av. dos Funcionarios Publicos, 379","bairro":"Jardim Vera Cruz","telefone":"5898-5900","tipo":"Centro de Especialidades Odontológicas","id_fonte":"equipamento_saude_ambulatorios_especializados.120292","id":"ambulatorios-120292"}},{"type":"Feature","geometry":{"type":"Point","coordinates":[-46.575467,-23.57093]},"properties":{"nome":"CEO II Vila Bertioga","endereco":"R. Farol Paulistano, 410","bairro":"Alto da Mooca","telefone":"2965-1066 / 2021-7210","tipo":"Centro de Especialidades Odontológicas","id_fonte":"equipamento_saude_ambulatorios_especializados.120293","id":"ambulatorios-120293"}},{"type":"Feature","geometry":{"type":"Point","coordinates":[-46.52458,-23.553041]},"properties":{"nome":"CEO II Vila Carrão","endereco":"R. Dr Jaci Barbosa, 280","bairro":"Vila Carrão","telefone":"2785-4728","tipo":"Centro de Especialidades Odontológicas","id_fonte":"equipamento_saude_ambulatorios_especializados.120294","id":"ambulatorios-120294"}},{"type":"Feature","geometry":{"type":"Point","coordinates":[-46.59155,-23.490722]},"properties":{"nome":"CEO II Vila Maria/vila Guilherme","endereco":"R. Padre Marcos Simoni, 390","bairro":"Vila Ede","telefone":"3478-5900","tipo":"Centro de Especialidades Odontológicas","id_fonte":"equipamento_saude_ambulatorios_especializados.120295","id":"ambulatorios-120295"}},{"type":"Feature","geometry":{"type":"Point","coordinates":[-46.6997,-23.650272]},"properties":{"nome":"CEO III Alto da Boa Vista","endereco":"R. Ministro Roberto Cardoso Alves, 386","bairro":"Alto da Boa Vista","telefone":"5541-9671","tipo":"Centro de Especialidades Odontológicas","id_fonte":"equipamento_saude_ambulatorios_especializados.120296","id":"ambulatorios-120296"}},{"type":"Feature","geometry":{"type":"Point","coordinates":[-46.73164,-23.837551]},"properties":{"nome":"CEO III Parelheiros - Yvette Ranzani Viegas","endereco":"Estrada Engenheiro Marsilac, 1047","bairro":"Parelheiros","telefone":"5922-1881","tipo":"Centro de Especialidades Odontológicas","id_fonte":"equipamento_saude_ambulatorios_especializados.120297","id":"ambulatorios-120297"}},{"type":"Feature","geometry":{"type":"Point","coordinates":[-46.641943,-23.557223]},"properties":{"nome":"CEO III Prof. Alfredo Reis Viegas","endereco":"R. Humaitá, 520","bairro":"Bela Vista","telefone":"3115-0759","tipo":"Centro de Especialidades Odontológicas","id_fonte":"equipamento_saude_ambulatorios_especializados.120298","id":"ambulatorios-120298"}},{"type":"Feature","geometry":{"type":"Point","coordinates":[-46.440799,-23.49665]},"properties":{"nome":"CEO III São Miguel","endereco":"R. João Augusto de Morais, 348","bairro":"Sao Miguel Paulista","telefone":"2033-0511","tipo":"Centro de Especialidades Odontológicas","id_fonte":"equipamento_saude_ambulatorios_especializados.120299","id":"ambulatorios-120299"}},{"type":"Feature","geometry":{"type":"Point","coordinates":[-46.602473,-23.59052]},"properties":{"nome":"CEO III Visconde de Itauna","endereco":"R. Lino Coutinho, 841","bairro":"Ipiranga","telefone":"2215-3701","tipo":"Centro de Especialidades Odontológicas","id_fonte":"equipamento_saude_ambulatorios_especializados.120300","id":"ambulatorios-120300"}},{"type":"Feature","geometry":{"type":"Point","coordinates":[-46.400608,-23.494557]},"properties":{"nome":"CEO Itaim Paulista","endereco":"Praça Major Jose Levy Sobrinho, 139","bairro":"Itaim Paulista","telefone":"2561-9443","tipo":"Centro de Especialidades Odontológicas","id_fonte":"equipamento_saude_ambulatorios_especializados.120301","id":"ambulatorios-120301"}},{"type":"Feature","geometry":{"type":"Point","coordinates":[-46.732112,-23.5866]},"properties":{"nome":"CER II Butantã","endereco":"R. João Guerra, 247","bairro":"Jardim Peri","telefone":"3742-9513","tipo":"Centro Especializado em Reabilitação","id_fonte":"equipamento_saude_ambulatorios_especializados.120302","id":"ambulatorios-120302"}},{"type":"Feature","geometry":{"type":"Point","coordinates":[-46.398651,-23.601376]},"properties":{"nome":"CER II Cidade Tiradentes","endereco":"R. Fernando Ganga, 14","bairro":"Cidade Tiradentes","telefone":"2516-1522 / 2516-1729","tipo":"Centro Especializado em Reabilitação","id_fonte":"equipamento_saude_ambulatorios_especializados.120303","id":"ambulatorios-120303"}},{"type":"Feature","geometry":{"type":"Point","coordinates":[-46.695158,-23.506229]},"properties":{"nome":"CER II Freguesia do O / Brasilandia","endereco":"R. Engenheiro Edgard Ferreira de Barros Junior, 75","bairro":"Freguesia do O","telefone":"3931-6744","tipo":"Centro Especializado em Reabilitação","id_fonte":"equipamento_saude_ambulatorios_especializados.120304","id":"ambulatorios-120304"}},{"type":"Feature","geometry":{"type":"Point","coordinates":[-46.39889,-23.565595]},"properties":{"nome":"CER II Guaianases","endereco":"Av. Utaro Kanai, 286","bairro":"Cohab Juscelino","telefone":"4780-2379","tipo":"Centro Especializado em Reabilitação","id_fonte":"equipamento_saude_ambulatorios_especializados.120305","id":"ambulatorios-120305"}},{"type":"Feature","geometry":{"type":"Point","coordinates":[-46.385765,-23.502991]},"properties":{"nome":"CER II Jardim Camargo Novo","endereco":"R. Boiguaçu, 51","bairro":"Jardim Camargo Novo","telefone":"4780-5098 / 2963-2610","tipo":"Centro Especializado em Reabilitação","id_fonte":"equipamento_saude_ambulatorios_especializados.120307","id":"ambulatorios-120307"}},{"type":"Feature","geometry":{"type":"Point","coordinates":[-46.406914,-23.512426]},"properties":{"nome":"CER II Jardim Campos","endereco":"R. Sete Estrelas, 486","bairro":"Jardim Campos","telefone":"3808-2655 / 4780-2419","tipo":"Centro Especializado em Reabilitação","id_fonte":"equipamento_saude_ambulatorios_especializados.120308","id":"ambulatorios-120308"}},{"type":"Feature","geometry":{"type":"Point","coordinates":[-46.398645,-23.553821]},"properties":{"nome":"CER II Jardim Soares","endereco":"R. Feliciano de Mendonca, 496","bairro":"Jardim Soares","telefone":"4780-2370 / 4780-2369","tipo":"Centro Especializado em Reabilitação","id_fonte":"equipamento_saude_ambulatorios_especializados.120309","id":"ambulatorios-120309"}},{"type":"Feature","geometry":{"type":"Point","coordinates":[-46.580485,-23.474528]},"properties":{"nome":"CER II Jaçanã","endereco":"R. São Geraldino, 222","bairro":"Vila Constancia","telefone":"2821-6700","tipo":"Centro Especializado em Reabilitação","id_fonte":"equipamento_saude_ambulatorios_especializados.120306","id":"ambulatorios-120306"}},{"type":"Feature","geometry":{"type":"Point","coordinates":[-46.723598,-23.771291]},"properties":{"nome":"CER II Parelheiros","endereco":"R. Gaspar Leme, 200","bairro":"Balneario Sao Jose","telefone":"5922-8733 / 5979-2006","tipo":"Centro Especializado em Reabilitação","id_fonte":"equipamento_saude_ambulatorios_especializados.120310","id":"ambulatorios-120310"}},{"type":"Feature","geometry":{"type":"Point","coordinates":[-46.491942,-23.537684]},"properties":{"nome":"CER II Parque Arthur Alvim","endereco":"R. Henrique Jacobs, 269","bairro":"Vila Santa Tereza","telefone":"2748-7410","tipo":"Centro Especializado em Reabilitação","id_fonte":"equipamento_saude_ambulatorios_especializados.120311","id":"ambulatorios-120311"}},{"type":"Feature","geometry":{"type":"Point","coordinates":[-46.738348,-23.40381]},"properties":{"nome":"CER II Perus","endereco":"R. Antonio Jose Anacleto, 80","bairro":"Vila Fanton","telefone":"3245-9050","tipo":"Centro Especializado em Reabilitação","id_fonte":"equipamento_saude_ambulatorios_especializados.120312","id":"ambulatorios-120312"}},{"type":"Feature","geometry":{"type":"Point","coordinates":[-46.576396,-23.546366]},"properties":{"nome":"CER II Tatuapé - Dr. Salomão Crochik","endereco":"PRAÇA MANOEL BORGES DE SOUZA NUNES X R. BOM SUCESSO,650, S/Nº","bairro":"Tatuapé","telefone":"2097-8901","tipo":"Centro Especializado em Reabilitação","id_fonte":"equipamento_saude_ambulatorios_especializados.120313","id":"ambulatorios-120313"}},{"type":"Feature","geometry":{"type":"Point","coordinates":[-46.621982,-23.511234]},"properties":{"nome":"CER II Tucuruvi","endereco":"Av. Zaki Narchi, 357","bairro":"Santana","telefone":"2204-5311 / 2221-2513","tipo":"Centro Especializado em Reabilitação","id_fonte":"equipamento_saude_ambulatorios_especializados.120314","id":"ambulatorios-120314"}},{"type":"Feature","geometry":{"type":"Point","coordinates":[-46.646342,-23.628652]},"properties":{"nome":"CER II Vila Mariana","endereco":"Av. Ceci, 2235","bairro":"Planalto Paulista","telefone":"5581-2828","tipo":"Centro Especializado em Reabilitação","id_fonte":"equipamento_saude_ambulatorios_especializados.120315","id":"ambulatorios-120315"}},{"type":"Feature","geometry":{"type":"Point","coordinates":[-46.442818,-23.53434]},"properties":{"nome":"CER II Vila Nossa Senhora Aparecida","endereco":"R. Paulino Serqueira, 1","bairro":"Itaquera","telefone":"2079-7871","tipo":"Centro Especializado em Reabilitação","id_fonte":"equipamento_saude_ambulatorios_especializados.120316","id":"ambulatorios-120316"}},{"type":"Feature","geometry":{"type":"Point","coordinates":[-46.583095,-23.581974]},"properties":{"nome":"CER II Vila Prudente","endereco":"Praça do Centenario de Vila Prudente, 108","bairro":"Vila Prudente","telefone":"2272-0549 / 2273-1665","tipo":"Centro Especializado em Reabilitação","id_fonte":"equipamento_saude_ambulatorios_especializados.120317","id":"ambulatorios-120317"}},{"type":"Feature","geometry":{"type":"Point","coordinates":[-46.77313,-23.65523]},"properties":{"nome":"CER III Campo Limpo","endereco":"R. Gastao Raul Fourton Bousquet, 377","bairro":"Jardim Marcelo","telefone":"5827-5228 / 5821-0177","tipo":"Centro Especializado em Reabilitação","id_fonte":"equipamento_saude_ambulatorios_especializados.120318","id":"ambulatorios-120318"}},{"type":"Feature","geometry":{"type":"Point","coordinates":[-46.610739,-23.504408]},"properties":{"nome":"CER III Carandiru","endereco":"R. Jose Pereira Jorge, 305","bairro":"Carandiru","telefone":"3475-8800 / 3475-8815","tipo":"Centro Especializado em Reabilitação","id_fonte":"equipamento_saude_ambulatorios_especializados.120319","id":"ambulatorios-120319"}},{"type":"Feature","geometry":{"type":"Point","coordinates":[-46.659879,-23.695575]},"properties":{"nome":"CER III Cidade Ademar","endereco":"R. Corrego Azul, 433","bairro":"Balneario Mar Paulista","telefone":"5612-8935","tipo":"Centro Especializado em Reabilitação","id_fonte":"equipamento_saude_ambulatorios_especializados.120320","id":"ambulatorios-120320"}},{"type":"Feature","geometry":{"type":"Point","coordinates":[-46.472813,-23.50226]},"properties":{"nome":"CER III Ermelino Matarazzo","endereco":"R. Antonio Carlos Lamengo, 54","bairro":"Vila Paranagua","telefone":"2838-0574","tipo":"Centro Especializado em Reabilitação","id_fonte":"equipamento_saude_ambulatorios_especializados.120321","id":"ambulatorios-120321"}},{"type":"Feature","geometry":{"type":"Point","coordinates":[-46.701261,-23.698272]},"properties":{"nome":"CER III Interlagos","endereco":"Av. do Rio Bonito, 3100","bairro":"Socorro","telefone":"5666-7636","tipo":"Centro Especializado em Reabilitação","id_fonte":"equipamento_saude_ambulatorios_especializados.120322","id":"ambulatorios-120322"}},{"type":"Feature","geometry":{"type":"Point","coordinates":[-46.700702,-23.524575]},"properties":{"nome":"CER III Lapa","endereco":"R. Catão, 420","bairro":"Vila Romana","telefone":"3862-1576","tipo":"Centro Especializado em Reabilitação","id_fonte":"equipamento_saude_ambulatorios_especializados.120323","id":"ambulatorios-120323"}},{"type":"Feature","geometry":{"type":"Point","coordinates":[-46.665388,-23.61418]},"properties":{"nome":"CER III Moema","endereco":"Av. dos Carinas, 519","bairro":"Moema","telefone":"5054-2851","tipo":"Centro Especializado em Reabilitação","id_fonte":"equipamento_saude_ambulatorios_especializados.120324","id":"ambulatorios-120324"}},{"type":"Feature","geometry":{"type":"Point","coordinates":[-46.550441,-23.52646]},"properties":{"nome":"CER III Penha","endereco":"Praça Nossa Senhora da Penha, 55","bairro":"Penha","telefone":"2225-2537","tipo":"Centro Especializado em Reabilitação","id_fonte":"equipamento_saude_ambulatorios_especializados.120325","id":"ambulatorios-120325"}},{"type":"Feature","geometry":{"type":"Point","coordinates":[-46.734099,-23.500609]},"properties":{"nome":"CER III Pirituba - Liberato Ragonha","endereco":"R. Pedro Sernagiotti, 380","bairro":"Parque Sao Domingos","telefone":"3245-9040","tipo":"Centro Especializado em Reabilitação","id_fonte":"equipamento_saude_ambulatorios_especializados.120326","id":"ambulatorios-120326"}},{"type":"Feature","geometry":{"type":"Point","coordinates":[-46.688133,-23.688409]},"properties":{"nome":"CER III Santo Amaro","endereco":"Av. Miguel Yunes, 491","bairro":"Usina Piratininga","telefone":"5096-3466 / 5041-5873","tipo":"Centro Especializado em Reabilitação","id_fonte":"equipamento_saude_ambulatorios_especializados.120327","id":"ambulatorios-120327"}},{"type":"Feature","geometry":{"type":"Point","coordinates":[-46.516589,-23.59286]},"properties":{"nome":"CER III Sapopemba","endereco":"Av. Sapopemba, 8518","bairro":"Jd Planalto","telefone":"2011-2317","tipo":"Centro Especializado em Reabilitação","id_fonte":"equipamento_saude_ambulatorios_especializados.120329","id":"ambulatorios-120329"}},{"type":"Feature","geometry":{"type":"Point","coordinates":[-46.497364,-23.584075]},"properties":{"nome":"CER III São Mateus","endereco":"Av. Ouro Verde de Minas, 1195","bairro":"Jardim IV Centenario","telefone":"2010-0494","tipo":"Centro Especializado em Reabilitação","id_fonte":"equipamento_saude_ambulatorios_especializados.120328","id":"ambulatorios-120328"}},{"type":"Feature","geometry":{"type":"Point","coordinates":[-46.628102,-23.551244]},"properties":{"nome":"CER III Sé","endereco":"R. Frederico Alvarenga, 259","bairro":"Se","telefone":"3242-3566 / 3107-5801","tipo":"Centro Especializado em Reabilitação","id_fonte":"equipamento_saude_ambulatorios_especializados.120330","id":"ambulatorios-120330"}},{"type":"Feature","geometry":{"type":"Point","coordinates":[-46.608734,-23.58729]},"properties":{"nome":"CER IV Flavio Giannotti","endereco":"R. Xavier de Almeida, 210","bairro":"Ipiranga","telefone":"2063-3144 / 2063-0622","tipo":"Centro Especializado em Reabilitação","id_fonte":"equipamento_saude_ambulatorios_especializados.120331","id":"ambulatorios-120331"}},{"type":"Feature","geometry":{"type":"Point","coordinates":[-46.75715,-23.694121]},"properties":{"nome":"CER IV M Boi Mirim","endereco":"Av. Alexandrina Malisano de Lima, 601","bairro":"Jardim Herculano","telefone":"5832-2200","tipo":"Centro Especializado em Reabilitação","id_fonte":"equipamento_saude_ambulatorios_especializados.120332","id":"ambulatorios-120332"}},{"type":"Feature","geometry":{"type":"Point","coordinates":[-46.686013,-23.75547]},"properties":{"nome":"CER IV Milton Aldred","endereco":"R. São Caetano do Sul, 381","bairro":"Grajau","telefone":"5932-2015 / 5932-2240","tipo":"Centro Especializado em Reabilitação","id_fonte":"equipamento_saude_ambulatorios_especializados.120333","id":"ambulatorios-120333"}},{"type":"Feature","geometry":{"type":"Point","coordinates":[-46.440799,-23.49665]},"properties":{"nome":"CER IV São Miguel","endereco":"R. Professor Antonio Gama de Cerqueira, 347","bairro":"São Miguel","telefone":"3857-0862","tipo":"Centro Especializado em Reabilitação","id_fonte":"equipamento_saude_ambulatorios_especializados.120334","id":"ambulatorios-120334"}},{"type":"Feature","geometry":{"type":"Point","coordinates":[-46.668276,-23.555171]},"properties":{"nome":"CEREST-Centro de Referência Estadual Saude do Trabalhador - São Paulo","endereco":"Av Dr Arnaldo, 351","bairro":"Cerqueira Cesar","telefone":"3065-4771","tipo":"Centro Especializado em Reabilitação","id_fonte":"equipamento_saude_ambulatorios_especializados.120335","id":"ambulatorios-120335"}},{"type":"Feature","geometry":{"type":"Point","coordinates":[-46.623696,-23.597255]},"properties":{"nome":"CR PICS Bosque da Saude","endereco":"R. João Baptistussi, 55","bairro":"Vila Mariana","telefone":"5571-2682","tipo":"Práticas Integrativas e Complementares","id_fonte":"equipamento_saude_ambulatorios_especializados.120345","id":"ambulatorios-120345"}},{"type":"Feature","geometry":{"type":"Point","coordinates":[-46.403868,-23.603498]},"properties":{"nome":"CR PICS Cidade Tiradentes","endereco":"R. Luis Bordese, 96","bairro":"Cidade Tiradentes","telefone":"3808-7813","tipo":"Práticas Integrativas e Complementares","id_fonte":"equipamento_saude_ambulatorios_especializados.120346","id":"ambulatorios-120346"}},{"type":"Feature","geometry":{"type":"Point","coordinates":[-46.477634,-23.494605]},"properties":{"nome":"CR PICS Ermelino Matarazzo - Primavera","endereco":"R. Victoria Simionato, 100","bairro":"Ermelino Matarazzo","telefone":"2541-4031","tipo":"Práticas Integrativas e Complementares","id_fonte":"equipamento_saude_ambulatorios_especializados.120347","id":"ambulatorios-120347"}},{"type":"Feature","geometry":{"type":"Point","coordinates":[-46.40171,-23.537291]},"properties":{"nome":"CR PICS Guaianases","endereco":"R. Serra das Araras, 314","bairro":"Guaianases","telefone":"2554-4124","tipo":"Práticas Integrativas e Complementares","id_fonte":"equipamento_saude_ambulatorios_especializados.120348","id":"ambulatorios-120348"}},{"type":"Feature","geometry":{"type":"Point","coordinates":[-46.483164,-23.59868]},"properties":{"nome":"CR PICS São Mateus - Prof José Feliciano do Nascimento","endereco":"R. Dr Aureliano da Silva Arruda, 403","bairro":"Cidade São Mateus","telefone":"2012-5175","tipo":"Práticas Integrativas e Complementares","id_fonte":"equipamento_saude_ambulatorios_especializados.120349","id":"ambulatorios-120349"}},{"type":"Feature","geometry":{"type":"Point","coordinates":[-46.628102,-23.551244]},"properties":{"nome":"CR PICS Sé","endereco":"R. FREDERICO ALVARENGA, 259 - 3º AND","bairro":"Pq Dom Pedro","telefone":"3112-8133","tipo":"Práticas Integrativas e Complementares","id_fonte":"equipamento_saude_ambulatorios_especializados.120350","id":"ambulatorios-120350"}},{"type":"Feature","geometry":{"type":"Point","coordinates":[-46.637127,-23.532359]},"properties":{"nome":"CRATOD - Centro de Referência de Álcool,tabaco e Outras Drogas","endereco":"R. Prates, 165","bairro":"Bom Retiro","telefone":"3329-4455","tipo":"Ambulatório especializado","id_fonte":"equipamento_saude_ambulatorios_especializados.120357","id":"ambulatorios-120357"}},{"type":"Feature","geometry":{"type":"Point","coordinates":[-46.69787,-23.564597]},"properties":{"nome":"CS I Dr Victor Araujo H. Mello - Pinheiros","endereco":"R. Ferreira de Araujo, 789","bairro":"Pinheiros","telefone":"3031-7763 / 3031-8407","tipo":"Ambulatório especializado","id_fonte":"equipamento_saude_ambulatorios_especializados.120362","id":"ambulatorios-120362"}},{"type":"Feature","geometry":{"type":"Point","coordinates":[-46.733833,-23.645773]},"properties":{"nome":"Casa Angela","endereco":"R. Mahamed Aguil, 34","bairro":"Jardim Mirante","telefone":"5852-5332","tipo":"Ambulatório especializado","id_fonte":"equipamento_saude_ambulatorios_especializados.120220","id":"ambulatorios-120220"}},{"type":"Feature","geometry":{"type":"Point","coordinates":[-46.532649,-23.604131]},"properties":{"nome":"Casa do Parto de Sapopemba","endereco":"R. São José das Espinharas, 400","bairro":"Vl Industrial","telefone":"2702-6043","tipo":"Ambulatório especializado","id_fonte":"equipamento_saude_ambulatorios_especializados.120221","id":"ambulatorios-120221"}},{"type":"Feature","geometry":{"type":"Point","coordinates":[-46.613493,-23.482147]},"properties":{"nome":"Centro de Cuidados Odontologicos - CCO Norte","endereco":"R. Ismael Neri, 810","bairro":"Agua Fria","telefone":"4435-5412","tipo":"Ambulatório especializado","id_fonte":"equipamento_saude_ambulatorios_especializados.120252","id":"ambulatorios-120252"}},{"type":"Feature","geometry":{"type":"Point","coordinates":[-46.625604,-23.557016]},"properties":{"nome":"Centro de Dermatologia Sanitaria","endereco":"R. Leopoldo Miguez, 327","bairro":"Varzea do Glicerio","telefone":"3207-4874","tipo":"Ambulatório especializado","id_fonte":"equipamento_saude_ambulatorios_especializados.120253","id":"ambulatorios-120253"}},{"type":"Feature","geometry":{"type":"Point","coordinates":[-46.452792,-23.532559]},"properties":{"nome":"Centro de Exames da Mulher","endereco":"R. Lapenna, 60","bairro":"Itaquera","telefone":"","tipo":"Ambulatório especializado","id_fonte":"equipamento_saude_ambulatorios_especializados.120254","id":"ambulatorios-120254"}},{"type":"Feature","geometry":{"type":"Point","coordinates":[-46.751644,-23.623325]},"properties":{"nome":"Centro de Reabilitação Umarizal","endereco":"R. Guaramembé, 589","bairro":"Jardim Umarizal","telefone":"5841-7414","tipo":"Ambulatório especializado","id_fonte":"equipamento_saude_ambulatorios_especializados.120255","id":"ambulatorios-120255"}},{"type":"Feature","geometry":{"type":"Point","coordinates":[-46.648616,-23.524706]},"properties":{"nome":"Centro de Ref de Saúde Integral Para A População de Travestis e Transexuais Janaina Lima - CR POP TT","endereco":"R. Jaraguá, 866","bairro":"Bom Retiro","telefone":"5196-2405","tipo":"Ambulatório especializado","id_fonte":"equipamento_saude_ambulatorios_especializados.120256","id":"ambulatorios-120256"}},{"type":"Feature","geometry":{"type":"Point","coordinates":[-46.624823,-23.597763]},"properties":{"nome":"Centro de Referencia da Dor Cronica - Vila Mariana","endereco":"R. Carlos Gerolomo Monaco, 169","bairro":"Vila Mariana","telefone":"","tipo":"Ambulatório especializado","id_fonte":"equipamento_saude_ambulatorios_especializados.120262","id":"ambulatorios-120262"}},{"type":"Feature","geometry":{"type":"Point","coordinates":[-46.63321,-23.484643]},"properties":{"nome":"Centro de Referencia do Idoso da Zona Norte","endereco":"R. Augusto Tolle, 978","bairro":"Santana","telefone":"2972-9244","tipo":"Ambulatório especializado","id_fonte":"equipamento_saude_ambulatorios_especializados.120264","id":"ambulatorios-120264"}},{"type":"Feature","geometry":{"type":"Point","coordinates":[-46.721961,-23.537596]},"properties":{"nome":"Centro de Referência da Dor Cronica - Oeste","endereco":"Av. Queiroz Filho, 313","bairro":"Alto de Pinheiros","telefone":"3071-2800","tipo":"Ambulatório especializado","id_fonte":"equipamento_saude_ambulatorios_especializados.120259","id":"ambulatorios-120259"}},{"type":"Feature","geometry":{"type":"Point","coordinates":[-46.648616,-23.524706]},"properties":{"nome":"Centro de Referência da Dor Crônica - Bom Retiro","endereco":"R. Jaraguá, 866","bairro":"Bom Retiro","telefone":"5242-8480","tipo":"Ambulatório especializado","id_fonte":"equipamento_saude_ambulatorios_especializados.120257","id":"ambulatorios-120257"}},{"type":"Feature","geometry":{"type":"Point","coordinates":[-46.440919,-23.496962]},"properties":{"nome":"Centro de Referência da Dor Crônica - Leste","endereco":"R. Antonio Gama de Cerqueira, 361","bairro":"Sao Miguel Paulista","telefone":"2956-8122","tipo":"Ambulatório especializado","id_fonte":"equipamento_saude_ambulatorios_especializados.120258","id":"ambulatorios-120258"}},{"type":"Feature","geometry":{"type":"Point","coordinates":[-46.762392,-23.663185]},"properties":{"nome":"Centro de Referência da Dor Crônica - Parque Maria Helena","endereco":"R. Dr Benedito Matarazzo, 371","bairro":"Parque Maria Helena","telefone":"2330-0133","tipo":"Ambulatório especializado","id_fonte":"equipamento_saude_ambulatorios_especializados.120260","id":"ambulatorios-120260"}},{"type":"Feature","geometry":{"type":"Point","coordinates":[-46.734099,-23.500609]},"properties":{"nome":"Centro de Referência da Dor Crônica - Pirituba","endereco":"R. Pedro Sernagiotti, 380","bairro":"Parque Sao Domingos","telefone":"","tipo":"Ambulatório especializado","id_fonte":"equipamento_saude_ambulatorios_especializados.120261","id":"ambulatorios-120261"}},{"type":"Feature","geometry":{"type":"Point","coordinates":[-46.633944,-23.594266]},"properties":{"nome":"Clínica Odontológica Adyr Amaral Gurgel","endereco":"R. São Samuel, 70","bairro":"Vl Mariana","telefone":"5549-4449","tipo":"Ambulatório especializado","id_fonte":"equipamento_saude_ambulatorios_especializados.120336","id":"ambulatorios-120336"}},{"type":"Feature","geometry":{"type":"Point","coordinates":[-46.642805,-23.54402]},"properties":{"nome":"Estação Prevenção Jorge Beloqui","endereco":"Estação Metrô República, 1","bairro":"Republica","telefone":"","tipo":"Ambulatório especializado","id_fonte":"equipamento_saude_ambulatorios_especializados.120373","id":"ambulatorios-120373"}},{"type":"Feature","geometry":{"type":"Point","coordinates":[-46.739559,-23.565295]},"properties":{"nome":"Faculdade de Odontologia - USP (clinica Odontológica)","endereco":"Av. Prof. Lineu Prestes, 2227","bairro":"Ciduniversitaria","telefone":"3091-7418","tipo":"Ambulatório especializado","id_fonte":"equipamento_saude_ambulatorios_especializados.120374","id":"ambulatorios-120374"}},{"type":"Feature","geometry":{"type":"Point","coordinates":[-46.677991,-23.551244]},"properties":{"nome":"Fundação Oncocentro de São Paulo","endereco":"R. Oscar Freire, 2396","bairro":"Pinheiros","telefone":"3797-1845","tipo":"Ambulatório especializado","id_fonte":"equipamento_saude_ambulatorios_especializados.120385","id":"ambulatorios-120385"}},{"type":"Feature","geometry":{"type":"Point","coordinates":[-46.446277,-23.491916]},"properties":{"nome":"IPGG- Instituto Paulista de Geriatria e Gerontologia - José Ermirio de Moraes","endereco":"Praça Padre Aleixo Monteiro Mafra, 34","bairro":"Sao Miguel Paulista","telefone":"2030-4067","tipo":"Ambulatório especializado","id_fonte":"equipamento_saude_ambulatorios_especializados.120470","id":"ambulatorios-120470"}},{"type":"Feature","geometry":{"type":"Point","coordinates":[-46.647421,-23.547748]},"properties":{"nome":"Instituto Clemente Ferreira","endereco":"R. Consolação, 717","bairro":"Consolação","telefone":"3218-8660","tipo":"Ambulatório especializado","id_fonte":"equipamento_saude_ambulatorios_especializados.120463","id":"ambulatorios-120463"}},{"type":"Feature","geometry":{"type":"Point","coordinates":[-46.743075,-23.522265]},"properties":{"nome":"Servico de Reabilitacao Lucy Montoro Jardim Humaita SP","endereco":"R Galileo Emendabili, 99","bairro":"Jardim Humaita","telefone":"3641-9026","tipo":"Ambulatório especializado","id_fonte":"equipamento_saude_ambulatorios_especializados.120529","id":"ambulatorios-120529"}},{"type":"Feature","geometry":{"type":"Point","coordinates":[-46.708873,-23.567221]},"properties":{"nome":"URSI Butantã","endereco":"Av. Afranio Peixoto, 424","bairro":"Butanta","telefone":"","tipo":"Referência à Saúde do Idoso","id_fonte":"equipamento_saude_ambulatorios_especializados.121030","id":"ambulatorios-121030"}},{"type":"Feature","geometry":{"type":"Point","coordinates":[-46.708957,-23.739845]},"properties":{"nome":"URSI Capela do Socorro","endereco":"R. Venancio Poletti, 228","bairro":"Vila Sao Jose","telefone":"5925-4179 / 5929-5979","tipo":"Referência à Saúde do Idoso","id_fonte":"equipamento_saude_ambulatorios_especializados.121031","id":"ambulatorios-121031"}},{"type":"Feature","geometry":{"type":"Point","coordinates":[-46.652206,-23.531812]},"properties":{"nome":"URSI Centro","endereco":"R. Vitorino Carmilo, 599","bairro":"Santa Cecilia","telefone":"3663-3844","tipo":"Referência à Saúde do Idoso","id_fonte":"equipamento_saude_ambulatorios_especializados.121032","id":"ambulatorios-121032"}},{"type":"Feature","geometry":{"type":"Point","coordinates":[-46.671718,-23.655596]},"properties":{"nome":"URSI Cidade Ademar","endereco":"R. Sebastião Andrade Bonani, 340","bairro":"Jardim Prudencia","telefone":"5678-9364 / 5678-9361","tipo":"Referência à Saúde do Idoso","id_fonte":"equipamento_saude_ambulatorios_especializados.121033","id":"ambulatorios-121033"}},{"type":"Feature","geometry":{"type":"Point","coordinates":[-46.459708,-23.526159]},"properties":{"nome":"URSI Conjunto Ae Carvalho","endereco":"R. Corre Corre, 30","bairro":"Itaquera","telefone":"4780-5111","tipo":"Referência à Saúde do Idoso","id_fonte":"equipamento_saude_ambulatorios_especializados.121034","id":"ambulatorios-121034"}},{"type":"Feature","geometry":{"type":"Point","coordinates":[-46.604055,-23.555975]},"properties":{"nome":"URSI Mooca","endereco":"Rua Marina Crespi, 91","bairro":"Mooca","telefone":"2796-3663","tipo":"Referência à Saúde do Idoso","id_fonte":"equipamento_saude_ambulatorios_especializados.121035","id":"ambulatorios-121035"}},{"type":"Feature","geometry":{"type":"Point","coordinates":[-46.622791,-23.461283]},"properties":{"nome":"URSI Santana Jacana","endereco":"R. Dr Jose Vicente, 79","bairro":"Tremembe","telefone":"2203-4039","tipo":"Referência à Saúde do Idoso","id_fonte":"equipamento_saude_ambulatorios_especializados.121036","id":"ambulatorios-121036"}},{"type":"Feature","geometry":{"type":"Point","coordinates":[-46.71032,-23.642251]},"properties":{"nome":"URSI Santo Amaro","endereco":"R. Bragança Paulista, 71","bairro":"Vila Cruzeiro","telefone":"5548-3152","tipo":"Referência à Saúde do Idoso","id_fonte":"equipamento_saude_ambulatorios_especializados.121037","id":"ambulatorios-121037"}},{"type":"Feature","geometry":{"type":"Point","coordinates":[-46.483055,-23.599413]},"properties":{"nome":"URSI São Mateus","endereco":"R. Angelo de Candia, 1109","bairro":"São Mateus","telefone":"2013-1723","tipo":"Referência à Saúde do Idoso","id_fonte":"equipamento_saude_ambulatorios_especializados.121038","id":"ambulatorios-121038"}},{"type":"Feature","geometry":{"type":"Point","coordinates":[-46.565818,-23.511956]},"properties":{"nome":"Unidade Odontologica Movel - Norte","endereco":"R. Soldado Antonio Matias de Camargo, 87","bairro":"Parque Novo Mundo","telefone":"2975-4218 / 2973-0733","tipo":"Unidade odontológica móvel","id_fonte":"equipamento_saude_ambulatorios_especializados.120989","id":"ambulatorios-120989"}},{"type":"Feature","geometry":{"type":"Point","coordinates":[-46.415502,-23.544869]},"properties":{"nome":"Unidade Odontologica Movel Leste","endereco":"R. Comandante Carlos Ruhl, 189","bairro":"Guaianases","telefone":"","tipo":"Unidade odontológica móvel","id_fonte":"equipamento_saude_ambulatorios_especializados.120992","id":"ambulatorios-120992"}},{"type":"Feature","geometry":{"type":"Point","coordinates":[-46.720519,-23.531771]},"properties":{"nome":"Unidade Odontologica Movel Oeste","endereco":"R. Bergson, 52","bairro":"Vila Leopoldina","telefone":"3836-8029","tipo":"Unidade odontológica móvel","id_fonte":"equipamento_saude_ambulatorios_especializados.120993","id":"ambulatorios-120993"}},{"type":"Feature","geometry":{"type":"Point","coordinates":[-46.705643,-23.723329]},"properties":{"nome":"Unidade Odontologica Movel Sul","endereco":"R. Dr Carlos Pezzolo, S/n","bairro":"Jardim Bela Vista","telefone":"","tipo":"Unidade odontológica móvel","id_fonte":"equipamento_saude_ambulatorios_especializados.120994","id":"ambulatorios-120994"}},{"type":"Feature","geometry":{"type":"Point","coordinates":[-46.596307,-23.546559]},"properties":{"nome":"Unidade Odontológica Móvel - Sudeste","endereco":"Siqueira Cardoso, 277","bairro":"Mooca","telefone":"2693-6251","tipo":"Unidade odontológica móvel","id_fonte":"equipamento_saude_ambulatorios_especializados.120990","id":"ambulatorios-120990"}},{"type":"Feature","geometry":{"type":"Point","coordinates":[-46.628234,-23.551057]},"properties":{"nome":"Unidade Odontológica Móvel Centro","endereco":"R. Frederico Alvarenga, 259","bairro":"Se","telefone":"","tipo":"Unidade odontológica móvel","id_fonte":"equipamento_saude_ambulatorios_especializados.120991","id":"ambulatorios-120991"}},{"type":"Feature","geometry":{"type":"Point","coordinates":[-46.481795,-23.491983]},"properties":{"nome":"Unidade de Cuidados Continuados Integrados Padre Antonio Luiz Marchioni - Padre Ticão","endereco":"R. Fioravante Lopes Garcia, 699","bairro":"Ermelino Matarazzo","telefone":"5128-7131","tipo":"Ambulatório especializado","id_fonte":"equipamento_saude_ambulatorios_especializados.120983","id":"ambulatorios-120983"}}]}