{"type":"FeatureCollection","metadata":{"camada":"bibliotecas","fonte":"GeoSampa (Prefeitura de São Paulo)","camada_fonte":"geoportal:equipamento_cultura_bibliotecas","atualizado_em":"2026-10-06","total":192},"features":[{"type":"Feature","geometry":{"type":"Point","coordinates":[-46.625783,-23.602563]},"properties":{"nome":"Acervo técnico - Diretoria de Ensino Centro Sul","endereco":"Rua Dom Antonio Galvão, 95","bairro":"","telefone":"(11) 5591-2036 / (11) 5591-2030","id_fonte":"equipamento_cultura_bibliotecas.40044","id":"bibliotecas-40044"}},{"type":"Feature","geometry":{"type":"Point","coordinates":[-46.624554,-23.507788]},"properties":{"nome":"BPE Biblioteca de São Paulo","endereco":"Av. Cruzeiro do Sul, 2630","bairro":"","telefone":"(11) 2089-0800","id_fonte":"equipamento_cultura_bibliotecas.40112","id":"bibliotecas-40112"}},{"type":"Feature","geometry":{"type":"Point","coordinates":[-46.72988,-23.54173]},"properties":{"nome":"BPE Parque Villa-Lobos","endereco":"Av. Queiroz Filho, 1205","bairro":"","telefone":"(11) 3024-2500","id_fonte":"equipamento_cultura_bibliotecas.40113","id":"bibliotecas-40113"}},{"type":"Feature","geometry":{"type":"Point","coordinates":[-46.693851,-23.48308]},"properties":{"nome":"Biblioteca - CEU Freguesia do Ò","endereco":"R. Crespo de Carvalho, 71","bairro":"","telefone":"(11) 5990-2340","id_fonte":"equipamento_cultura_bibliotecas.40045","id":"bibliotecas-40045"}},{"type":"Feature","geometry":{"type":"Point","coordinates":[-46.411283,-23.569261]},"properties":{"nome":"Biblioteca Adelaide de Castro Alves Guimarães (CEU Inácio Monteiro)","endereco":"Rua Barão Barroso do Amazonas, 115","bairro":"","telefone":"(11) 2518-9027 / (11) 2518-9014","id_fonte":"equipamento_cultura_bibliotecas.40114","id":"bibliotecas-40114"}},{"type":"Feature","geometry":{"type":"Point","coordinates":[-46.61083,-23.526261]},"properties":{"nome":"Biblioteca Adelpha Figueiredo","endereco":"Praça Ilo Ottani, 146","bairro":"","telefone":"(11) 2292-3439","id_fonte":"equipamento_cultura_bibliotecas.40007","id":"bibliotecas-40007"}},{"type":"Feature","geometry":{"type":"Point","coordinates":[-46.597215,-23.550303]},"properties":{"nome":"Biblioteca Affonso Taunay","endereco":"Rua Taquari, 549","bairro":"","telefone":"(11) 2292-5126","id_fonte":"equipamento_cultura_bibliotecas.40031","id":"bibliotecas-40031"}},{"type":"Feature","geometry":{"type":"Point","coordinates":[-46.701143,-23.481302]},"properties":{"nome":"Biblioteca Afonso Schmidt","endereco":"Avenida Elísio Teixeira Leite, 1470","bairro":"","telefone":"(11) 3975-2305","id_fonte":"equipamento_cultura_bibliotecas.40008","id":"bibliotecas-40008"}},{"type":"Feature","geometry":{"type":"Point","coordinates":[-46.682342,-23.558257]},"properties":{"nome":"Biblioteca Alceu Amoroso Lima","endereco":"Rua Henrique Schaumann, 777","bairro":"","telefone":"(11) 3082-5023 / (11) 3063-3064","id_fonte":"equipamento_cultura_bibliotecas.40034","id":"bibliotecas-40034"}},{"type":"Feature","geometry":{"type":"Point","coordinates":[-46.658028,-23.580742]},"properties":{"nome":"Biblioteca Alceu de Amoroso Lima - Tristão de Ataíde (Biblioteca da Alesp)","endereco":"Avenida Pedro Álvares Cabral, 201","bairro":"","telefone":"(11) 3886-6582","id_fonte":"equipamento_cultura_bibliotecas.40046","id":"bibliotecas-40046"}},{"type":"Feature","geometry":{"type":"Point","coordinates":[-46.640274,-23.571262]},"properties":{"nome":"Biblioteca Alfredo Volpi","endereco":"Rua Vergueiro, 1000","bairro":"","telefone":"(11) 3397-4001 / (11) 3397-4002","id_fonte":"equipamento_cultura_bibliotecas.40150","id":"bibliotecas-40150"}},{"type":"Feature","geometry":{"type":"Point","coordinates":[-46.616927,-23.61243]},"properties":{"nome":"Biblioteca Amadeu Amaral","endereco":"R. José Clovis de Castro, s/n","bairro":"","telefone":"(11) 5061-3320","id_fonte":"equipamento_cultura_bibliotecas.40041","id":"bibliotecas-40041"}},{"type":"Feature","geometry":{"type":"Point","coordinates":[-46.685273,-23.586746]},"properties":{"nome":"Biblioteca Anne Frank","endereco":"Rua Cojuba, 45","bairro":"","telefone":"(11) 3078-6352","id_fonte":"equipamento_cultura_bibliotecas.40026","id":"bibliotecas-40026"}},{"type":"Feature","geometry":{"type":"Point","coordinates":[-46.611929,-23.549851]},"properties":{"nome":"Biblioteca Arsenal da Esperança - BAE","endereco":"Rua Dr. Almeida Lima, 900","bairro":"","telefone":"(11) 2292-0977 / (11) 2292-0977","id_fonte":"equipamento_cultura_bibliotecas.40047","id":"bibliotecas-40047"}},{"type":"Feature","geometry":{"type":"Point","coordinates":[-46.547877,-23.594837]},"properties":{"nome":"Biblioteca Aureliano Leite","endereco":"Rua Otto Shubart, 196","bairro":"","telefone":"(11) 2211-7716","id_fonte":"equipamento_cultura_bibliotecas.40012","id":"bibliotecas-40012"}},{"type":"Feature","geometry":{"type":"Point","coordinates":[-46.707248,-23.654272]},"properties":{"nome":"Biblioteca Belmonte (fechado temporariamente)","endereco":"Rua Paulo Eiró, 525","bairro":"","telefone":"(11) 5687-0408 / (11) 5691-0433","id_fonte":"equipamento_cultura_bibliotecas.40177","id":"bibliotecas-40177"}},{"type":"Feature","geometry":{"type":"Point","coordinates":[-46.721748,-23.562331]},"properties":{"nome":"Biblioteca Brasiliana Guita e José Mindlin","endereco":"Rua da Biblioteca,, 21","bairro":"","telefone":"(11) 2648-0317","id_fonte":"equipamento_cultura_bibliotecas.40048","id":"bibliotecas-40048"}},{"type":"Feature","geometry":{"type":"Point","coordinates":[-46.740348,-23.485888]},"properties":{"nome":"Biblioteca Brito Broca","endereco":"Avenida Mutinga, 1425","bairro":"","telefone":"(11) 3904-1444 / (11) 3904-2476","id_fonte":"equipamento_cultura_bibliotecas.40006","id":"bibliotecas-40006"}},{"type":"Feature","geometry":{"type":"Point","coordinates":[-46.429605,-23.60434]},"properties":{"nome":"Biblioteca CEU Alto Alegre","endereco":"Av. Bento Guelfi, 0","bairro":"","telefone":"(11) 2075-1018 / (11) 2075-1014","id_fonte":"equipamento_cultura_bibliotecas.40115","id":"bibliotecas-40115"}},{"type":"Feature","geometry":{"type":"Point","coordinates":[-46.503284,-23.570355]},"properties":{"nome":"Biblioteca CEU Aricanduva - Mário Quintana","endereco":"Rua Olga Fadel Abarca s/nº, 0","bairro":"","telefone":"(11) 2723-7511 / (11) 2723-7513","id_fonte":"equipamento_cultura_bibliotecas.40050","id":"bibliotecas-40050"}},{"type":"Feature","geometry":{"type":"Point","coordinates":[-46.486941,-23.552862]},"properties":{"nome":"Biblioteca CEU Arthur Alvim – Abdias do Nascimento","endereco":"Av. Sylvio Torres, 295","bairro":"","telefone":"(11) 5990-3365","id_fonte":"equipamento_cultura_bibliotecas.40051","id":"bibliotecas-40051"}},{"type":"Feature","geometry":{"type":"Point","coordinates":[-46.457381,-23.522105]},"properties":{"nome":"Biblioteca CEU Azul da Cor do Mar","endereco":"Avenida Ernesto Souza Cruz, 2171","bairro":"","telefone":"(11) 3397-9019 / (11) 3397-9000","id_fonte":"equipamento_cultura_bibliotecas.40052","id":"bibliotecas-40052"}},{"type":"Feature","geometry":{"type":"Point","coordinates":[-46.750011,-23.58184]},"properties":{"nome":"Biblioteca CEU Butantã - Jornalista Roberto Marinho","endereco":"Av. Engenheiro Heitor Antonio Eiras Garcia, 1870","bairro":"","telefone":"(11) 3732-4558 / (11) 3732-4559","id_fonte":"equipamento_cultura_bibliotecas.40053","id":"bibliotecas-40053"}},{"type":"Feature","geometry":{"type":"Point","coordinates":[-46.78635,-23.649276]},"properties":{"nome":"Biblioteca CEU Cantos do Amanhecer","endereco":"Av. Cantos do Amanhecer, 0","bairro":"","telefone":"(11) 3397-9767","id_fonte":"equipamento_cultura_bibliotecas.40054","id":"bibliotecas-40054"}},{"type":"Feature","geometry":{"type":"Point","coordinates":[-46.744318,-23.646285]},"properties":{"nome":"Biblioteca CEU Casa Blanca - Patativa do Assaré","endereco":"Rua João Damasceno, 85","bairro":"","telefone":"(11) 5519-5244","id_fonte":"equipamento_cultura_bibliotecas.40055","id":"bibliotecas-40055"}},{"type":"Feature","geometry":{"type":"Point","coordinates":[-46.70452,-23.710392]},"properties":{"nome":"Biblioteca CEU Cidade Dutra - Biblioteca Rubem Braga","endereco":"Rua Cristina de Vasconcelos Ceccato, 111","bairro":"","telefone":"(11) 5668-1915 / (11) 5668-1916","id_fonte":"equipamento_cultura_bibliotecas.40056","id":"bibliotecas-40056"}},{"type":"Feature","geometry":{"type":"Point","coordinates":[-46.794627,-23.686214]},"properties":{"nome":"Biblioteca CEU Feitiço da Vila - Dep. Prof. José Freitas Nobre","endereco":"Rua Feitiço da Vila, 399","bairro":"","telefone":"(11) 3397-6566","id_fonte":"equipamento_cultura_bibliotecas.40057","id":"bibliotecas-40057"}},{"type":"Feature","geometry":{"type":"Point","coordinates":[-46.525599,-23.581105]},"properties":{"nome":"Biblioteca CEU Formosa","endereco":"Rua Srg. Claudiner Evaristo Dias, 10","bairro":"","telefone":"(11) 2036-4302","id_fonte":"equipamento_cultura_bibliotecas.40058","id":"bibliotecas-40058"}},{"type":"Feature","geometry":{"type":"Point","coordinates":[-46.768971,-23.69876]},"properties":{"nome":"Biblioteca CEU Guarapiranga","endereco":"Estrada da Baronesa, 1120","bairro":"","telefone":"(11) 3397-9576 / (11) 3397-9581","id_fonte":"equipamento_cultura_bibliotecas.40059","id":"bibliotecas-40059"}},{"type":"Feature","geometry":{"type":"Point","coordinates":[-46.594111,-23.615728]},"properties":{"nome":"Biblioteca CEU Heliópolis","endereco":"Estrada das Lágrimas, 2385","bairro":"","telefone":"(11) 2353-4317 / (11) 2353-4314","id_fonte":"equipamento_cultura_bibliotecas.40060","id":"bibliotecas-40060"}},{"type":"Feature","geometry":{"type":"Point","coordinates":[-46.399797,-23.543395]},"properties":{"nome":"Biblioteca CEU Lajeado","endereco":"Rua Manuel da Mota Coutinho, 293","bairro":"","telefone":"(11) 3397-6940","id_fonte":"equipamento_cultura_bibliotecas.40061","id":"bibliotecas-40061"}},{"type":"Feature","geometry":{"type":"Point","coordinates":[-46.660714,-23.744575]},"properties":{"nome":"Biblioteca CEU Navegantes - Narcisa Amália de Campos","endereco":"Rua Maria Moassab Barbour, 0","bairro":"","telefone":"(11) 5976-5516","id_fonte":"equipamento_cultura_bibliotecas.40062","id":"bibliotecas-40062"}},{"type":"Feature","geometry":{"type":"Point","coordinates":[-46.389774,-23.513279]},"properties":{"nome":"Biblioteca CEU Parque Veredas - Paulo Leminski","endereco":"Rua Daniel Muller, 347","bairro":"","telefone":"(11) 2563-6212","id_fonte":"equipamento_cultura_bibliotecas.40063","id":"bibliotecas-40063"}},{"type":"Feature","geometry":{"type":"Point","coordinates":[-46.752305,-23.405633]},"properties":{"nome":"Biblioteca CEU Perus - João Antônio","endereco":"Rua Bernardo José de Lorena, S/N, 1","bairro":"","telefone":"(11) 3915-8710 / (11) 3915-8779","id_fonte":"equipamento_cultura_bibliotecas.40066","id":"bibliotecas-40066"}},{"type":"Feature","geometry":{"type":"Point","coordinates":[-46.750428,-23.437069]},"properties":{"nome":"Biblioteca CEU Pêra-Marmelo - Educador Paulo Freire","endereco":"Rua Pêra Marmelo, 226","bairro":"","telefone":"(11) 3948-3900","id_fonte":"equipamento_cultura_bibliotecas.40065","id":"bibliotecas-40065"}},{"type":"Feature","geometry":{"type":"Point","coordinates":[-46.496531,-23.498525]},"properties":{"nome":"Biblioteca CEU Quinta do Sol","endereco":"Avenida Luiz Imparato, 564","bairro":"","telefone":"(11) 3396-8591","id_fonte":"equipamento_cultura_bibliotecas.40067","id":"bibliotecas-40067"}},{"type":"Feature","geometry":{"type":"Point","coordinates":[-46.500785,-23.621453]},"properties":{"nome":"Biblioteca CEU Rosa da China - Juó Bananére","endereco":"Rua Clara Petrela, 113","bairro":"","telefone":"(11) 2701-2318 / (11) 2701-2315","id_fonte":"equipamento_cultura_bibliotecas.40068","id":"bibliotecas-40068"}},{"type":"Feature","geometry":{"type":"Point","coordinates":[-46.449538,-23.602487]},"properties":{"nome":"Biblioteca CEU São Mateus - Camilo Pedro dos Reis","endereco":"Rua Curumatim, 201","bairro":"","telefone":"(11) 2732-8117","id_fonte":"equipamento_cultura_bibliotecas.40069","id":"bibliotecas-40069"}},{"type":"Feature","geometry":{"type":"Point","coordinates":[-46.456396,-23.620295]},"properties":{"nome":"Biblioteca CEU São Rafael - Mário Palmério","endereco":"Rua Cinira, Polônio, 100","bairro":"","telefone":"(11) 2752-1043","id_fonte":"equipamento_cultura_bibliotecas.40070","id":"bibliotecas-40070"}},{"type":"Feature","geometry":{"type":"Point","coordinates":[-46.382043,-23.478371]},"properties":{"nome":"Biblioteca CEU Três Pontes","endereco":"Rua Capachós, 400","bairro":"","telefone":"(11) 3397-6432","id_fonte":"equipamento_cultura_bibliotecas.40071","id":"bibliotecas-40071"}},{"type":"Feature","geometry":{"type":"Point","coordinates":[-46.762614,-23.481919]},"properties":{"nome":"Biblioteca CEU Vila Atlântica - Maria Benedita Câmara Bormann","endereco":"Rua Coronel José Venâncio Dias, 840","bairro":"","telefone":"(11) 3901-8719","id_fonte":"equipamento_cultura_bibliotecas.40072","id":"bibliotecas-40072"}},{"type":"Feature","geometry":{"type":"Point","coordinates":[-46.697216,-23.727846]},"properties":{"nome":"Biblioteca CEU Vila Rubi - José Eurícledes Ferreira","endereco":"Rua Domingos Tarroso, 101","bairro":"","telefone":"(11) 5662-9411","id_fonte":"equipamento_cultura_bibliotecas.40074","id":"bibliotecas-40074"}},{"type":"Feature","geometry":{"type":"Point","coordinates":[-46.780574,-23.737907]},"properties":{"nome":"Biblioteca CEU Vila do Sol - Dona Maria dos Anjos","endereco":"Av. dos Funcionários Públicos, 369","bairro":"","telefone":"(11) 3397-9850","id_fonte":"equipamento_cultura_bibliotecas.40073","id":"bibliotecas-40073"}},{"type":"Feature","geometry":{"type":"Point","coordinates":[-46.406478,-23.593945]},"properties":{"nome":"Biblioteca CEU Água Azul","endereco":"Avenida dos Metalúrgicos, 1262","bairro":"","telefone":"(11) 3396-3535","id_fonte":"equipamento_cultura_bibliotecas.40049","id":"bibliotecas-40049"}},{"type":"Feature","geometry":{"type":"Point","coordinates":[-46.738013,-23.575821]},"properties":{"nome":"Biblioteca Camila Cerqueira César","endereco":"Rua Valdemar Sanches, 41","bairro":"","telefone":"(11) 3731-5210","id_fonte":"equipamento_cultura_bibliotecas.40020","id":"bibliotecas-40020"}},{"type":"Feature","geometry":{"type":"Point","coordinates":[-46.571985,-23.536187]},"properties":{"nome":"Biblioteca Cassiano Ricardo","endereco":"Avenida Celso Garcia, 4200","bairro":"","telefone":"(11) 2092-4570 / (11) 2942-9952","id_fonte":"equipamento_cultura_bibliotecas.40022","id":"bibliotecas-40022"}},{"type":"Feature","geometry":{"type":"Point","coordinates":[-46.590308,-23.631153]},"properties":{"nome":"Biblioteca Castro Alves","endereco":"Rua Abrahão Mussa, s/n","bairro":"","telefone":"(11) 2946-4562","id_fonte":"equipamento_cultura_bibliotecas.40042","id":"bibliotecas-40042"}},{"type":"Feature","geometry":{"type":"Point","coordinates":[-46.688755,-23.448154]},"properties":{"nome":"Biblioteca Ceu Paz - Augusto dos Anjos","endereco":"Rua Daniel Cerri, 1549","bairro":"","telefone":"(11) 3986-3436 / (11) 3986-3404","id_fonte":"equipamento_cultura_bibliotecas.40064","id":"bibliotecas-40064"}},{"type":"Feature","geometry":{"type":"Point","coordinates":[-46.623506,-23.583342]},"properties":{"nome":"Biblioteca Chácara do Castelo (fechado temporariamente)","endereco":"Rua Brás Lourenço, 333","bairro":"","telefone":"(11) 5573-4929","id_fonte":"equipamento_cultura_bibliotecas.40017","id":"bibliotecas-40017"}},{"type":"Feature","geometry":{"type":"Point","coordinates":[-46.701339,-23.535239]},"properties":{"nome":"Biblioteca Clarice Lispector","endereco":"Rua Jaricunas, 458","bairro":"","telefone":"(11) 3672-1423","id_fonte":"equipamento_cultura_bibliotecas.40028","id":"bibliotecas-40028"}},{"type":"Feature","geometry":{"type":"Point","coordinates":[-46.716189,-23.851147]},"properties":{"nome":"Biblioteca Comunitária Caminhos da Leitura - BCCL","endereco":"Rua Ricardo vinis, 254","bairro":"","telefone":"(11) 94367-3882","id_fonte":"equipamento_cultura_bibliotecas.40075","id":"bibliotecas-40075"}},{"type":"Feature","geometry":{"type":"Point","coordinates":[-46.754869,-23.630728]},"properties":{"nome":"Biblioteca Comunitária Djeanne Firmino","endereco":"Rua Carandazinho, 50","bairro":"","telefone":"(11) 95843-7623","id_fonte":"equipamento_cultura_bibliotecas.40076","id":"bibliotecas-40076"}},{"type":"Feature","geometry":{"type":"Point","coordinates":[-46.795971,-23.68373]},"properties":{"nome":"Biblioteca Comunitária Espaço Jovem Alexandre Araujo Chaves - EJAAC","endereco":"Rua José Tartini, 34","bairro":"","telefone":"(11) 5874-2422","id_fonte":"equipamento_cultura_bibliotecas.40077","id":"bibliotecas-40077"}},{"type":"Feature","geometry":{"type":"Point","coordinates":[-46.638042,-23.686788]},"properties":{"nome":"Biblioteca Comunitária JAMAC","endereco":"Rua Maria Balades Correa, 8","bairro":"","telefone":"(11) 5626-9720","id_fonte":"equipamento_cultura_bibliotecas.40078","id":"bibliotecas-40078"}},{"type":"Feature","geometry":{"type":"Point","coordinates":[-46.409803,-23.544561]},"properties":{"nome":"Biblioteca Cora Coralina","endereco":"Rua Otelo Augusto Ribeiro, 113","bairro":"","telefone":"(11) 2557-8004","id_fonte":"equipamento_cultura_bibliotecas.40004","id":"bibliotecas-40004"}},{"type":"Feature","geometry":{"type":"Point","coordinates":[-46.554026,-23.513149]},"properties":{"nome":"Biblioteca Doutor Dirceu de Paula Brasil CEU Tiquatira","endereco":"Av. Condessa Elizabeth de Robiano, S/N, 5280","bairro":"","telefone":"(11) 2075-7460","id_fonte":"equipamento_cultura_bibliotecas.40088","id":"bibliotecas-40088"}},{"type":"Feature","geometry":{"type":"Point","coordinates":[-46.648136,-23.530976]},"properties":{"nome":"Biblioteca ETEC Doutora Maria Augusta Saraiva","endereco":"Rua Guaianazes, 1385","bairro":"","telefone":"(11) 3105-7250 / (11) 3224-3224","id_fonte":"equipamento_cultura_bibliotecas.40100","id":"bibliotecas-40100"}},{"type":"Feature","geometry":{"type":"Point","coordinates":[-46.665486,-23.5243]},"properties":{"nome":"Biblioteca Engenheiro José Hugo Leal Ferreira","endereco":"R. Dr. Bento Teobaldo Ferraz,, 271","bairro":"","telefone":"(11) 3393-7800","id_fonte":"equipamento_cultura_bibliotecas.40091","id":"bibliotecas-40091"}},{"type":"Feature","geometry":{"type":"Point","coordinates":[-46.675103,-23.453173]},"properties":{"nome":"Biblioteca Fabrica de Cultura Brasilândia","endereco":"Av. General Penha Brasil, 2508","bairro":"","telefone":"(11) 3859-2300","id_fonte":"equipamento_cultura_bibliotecas.40092","id":"bibliotecas-40092"}},{"type":"Feature","geometry":{"type":"Point","coordinates":[-46.729064,-23.664655]},"properties":{"nome":"Biblioteca Fatec Zona Sul","endereco":"Rua Frederico Grotte, 322","bairro":"","telefone":"(11) 5851-8949","id_fonte":"equipamento_cultura_bibliotecas.40094","id":"bibliotecas-40094"}},{"type":"Feature","geometry":{"type":"Point","coordinates":[-46.577648,-23.450399]},"properties":{"nome":"Biblioteca Fábrica de Cultura Jaçanã","endereco":"Rua Raimundo Eduardo da Silva, 138","bairro":"","telefone":"(11) 2249-8010","id_fonte":"equipamento_cultura_bibliotecas.40093","id":"bibliotecas-40093"}},{"type":"Feature","geometry":{"type":"Point","coordinates":[-46.650524,-23.475248]},"properties":{"nome":"Biblioteca Fábrica de Cultura Vila Nova Cachoeirinha","endereco":"Rua Franklin do Amaral, 1575","bairro":"","telefone":"(11) 2233-9270","id_fonte":"equipamento_cultura_bibliotecas.40116","id":"bibliotecas-40116"}},{"type":"Feature","geometry":{"type":"Point","coordinates":[-46.516953,-23.60156]},"properties":{"nome":"Biblioteca Gilberto Freyre","endereco":"Rua José Joaquim, 290","bairro":"","telefone":"(11) 2143-1811","id_fonte":"equipamento_cultura_bibliotecas.40166","id":"bibliotecas-40166"}},{"type":"Feature","geometry":{"type":"Point","coordinates":[-46.572465,-23.536236]},"properties":{"nome":"Biblioteca Hans Christian Andersen","endereco":"Avenida Celso Garcia, 4142","bairro":"","telefone":"(11) 2295-3447 / (11) 2227-2453","id_fonte":"equipamento_cultura_bibliotecas.40021","id":"bibliotecas-40021"}},{"type":"Feature","geometry":{"type":"Point","coordinates":[-46.774249,-23.632929]},"properties":{"nome":"Biblioteca Helena Silveira","endereco":"Rua José Viriato de Castro, 78","bairro":"","telefone":"(11) 5841-1259","id_fonte":"equipamento_cultura_bibliotecas.40035","id":"bibliotecas-40035"}},{"type":"Feature","geometry":{"type":"Point","coordinates":[-46.398061,-23.535118]},"properties":{"nome":"Biblioteca Jamil Almansur Haddad","endereco":"Rua Andes, 491-A","bairro":"","telefone":"(11) 2557-0067","id_fonte":"equipamento_cultura_bibliotecas.40029","id":"bibliotecas-40029"}},{"type":"Feature","geometry":{"type":"Point","coordinates":[-46.669881,-23.47582]},"properties":{"nome":"Biblioteca Jayme Cortez","endereco":"Avenida Deputado Emílio Carlos, 3641","bairro":"","telefone":"(11) 3343-8999 ramal 8959","id_fonte":"equipamento_cultura_bibliotecas.40018","id":"bibliotecas-40018"}},{"type":"Feature","geometry":{"type":"Point","coordinates":[-46.564653,-23.477215]},"properties":{"nome":"Biblioteca José Mauro de Vasconcelos","endereco":"Pça. Com. Eduardo Oliveira, 100","bairro":"","telefone":"(11) 2242-8196","id_fonte":"equipamento_cultura_bibliotecas.40144","id":"bibliotecas-40144"}},{"type":"Feature","geometry":{"type":"Point","coordinates":[-46.630383,-23.530446]},"properties":{"nome":"Biblioteca José Mindlin (Museu de Arte Sacra)","endereco":"Av. Tiradentes, 676","bairro":"","telefone":"(11) 3326-3336","id_fonte":"equipamento_cultura_bibliotecas.40117","id":"bibliotecas-40117"}},{"type":"Feature","geometry":{"type":"Point","coordinates":[-46.548454,-23.525841]},"properties":{"nome":"Biblioteca José Paulo Paes","endereco":"Largo do Rosário, 20","bairro":"","telefone":"(11) 2295-0401 / (11) 2295-9624","id_fonte":"equipamento_cultura_bibliotecas.40159","id":"bibliotecas-40159"}},{"type":"Feature","geometry":{"type":"Point","coordinates":[-46.484849,-23.546478]},"properties":{"nome":"Biblioteca Jovina Rocha Álvares Pessoa","endereco":"Avenida Pe. Francisco de Toledo, 331","bairro":"","telefone":"(11) 2741-7371 / (11) 2741-0371","id_fonte":"equipamento_cultura_bibliotecas.40016","id":"bibliotecas-40016"}},{"type":"Feature","geometry":{"type":"Point","coordinates":[-46.78047,-23.637909]},"properties":{"nome":"Biblioteca João do Rio","endereco":"Avenida Carlos Lacerda, 678","bairro":"","telefone":"(11) 5843-4825","id_fonte":"equipamento_cultura_bibliotecas.40096","id":"bibliotecas-40096"}},{"type":"Feature","geometry":{"type":"Point","coordinates":[-46.665216,-23.527713]},"properties":{"nome":"Biblioteca Latino-Americana Victor Civita (Memorial da América Latina)","endereco":"Av. Mário de Andrade, 664","bairro":"","telefone":"(11) 3823-4729 / (11) 3823-4732","id_fonte":"equipamento_cultura_bibliotecas.40118","id":"bibliotecas-40118"}},{"type":"Feature","geometry":{"type":"Point","coordinates":[-46.531873,-23.546897]},"properties":{"nome":"Biblioteca Lenyra Fraccaroli","endereco":"Praça Haroldo Daltro, 451","bairro":"","telefone":"(11) 2295-2295","id_fonte":"equipamento_cultura_bibliotecas.40027","id":"bibliotecas-40027"}},{"type":"Feature","geometry":{"type":"Point","coordinates":[-46.574791,-23.518018]},"properties":{"nome":"Biblioteca Leônidas da Silva - CEU Parque Novo Mundo","endereco":"Av. Ernesto Augusto Lopes, 100","bairro":"","telefone":"(11) 3928-1317 / (11) 5990-3373","id_fonte":"equipamento_cultura_bibliotecas.40097","id":"bibliotecas-40097"}},{"type":"Feature","geometry":{"type":"Point","coordinates":[-46.732191,-23.438244]},"properties":{"nome":"Biblioteca Luis Gama - CEU Pinheirinho","endereco":"Rua Camillo Zanotti, 92","bairro":"","telefone":"(11) 5990-3371","id_fonte":"equipamento_cultura_bibliotecas.40098","id":"bibliotecas-40098"}},{"type":"Feature","geometry":{"type":"Point","coordinates":[-46.709313,-23.689498]},"properties":{"nome":"Biblioteca Malba Tahan","endereco":"Rua Brás Pires Meira, 100","bairro":"","telefone":"(11) 5523-4556","id_fonte":"equipamento_cultura_bibliotecas.40001","id":"bibliotecas-40001"}},{"type":"Feature","geometry":{"type":"Point","coordinates":[-46.757324,-23.617747]},"properties":{"nome":"Biblioteca Marcos Rey","endereco":"Avenida Anacê, 92","bairro":"","telefone":"(11) 5845-2572","id_fonte":"equipamento_cultura_bibliotecas.40037","id":"bibliotecas-40037"}},{"type":"Feature","geometry":{"type":"Point","coordinates":[-46.390143,-23.580487]},"properties":{"nome":"Biblioteca Maria Firmina dos Reis (fechado temporariamente)","endereco":"R. Inácio Monteiro, 6900","bairro":"","telefone":"(11) 3343-8911","id_fonte":"equipamento_cultura_bibliotecas.40181","id":"bibliotecas-40181"}},{"type":"Feature","geometry":{"type":"Point","coordinates":[-46.596648,-23.450145]},"properties":{"nome":"Biblioteca Maria Firmino dos Reis - CEU Tremembé","endereco":"Rua Adauto Bezerra Delgado, 94","bairro":"","telefone":"(11) 2204-3764","id_fonte":"equipamento_cultura_bibliotecas.40099","id":"bibliotecas-40099"}},{"type":"Feature","geometry":{"type":"Point","coordinates":[-46.639188,-23.535388]},"properties":{"nome":"Biblioteca Mario Casali","endereco":"Largo General Osorio, 147","bairro":"","telefone":"(11) 3585-9888","id_fonte":"equipamento_cultura_bibliotecas.40119","id":"bibliotecas-40119"}},{"type":"Feature","geometry":{"type":"Point","coordinates":[-46.673139,-23.497001]},"properties":{"nome":"Biblioteca Menotti Del Picchia","endereco":"Rua São Romualdo, 382","bairro":"","telefone":"(11) 3966-4814 / (11) 3956-5070","id_fonte":"equipamento_cultura_bibliotecas.40019","id":"bibliotecas-40019"}},{"type":"Feature","geometry":{"type":"Point","coordinates":[-46.503647,-23.56819]},"properties":{"nome":"Biblioteca Milton Santos (fechado temporariamente)","endereco":"Avenida Aricanduva, 5777","bairro":"","telefone":"(11) 2726-4882","id_fonte":"equipamento_cultura_bibliotecas.40180","id":"bibliotecas-40180"}},{"type":"Feature","geometry":{"type":"Point","coordinates":[-46.649225,-23.545009]},"properties":{"nome":"Biblioteca Monteiro Lobato","endereco":"Rua General Jardim, 485","bairro":"","telefone":"(11) 3256-4122","id_fonte":"equipamento_cultura_bibliotecas.40174","id":"bibliotecas-40174"}},{"type":"Feature","geometry":{"type":"Point","coordinates":[-46.700385,-23.526463]},"properties":{"nome":"Biblioteca Mário Schenberg","endereco":"Rua Catão, 611","bairro":"","telefone":"(11) 3672-0456 / (11) 3675-1681","id_fonte":"equipamento_cultura_bibliotecas.40032","id":"bibliotecas-40032"}},{"type":"Feature","geometry":{"type":"Point","coordinates":[-46.642048,-23.547272]},"properties":{"nome":"Biblioteca Mário de Andrade","endereco":"Rua da Consolação, 94","bairro":"","telefone":"(11) 3150-9457 / (11) 3154-2240","id_fonte":"equipamento_cultura_bibliotecas.40038","id":"bibliotecas-40038"}},{"type":"Feature","geometry":{"type":"Point","coordinates":[-46.627398,-23.496808]},"properties":{"nome":"Biblioteca Narbal Fontes","endereco":"Rua Cons. Moreira de Barros, 170","bairro":"","telefone":"(11) 2973-4461","id_fonte":"equipamento_cultura_bibliotecas.40010","id":"bibliotecas-40010"}},{"type":"Feature","geometry":{"type":"Point","coordinates":[-46.619282,-23.498618]},"properties":{"nome":"Biblioteca Nuto Sant’Anna","endereco":"Praça Tenório de Aguiar, 32","bairro":"","telefone":"(11) 2973-0072","id_fonte":"equipamento_cultura_bibliotecas.40015","id":"bibliotecas-40015"}},{"type":"Feature","geometry":{"type":"Point","coordinates":[-46.754825,-23.407177]},"properties":{"nome":"Biblioteca Padre José de Anchieta","endereco":"Rua Antônio Maia, 651","bairro":"","telefone":"(11) 3917-0751","id_fonte":"equipamento_cultura_bibliotecas.40033","id":"bibliotecas-40033"}},{"type":"Feature","geometry":{"type":"Point","coordinates":[-46.644925,-23.650923]},"properties":{"nome":"Biblioteca Paulo Duarte","endereco":"Rua Arsênio Tavolieri, 45","bairro":"","telefone":"(11) 5011-8819 / (11) 5011-7445","id_fonte":"equipamento_cultura_bibliotecas.40025","id":"bibliotecas-40025"}},{"type":"Feature","geometry":{"type":"Point","coordinates":[-46.655833,-23.587707]},"properties":{"nome":"Biblioteca Paulo Mendes de Almeida","endereco":"Av. Pedro Álvares Cabral, 0","bairro":"","telefone":"(11) 5085-1300","id_fonte":"equipamento_cultura_bibliotecas.40101","id":"bibliotecas-40101"}},{"type":"Feature","geometry":{"type":"Point","coordinates":[-46.548454,-23.525841]},"properties":{"nome":"Biblioteca Paulo Paes","endereco":"Largo do Rosário, 20","bairro":"","telefone":"(11) 2227-1170 / (11) 2091-3944","id_fonte":"equipamento_cultura_bibliotecas.40120","id":"bibliotecas-40120"}},{"type":"Feature","geometry":{"type":"Point","coordinates":[-46.540303,-23.571734]},"properties":{"nome":"Biblioteca Paulo Setúbal (fechado temporariamente)","endereco":"Avenida Renata, 163","bairro":"","telefone":"(11) 2211-1508 / (11) 2211-1507","id_fonte":"equipamento_cultura_bibliotecas.40009","id":"bibliotecas-40009"}},{"type":"Feature","geometry":{"type":"Point","coordinates":[-46.572768,-23.552716]},"properties":{"nome":"Biblioteca Paulo Sérgio Duarte Milliet","endereco":"Praça Ituzaingó, s/n","bairro":"","telefone":"(11) 2671-4974","id_fonte":"equipamento_cultura_bibliotecas.40039","id":"bibliotecas-40039"}},{"type":"Feature","geometry":{"type":"Point","coordinates":[-46.629068,-23.48663]},"properties":{"nome":"Biblioteca Pedro Celestino - ETEC Mandaqui","endereco":"Rua Dr. Luis Lustosa da Silva, 303","bairro":"","telefone":"(11) 2973-8755","id_fonte":"equipamento_cultura_bibliotecas.40102","id":"bibliotecas-40102"}},{"type":"Feature","geometry":{"type":"Point","coordinates":[-46.632394,-23.482236]},"properties":{"nome":"Biblioteca Pedro Nava","endereco":"Rua Helena do Sacramento, 1000","bairro":"","telefone":"(11) 2973-7293 / (11) 2950-3598","id_fonte":"equipamento_cultura_bibliotecas.40002","id":"bibliotecas-40002"}},{"type":"Feature","geometry":{"type":"Point","coordinates":[-46.708762,-23.645025]},"properties":{"nome":"Biblioteca Prefeito Prestes Maia","endereco":"Avenida João Dias, 822","bairro":"","telefone":"(11) 5687-0513 / (11) 5523-8418","id_fonte":"equipamento_cultura_bibliotecas.40184","id":"bibliotecas-40184"}},{"type":"Feature","geometry":{"type":"Point","coordinates":[-46.580336,-23.539424]},"properties":{"nome":"Biblioteca Prof. Arnaldo Magalhães Giácomo","endereco":"Rua Restinga, 136","bairro":"","telefone":"(11) 2295-0785 / (11) 2092-0108","id_fonte":"equipamento_cultura_bibliotecas.40155","id":"bibliotecas-40155"}},{"type":"Feature","geometry":{"type":"Point","coordinates":[-46.666459,-23.524104]},"properties":{"nome":"Biblioteca Prof. José de Arruda Penteado - Biblioteca do Instituto de Artes - Unesp","endereco":"Rua: Dr. Bento Theobaldo Ferraz, 271","bairro":"","telefone":"(11) 3393-8666","id_fonte":"equipamento_cultura_bibliotecas.40103","id":"bibliotecas-40103"}},{"type":"Feature","geometry":{"type":"Point","coordinates":[-46.580336,-23.539424]},"properties":{"nome":"Biblioteca Professor Arnaldo Magalhães de giácomo","endereco":"Rua Restinga, 136","bairro":"","telefone":"(11) 98985-9623 / (11) 98985-9623","id_fonte":"equipamento_cultura_bibliotecas.40121","id":"bibliotecas-40121"}},{"type":"Feature","geometry":{"type":"Point","coordinates":[-46.714591,-23.44826]},"properties":{"nome":"Biblioteca Profª Maria Beatriz do Nascimento - CEU Taipas","endereco":"R. João Amado Coutinho, 240","bairro":"","telefone":"(11) 5090-3370","id_fonte":"equipamento_cultura_bibliotecas.40104","id":"bibliotecas-40104"}},{"type":"Feature","geometry":{"type":"Point","coordinates":[-46.56613,-23.585059]},"properties":{"nome":"Biblioteca Profª Virginia Leone Bicudo - CEU Vila Alpina","endereco":"Rua João Pedro Lecor, 144","bairro":"","telefone":"(11) 2024-6230","id_fonte":"equipamento_cultura_bibliotecas.40105","id":"bibliotecas-40105"}},{"type":"Feature","geometry":{"type":"Point","coordinates":[-46.640274,-23.571262]},"properties":{"nome":"Biblioteca Pública Municipal Louis Braille","endereco":"Rua Vergueiro, 1000","bairro":"","telefone":"(11) 3397-4001 / (11) 3397-4002","id_fonte":"equipamento_cultura_bibliotecas.40146","id":"bibliotecas-40146"}},{"type":"Feature","geometry":{"type":"Point","coordinates":[-46.640274,-23.571262]},"properties":{"nome":"Biblioteca Pública Municipal Sérgio Milliet","endereco":"Rua Vergueiro, 1000","bairro":"","telefone":"(11) 3397-4001 / (11) 3397-4002","id_fonte":"equipamento_cultura_bibliotecas.40147","id":"bibliotecas-40147"}},{"type":"Feature","geometry":{"type":"Point","coordinates":[-46.440573,-23.499311]},"properties":{"nome":"Biblioteca Raimundo de Menezes","endereco":"Avenida Nordestina, 780","bairro":"","telefone":"(11) 2297-4053","id_fonte":"equipamento_cultura_bibliotecas.40183","id":"bibliotecas-40183"}},{"type":"Feature","geometry":{"type":"Point","coordinates":[-46.628378,-23.571944]},"properties":{"nome":"Biblioteca Raul Bopp","endereco":"Rua Muniz de Souza, 1155","bairro":"","telefone":"(11) 3208-1895","id_fonte":"equipamento_cultura_bibliotecas.40005","id":"bibliotecas-40005"}},{"type":"Feature","geometry":{"type":"Point","coordinates":[-46.583197,-23.581971]},"properties":{"nome":"Biblioteca Ricardo Ramos","endereco":"Praça do Centenário de Vila Prudente, 25","bairro":"","telefone":"(11) 2273-4860","id_fonte":"equipamento_cultura_bibliotecas.40013","id":"bibliotecas-40013"}},{"type":"Feature","geometry":{"type":"Point","coordinates":[-46.602396,-23.587606]},"properties":{"nome":"Biblioteca Roberto Santos","endereco":"Rua Cisplatina, 505","bairro":"","telefone":"(11) 2273-2390 / (11) 2063-0901","id_fonte":"equipamento_cultura_bibliotecas.40030","id":"bibliotecas-40030"}},{"type":"Feature","geometry":{"type":"Point","coordinates":[-46.480321,-23.487233]},"properties":{"nome":"Biblioteca Rubens Borba Alves de Moraes","endereco":"R. Sampei Sato, 440","bairro":"","telefone":"(11) 2943-5255","id_fonte":"equipamento_cultura_bibliotecas.40171","id":"bibliotecas-40171"}},{"type":"Feature","geometry":{"type":"Point","coordinates":[-46.589217,-23.56482]},"properties":{"nome":"Biblioteca Sabesp","endereco":"Av. Do Estado, 561","bairro":"","telefone":"(11) 3388-7352","id_fonte":"equipamento_cultura_bibliotecas.40106","id":"bibliotecas-40106"}},{"type":"Feature","geometry":{"type":"Point","coordinates":[-46.60436,-23.481292]},"properties":{"nome":"Biblioteca Sylvia Orthof","endereco":"Avenida Tucuruvi, 808","bairro":"","telefone":"(11) 2981-6263 / (11) 2981-6264","id_fonte":"equipamento_cultura_bibliotecas.40036","id":"bibliotecas-40036"}},{"type":"Feature","geometry":{"type":"Point","coordinates":[-46.454352,-23.536931]},"properties":{"nome":"Biblioteca Sérgio Buarque de Holanda","endereco":"Rua Vitório Santim, 44","bairro":"","telefone":"(11) 2205-7406","id_fonte":"equipamento_cultura_bibliotecas.40023","id":"bibliotecas-40023"}},{"type":"Feature","geometry":{"type":"Point","coordinates":[-46.700389,-23.486503]},"properties":{"nome":"Biblioteca Thales Castanho de Andrade","endereco":"Rua Dr. Artur Fajardo, 447","bairro":"","telefone":"(11) 3975-7439","id_fonte":"equipamento_cultura_bibliotecas.40024","id":"bibliotecas-40024"}},{"type":"Feature","geometry":{"type":"Point","coordinates":[-46.42048,-23.501841]},"properties":{"nome":"Biblioteca Vicente Paulo Guimarães","endereco":"Rua Jaguar, 225","bairro":"","telefone":"(11) 2035-5322 / (11) 2034-0646","id_fonte":"equipamento_cultura_bibliotecas.40163","id":"bibliotecas-40163"}},{"type":"Feature","geometry":{"type":"Point","coordinates":[-46.440361,-23.550024]},"properties":{"nome":"Biblioteca Vicente de Carvalho (fechado temporariamente)","endereco":"Rua Guilherme Valência, 210","bairro":"","telefone":"(11) 2521-0553","id_fonte":"equipamento_cultura_bibliotecas.40162","id":"bibliotecas-40162"}},{"type":"Feature","geometry":{"type":"Point","coordinates":[-46.435835,-23.553691]},"properties":{"nome":"Biblioteca Vinicius de Moraes","endereco":"Rua Jardim Tamoio, 1119","bairro":"","telefone":"(11) 2521-6914","id_fonte":"equipamento_cultura_bibliotecas.40151","id":"bibliotecas-40151"}},{"type":"Feature","geometry":{"type":"Point","coordinates":[-46.6387,-23.593228]},"properties":{"nome":"Biblioteca Viriato Corrêa","endereco":"Rua Sena Madureira, 298","bairro":"","telefone":"(11) 5573-4017 / (11) 5574-0389","id_fonte":"equipamento_cultura_bibliotecas.40014","id":"bibliotecas-40014"}},{"type":"Feature","geometry":{"type":"Point","coordinates":[-46.757182,-23.688509]},"properties":{"nome":"Biblioteca da ETEC Jardim Ângela","endereco":"Estrada da Baronesa, 1695","bairro":"","telefone":"(11) 5833-0861","id_fonte":"equipamento_cultura_bibliotecas.40079","id":"bibliotecas-40079"}},{"type":"Feature","geometry":{"type":"Point","coordinates":[-46.786838,-23.678548]},"properties":{"nome":"Biblioteca da Fábrica de Cultura Capão Redondo","endereco":"Rua Bacia de São Francisco, s/n, 0","bairro":"","telefone":"(11) 5822-5240","id_fonte":"equipamento_cultura_bibliotecas.40080","id":"bibliotecas-40080"}},{"type":"Feature","geometry":{"type":"Point","coordinates":[-46.750545,-23.661697]},"properties":{"nome":"Biblioteca da Fábrica de Cultura do Jardim São Luís","endereco":"Rua Antônio Ramos Rosa,, 651","bairro":"","telefone":"(11) 5510-5530","id_fonte":"equipamento_cultura_bibliotecas.40081","id":"bibliotecas-40081"}},{"type":"Feature","geometry":{"type":"Point","coordinates":[-46.609911,-23.591236]},"properties":{"nome":"Biblioteca da UNESP Ipiranga (Instituto Confúcio na UNESP e Coordenadoria de Desenvolvimento Profissional e Práticas Pedagógicas - CDeP3","endereco":"Rua Dom Luís Lasanha, 400 - Ipiranga, São Paulo - SP, 04266-030, 400","bairro":"","telefone":"(11) 2066-5952","id_fonte":"equipamento_cultura_bibliotecas.40082","id":"bibliotecas-40082"}},{"type":"Feature","geometry":{"type":"Point","coordinates":[-46.640274,-23.571262]},"properties":{"nome":"Biblioteca de Culturas Surdas","endereco":"Rua Vergueiro, 1000","bairro":"","telefone":"(11) 3397-4001 / (11) 3397-4002","id_fonte":"equipamento_cultura_bibliotecas.40149","id":"bibliotecas-40149"}},{"type":"Feature","geometry":{"type":"Point","coordinates":[-46.790117,-23.60113]},"properties":{"nome":"Biblioteca do CEU Uirapuru","endereco":"Rua Nazir Miguel., 849","bairro":"","telefone":"(11) 3788-7747 / (11) 3788-7746","id_fonte":"equipamento_cultura_bibliotecas.40083","id":"bibliotecas-40083"}},{"type":"Feature","geometry":{"type":"Point","coordinates":[-46.639078,-23.567579]},"properties":{"nome":"Biblioteca do HSPM-SP","endereco":"Rua Castro Alves, 60","bairro":"","telefone":"(11) 3397-7824","id_fonte":"equipamento_cultura_bibliotecas.40043","id":"bibliotecas-40043"}},{"type":"Feature","geometry":{"type":"Point","coordinates":[-46.648472,-23.587501]},"properties":{"nome":"Biblioteca do Instituto Biológico de São Paulo","endereco":"Avenida Conselheiro Rodrigues Alves, 1252","bairro":"","telefone":"(11) 5087-1726 / (11) 5087-1727","id_fonte":"equipamento_cultura_bibliotecas.40084","id":"bibliotecas-40084"}},{"type":"Feature","geometry":{"type":"Point","coordinates":[-46.446224,-23.491851]},"properties":{"nome":"Biblioteca do Instituto Paulista de Geriatria e Gerontologia José Ermírio de Moraes","endereco":"Praça Padre Aleixo Monteiro Mafra, 34","bairro":"","telefone":"(11) 2030-4043 / (11) 98703-9649","id_fonte":"equipamento_cultura_bibliotecas.40085","id":"bibliotecas-40085"}},{"type":"Feature","geometry":{"type":"Point","coordinates":[-46.612257,-23.550187]},"properties":{"nome":"Biblioteca do Museu da Imigração do Estado de São Paulo","endereco":"R. Visc. de Parnaíba, 1316","bairro":"","telefone":"(11) 2692-1866","id_fonte":"equipamento_cultura_bibliotecas.40086","id":"bibliotecas-40086"}},{"type":"Feature","geometry":{"type":"Point","coordinates":[-46.647448,-23.53082]},"properties":{"nome":"Biblioteca do Museu das Favelas - CRIA (Centro de Referência, Pesquisa e Biblioteca das Favelas)","endereco":"Rua Guaianases, 1024","bairro":"","telefone":"(11) 4240-3355","id_fonte":"equipamento_cultura_bibliotecas.40087","id":"bibliotecas-40087"}},{"type":"Feature","geometry":{"type":"Point","coordinates":[-46.633495,-23.532978]},"properties":{"nome":"Biblioteca e Centro de Documentação e Pesquisa (Pinacoteca de São Paulo)","endereco":"Avenida Tiradentes, 273","bairro":"","telefone":"(11) 3324-1000","id_fonte":"equipamento_cultura_bibliotecas.40089","id":"bibliotecas-40089"}},{"type":"Feature","geometry":{"type":"Point","coordinates":[-46.666058,-23.54377]},"properties":{"nome":"Biblioteca e Midiateca do Centro de Referência do Futebol Brasileiro","endereco":"Praça Charles Miller, 0","bairro":"","telefone":"(11) 3664-3853","id_fonte":"equipamento_cultura_bibliotecas.40090","id":"bibliotecas-40090"}},{"type":"Feature","geometry":{"type":"Point","coordinates":[-46.718566,-23.583344]},"properties":{"nome":"Biblioteca feminista do Caxingui - Nisia Floresta","endereco":"Rua Oscar P Coelho, 159","bairro":"","telefone":"(11) 99495-1886","id_fonte":"equipamento_cultura_bibliotecas.40095","id":"bibliotecas-40095"}},{"type":"Feature","geometry":{"type":"Point","coordinates":[-46.592296,-23.503876]},"properties":{"nome":"Biblioteca Álvares de Azevedo","endereco":"Praça Joaquim José da Nova, s/n","bairro":"","telefone":"(11) 2954-2813","id_fonte":"equipamento_cultura_bibliotecas.40040","id":"bibliotecas-40040"}},{"type":"Feature","geometry":{"type":"Point","coordinates":[-46.701513,-23.55767]},"properties":{"nome":"Biblioteca Álvaro Guerra","endereco":"Avenida Pedroso de Moraes, 1919","bairro":"","telefone":"(11) 3031-7784","id_fonte":"equipamento_cultura_bibliotecas.40011","id":"bibliotecas-40011"}},{"type":"Feature","geometry":{"type":"Point","coordinates":[-46.715944,-23.444862]},"properties":{"nome":"Biblioteca Érico Veríssimo","endereco":"Rua Diógenes Dourado, 101","bairro":"","telefone":"(11) 3972-0450","id_fonte":"equipamento_cultura_bibliotecas.40003","id":"bibliotecas-40003"}},{"type":"Feature","geometry":{"type":"Point","coordinates":[-46.586968,-23.533116]},"properties":{"nome":"Bibliotech da Fábrica de Cultura 4.0 Parque Belém","endereco":"Av. Celso Garcia, 2.231","bairro":"","telefone":"(11) 2618-3447 / (11) 3246-4104","id_fonte":"equipamento_cultura_bibliotecas.40107","id":"bibliotecas-40107"}},{"type":"Feature","geometry":{"type":"Point","coordinates":[-46.488081,-23.614828]},"properties":{"nome":"Bibliotech da Fábrica de Cultura 4.0 Sapopemba","endereco":"R. Augustin Luberti, 300","bairro":"","telefone":"(11) 2012-5803 / (11) 2618-3447","id_fonte":"equipamento_cultura_bibliotecas.40108","id":"bibliotecas-40108"}},{"type":"Feature","geometry":{"type":"Point","coordinates":[-46.407554,-23.526118]},"properties":{"nome":"Bibliotech da Fábrica de Cultura 4.0 Vila Curuçá","endereco":"R. Pedra Dourada, 65","bairro":"","telefone":"(11) 2016-3316 / (11) 2618-3447","id_fonte":"equipamento_cultura_bibliotecas.40109","id":"bibliotecas-40109"}},{"type":"Feature","geometry":{"type":"Point","coordinates":[-46.41877,-23.56882]},"properties":{"nome":"Bibliotech da Fábrica de Cultural 4.0 Cidade Tiradentes","endereco":"Rua Henriqueta Noguez Brieba, 281","bairro":"","telefone":"(11) 2618-3447 / (11) 3246-4104","id_fonte":"equipamento_cultura_bibliotecas.40110","id":"bibliotecas-40110"}},{"type":"Feature","geometry":{"type":"Point","coordinates":[-46.371587,-23.502562]},"properties":{"nome":"Bibliotech da Fábrica de Cultural 4.0 Itaim Paulista","endereco":"Rua Estudantes da China, 500","bairro":"","telefone":"(11) 2618-3447 / (11) 3246-4104","id_fonte":"equipamento_cultura_bibliotecas.40111","id":"bibliotecas-40111"}},{"type":"Feature","geometry":{"type":"Point","coordinates":[-46.781387,-23.417001]},"properties":{"nome":"Bosque de leitura Parque Anhanguera (fechado temporariamente)","endereco":"Av Fotunata Tadiello Natucci, 1000","bairro":"","telefone":"(11) 2291-5763","id_fonte":"equipamento_cultura_bibliotecas.40145","id":"bibliotecas-40145"}},{"type":"Feature","geometry":{"type":"Point","coordinates":[-46.559451,-23.556582]},"properties":{"nome":"Bosque de leitura Parque CERET (fechado temporariamente)","endereco":"Rua Canuto Abreu, s/n","bairro":"","telefone":"(11) 2291-5763","id_fonte":"equipamento_cultura_bibliotecas.40192","id":"bibliotecas-40192"}},{"type":"Feature","geometry":{"type":"Point","coordinates":[-46.726877,-23.503298]},"properties":{"nome":"Bosque de leitura Parque Cidade de Toronto (fechado temporariamente)","endereco":"Av Cardeal Mota, 84","bairro":"","telefone":"(11) 2291-5763","id_fonte":"equipamento_cultura_bibliotecas.40185","id":"bibliotecas-40185"}},{"type":"Feature","geometry":{"type":"Point","coordinates":[-46.73152,-23.675648]},"properties":{"nome":"Bosque de leitura Parque Guarapiranga (fechado temporariamente)","endereco":"Av. Guarapiranga, 575","bairro":"","telefone":"(11) 2291-5763","id_fonte":"equipamento_cultura_bibliotecas.40179","id":"bibliotecas-40179"}},{"type":"Feature","geometry":{"type":"Point","coordinates":[-46.662301,-23.591601]},"properties":{"nome":"Bosque de leitura Parque Ibirapuera (fechado temporariamente)","endereco":"Av Quarto Centenário, 1268","bairro":"","telefone":"(11) 2291-5763","id_fonte":"equipamento_cultura_bibliotecas.40153","id":"bibliotecas-40153"}},{"type":"Feature","geometry":{"type":"Point","coordinates":[-46.633891,-23.532723]},"properties":{"nome":"Bosque de leitura Parque Jardim da Luz (fechado temporariamente)","endereco":"R Ribeiro de Lima, 99","bairro":"","telefone":"(11) 2291-5763","id_fonte":"equipamento_cultura_bibliotecas.40188","id":"bibliotecas-40188"}},{"type":"Feature","geometry":{"type":"Point","coordinates":[-46.40547,-23.538222]},"properties":{"nome":"Bosque de leitura Parque Lajeado (fechado temporariamente)","endereco":"R Antônio Thadeu, 74","bairro":"","telefone":"(11) 2291-5763","id_fonte":"equipamento_cultura_bibliotecas.40182","id":"bibliotecas-40182"}},{"type":"Feature","geometry":{"type":"Point","coordinates":[-46.607565,-23.468625]},"properties":{"nome":"Bosque de leitura Parque Lions Club Tucuruvi (fechado temporariamente)","endereco":"R Alcindo Bueno de Assis, 500","bairro":"","telefone":"(11) 2291-5763","id_fonte":"equipamento_cultura_bibliotecas.40175","id":"bibliotecas-40175"}},{"type":"Feature","geometry":{"type":"Point","coordinates":[-46.756372,-23.588244]},"properties":{"nome":"Bosque de leitura Parque Raposo Tavares (fechado temporariamente)","endereco":"R Telmo Coelho Filho, 200","bairro":"","telefone":"(11) 2291-5763","id_fonte":"equipamento_cultura_bibliotecas.40160","id":"bibliotecas-40160"}},{"type":"Feature","geometry":{"type":"Point","coordinates":[-46.719059,-23.481525]},"properties":{"nome":"Bosque de leitura Parque Rodrigo de Gásperi (fechado temporariamente)","endereco":"Av Miguel de Castro, 321","bairro":"","telefone":"(11) 2291-5763","id_fonte":"equipamento_cultura_bibliotecas.40167","id":"bibliotecas-40167"}},{"type":"Feature","geometry":{"type":"Point","coordinates":[-46.774384,-23.659837]},"properties":{"nome":"Bosque de leitura Parque Santo Dias (fechado temporariamente)","endereco":"Estrada de Itapecirica, altura d, 4800","bairro":"","telefone":"(11) 2291-5763","id_fonte":"equipamento_cultura_bibliotecas.40173","id":"bibliotecas-40173"}},{"type":"Feature","geometry":{"type":"Point","coordinates":[-46.470646,-23.570623]},"properties":{"nome":"Bosque de leitura Parque do Carmo (fechado temporariamente)","endereco":"Av Afonso de Sampaio e Souza, 951","bairro":"","telefone":"(11) 2291-5763","id_fonte":"equipamento_cultura_bibliotecas.40187","id":"bibliotecas-40187"}},{"type":"Feature","geometry":{"type":"Point","coordinates":[-46.597984,-23.514998]},"properties":{"nome":"Bosque de leitura Parque do Trote (fechado temporariamente)","endereco":"R São Quirino, 905","bairro":"","telefone":"(11) 2291-5763","id_fonte":"equipamento_cultura_bibliotecas.40186","id":"bibliotecas-40186"}},{"type":"Feature","geometry":{"type":"Point","coordinates":[-46.701733,-23.561792]},"properties":{"nome":"CETESB - Biblioteca Prof. Dr. Lucas Nogueira Garcez","endereco":"Av. Prof. Frederico Hermann Jr., 345","bairro":"","telefone":"(11) 3133-3710 / (11) 3133-3710","id_fonte":"equipamento_cultura_bibliotecas.40123","id":"bibliotecas-40123"}},{"type":"Feature","geometry":{"type":"Point","coordinates":[-46.646628,-23.705984]},"properties":{"nome":"CEU Alvarenga","endereco":"Estrada do alvarenga, 3752","bairro":"","telefone":"(11) 5672-2561 / (11) 5672-2540","id_fonte":"equipamento_cultura_bibliotecas.40140","id":"bibliotecas-40140"}},{"type":"Feature","geometry":{"type":"Point","coordinates":[-46.392115,-23.585536]},"properties":{"nome":"CEU Barro Branco – Enedina Alves Marques","endereco":"Rua Numa Pompilio, s/n","bairro":"","telefone":"(11) 5990-3368","id_fonte":"equipamento_cultura_bibliotecas.40124","id":"bibliotecas-40124"}},{"type":"Feature","geometry":{"type":"Point","coordinates":[-46.636402,-23.667043]},"properties":{"nome":"CEU Caminho do Mar","endereco":"Avenida Engenheiro Armando de Arruda Pereira, 5241","bairro":"","telefone":"(11) 3396-5599 / (11) 3396-5544","id_fonte":"equipamento_cultura_bibliotecas.40125","id":"bibliotecas-40125"}},{"type":"Feature","geometry":{"type":"Point","coordinates":[-46.562033,-23.539583]},"properties":{"nome":"CEU Carrão, Carolina Maria de Jesus","endereco":"Rua Monte Serrat, 233","bairro":"","telefone":"(11) 5990-3364","id_fonte":"equipamento_cultura_bibliotecas.40126","id":"bibliotecas-40126"}},{"type":"Feature","geometry":{"type":"Point","coordinates":[-46.728602,-23.621007]},"properties":{"nome":"CEU Paraisópolis","endereco":"R Jose Augusto de Souza e Silva, 0","bairro":"","telefone":"(11) 3747-1962","id_fonte":"equipamento_cultura_bibliotecas.40127","id":"bibliotecas-40127"}},{"type":"Feature","geometry":{"type":"Point","coordinates":[-46.479177,-23.575338]},"properties":{"nome":"CEU Parque do Carmo – João Cândido (Almirante Negro)","endereco":"Rua Gaspar da Silva, 240","bairro":"","telefone":"(11) 2217-4072","id_fonte":"equipamento_cultura_bibliotecas.40128","id":"bibliotecas-40128"}},{"type":"Feature","geometry":{"type":"Point","coordinates":[-46.429559,-23.499869]},"properties":{"nome":"CEU São Miguel - Luiz Melodia","endereco":"R. José Ferreira Crespo, 471","bairro":"","telefone":"(11) 5990-3367","id_fonte":"equipamento_cultura_bibliotecas.40129","id":"bibliotecas-40129"}},{"type":"Feature","geometry":{"type":"Point","coordinates":[-46.427996,-23.548622]},"properties":{"nome":"CEU São Pedro/José Bonifácio - Francisco José do Nascimento (Dragão do Mar)","endereco":"Rua Professora Lucila Cerqueira, 194","bairro":"","telefone":"(11) 5990-3366","id_fonte":"equipamento_cultura_bibliotecas.40130","id":"bibliotecas-40130"}},{"type":"Feature","geometry":{"type":"Point","coordinates":[-46.411352,-23.495366]},"properties":{"nome":"CEU Vila Curuçá -João Cabral de Melo Neto","endereco":"Av. Marechal Tito, 3452","bairro":"","telefone":"(11) 2563-6135 / (11) 2563-6147","id_fonte":"equipamento_cultura_bibliotecas.40131","id":"bibliotecas-40131"}},{"type":"Feature","geometry":{"type":"Point","coordinates":[-46.659099,-23.583626]},"properties":{"nome":"Carolina Maria de Jesus","endereco":"Av. Perdro Álvares Cabral s/n, 0","bairro":"","telefone":"(11) 3320-8900 / (11) 3003-3200","id_fonte":"equipamento_cultura_bibliotecas.40122","id":"bibliotecas-40122"}},{"type":"Feature","geometry":{"type":"Point","coordinates":[-46.612373,-23.589649]},"properties":{"nome":"ETEC Getúlio Vargas","endereco":"Rua Moreira Costa, 243","bairro":"","telefone":"(11) 2066-2518","id_fonte":"equipamento_cultura_bibliotecas.40133","id":"bibliotecas-40133"}},{"type":"Feature","geometry":{"type":"Point","coordinates":[-46.728429,-23.520632]},"properties":{"nome":"ETEC Professor Basilides de Godoy","endereco":"Rua Guaipá, 678","bairro":"","telefone":"(11) 3831-6034","id_fonte":"equipamento_cultura_bibliotecas.40134","id":"bibliotecas-40134"}},{"type":"Feature","geometry":{"type":"Point","coordinates":[-46.647243,-23.532922]},"properties":{"nome":"ETEC Sebrae","endereco":"Alameda Nothmann, 598","bairro":"","telefone":"(11) 3224-1260","id_fonte":"equipamento_cultura_bibliotecas.40135","id":"bibliotecas-40135"}},{"type":"Feature","geometry":{"type":"Point","coordinates":[-46.624554,-23.507788]},"properties":{"nome":"ETEC de Artes - Biblioteca Rogério Caserta","endereco":"Avenida Cruzeiro do Sul, 2630","bairro":"","telefone":"(11) 2089-8600","id_fonte":"equipamento_cultura_bibliotecas.40132","id":"bibliotecas-40132"}},{"type":"Feature","geometry":{"type":"Point","coordinates":[-46.558516,-23.537315]},"properties":{"nome":"Faculdade de Tecnologia Victor Civita - Fatec tatuapé","endereco":"Rua Antônio de Barros, 800","bairro":"","telefone":"(11) 2093-9053 / (11) 2293-1220","id_fonte":"equipamento_cultura_bibliotecas.40136","id":"bibliotecas-40136"}},{"type":"Feature","geometry":{"type":"Point","coordinates":[-46.640274,-23.571262]},"properties":{"nome":"Gibiteca Henfil","endereco":"Rua Vergueiro, 1000","bairro":"","telefone":"(11) 3397-4001 / (11) 3397-4002","id_fonte":"equipamento_cultura_bibliotecas.40148","id":"bibliotecas-40148"}},{"type":"Feature","geometry":{"type":"Point","coordinates":[-46.64135,-23.547149]},"properties":{"nome":"Hemeroteca Mário de Andrade","endereco":"Rua Bráulio Gomes, 139","bairro":"","telefone":"(11) 3154-2240 / (11) 3154-2222 / (11) 3154-2243","id_fonte":"equipamento_cultura_bibliotecas.40156","id":"bibliotecas-40156"}},{"type":"Feature","geometry":{"type":"Point","coordinates":[-46.640495,-23.5354]},"properties":{"nome":"Mediateca Sala Eleazar de Carvalho (Fundação Osesp)","endereco":"Praça Julio Prestes, 16","bairro":"","telefone":"(11) 3367-9500","id_fonte":"equipamento_cultura_bibliotecas.40137","id":"bibliotecas-40137"}},{"type":"Feature","geometry":{"type":"Point","coordinates":[-46.632785,-23.530006]},"properties":{"nome":"Nelson Alves Vianna","endereco":"Praça Coronel Fernando Prestes, 30","bairro":"","telefone":"(11) 3322-2211","id_fonte":"equipamento_cultura_bibliotecas.40138","id":"bibliotecas-40138"}},{"type":"Feature","geometry":{"type":"Point","coordinates":[-46.626083,-23.707842]},"properties":{"nome":"Poloteca da Associação Lar Maria e Sininha","endereco":"Rua da Saúde, 739","bairro":"","telefone":"(11) 5560-0733","id_fonte":"equipamento_cultura_bibliotecas.40139","id":"bibliotecas-40139"}},{"type":"Feature","geometry":{"type":"Point","coordinates":[-46.402244,-23.599081]},"properties":{"nome":"Ponto de leitura André Vital (fechado temporariamente)","endereco":"Av dos Metalúrgicos, 2255","bairro":"","telefone":"(11) 3396-0000 ramal 24","id_fonte":"equipamento_cultura_bibliotecas.40164","id":"bibliotecas-40164"}},{"type":"Feature","geometry":{"type":"Point","coordinates":[-46.732629,-23.587253]},"properties":{"nome":"Ponto de leitura Butantã (fechado temporariamente)","endereco":"Av. Junta Mizumoto, 13","bairro":"","telefone":"(11) 3397-4515","id_fonte":"equipamento_cultura_bibliotecas.40154","id":"bibliotecas-40154"}},{"type":"Feature","geometry":{"type":"Point","coordinates":[-46.722727,-23.827747]},"properties":{"nome":"Ponto de leitura Carolina Maria de Jesus (fechado temporariamente)","endereco":"Rua Teresinha Prado de Oliveira, 119","bairro":"","telefone":"(11) 5921-3665","id_fonte":"equipamento_cultura_bibliotecas.40152","id":"bibliotecas-40152"}},{"type":"Feature","geometry":{"type":"Point","coordinates":[-46.743834,-23.598647]},"properties":{"nome":"Ponto de leitura Chácara do Jockey","endereco":"Rua Santa Crescência, 323","bairro":"","telefone":"(11) 2291-5763","id_fonte":"equipamento_cultura_bibliotecas.40168","id":"bibliotecas-40168"}},{"type":"Feature","geometry":{"type":"Point","coordinates":[-46.691681,-23.73545]},"properties":{"nome":"Ponto de leitura Graciliano Ramos","endereco":"R Prof. Oscar Barreto Filho, 252","bairro":"","telefone":"(11) 3397-2700","id_fonte":"equipamento_cultura_bibliotecas.40165","id":"bibliotecas-40165"}},{"type":"Feature","geometry":{"type":"Point","coordinates":[-46.448502,-23.488184]},"properties":{"nome":"Ponto de leitura Jardim Lapenna","endereco":"R Serra da Juruoca, s/n","bairro":"","telefone":"(11) 2956-0091","id_fonte":"equipamento_cultura_bibliotecas.40189","id":"bibliotecas-40189"}},{"type":"Feature","geometry":{"type":"Point","coordinates":[-46.407417,-23.564001]},"properties":{"nome":"Ponto de leitura Juscelino Kubitschek (fechado temporariamente)","endereco":"Av. Inácio Monteiro, 55","bairro":"","telefone":"(11) 3396-0000 ramal 24","id_fonte":"equipamento_cultura_bibliotecas.40178","id":"bibliotecas-40178"}},{"type":"Feature","geometry":{"type":"Point","coordinates":[-46.639049,-23.543452]},"properties":{"nome":"Ponto de leitura Olido (fechado temporariamente)","endereco":"Av São João, 473","bairro":"","telefone":"(11) 3397-0158","id_fonte":"equipamento_cultura_bibliotecas.40172","id":"bibliotecas-40172"}},{"type":"Feature","geometry":{"type":"Point","coordinates":[-46.575244,-23.527742]},"properties":{"nome":"Ponto de leitura Parque do Piqueri","endereco":"R Tuiuti, 515","bairro":"","telefone":"(11) 2092-6524","id_fonte":"equipamento_cultura_bibliotecas.40176","id":"bibliotecas-40176"}},{"type":"Feature","geometry":{"type":"Point","coordinates":[-46.40044,-23.574968]},"properties":{"nome":"Ponto de leitura Parque do Rodeio (fechado temporariamente)","endereco":"R Igarapé da Bela Aurora, s/n","bairro":"","telefone":"(11) 2555-4276","id_fonte":"equipamento_cultura_bibliotecas.40191","id":"bibliotecas-40191"}},{"type":"Feature","geometry":{"type":"Point","coordinates":[-46.773039,-23.686867]},"properties":{"nome":"Ponto de leitura Praça do Bambuzal (fechado temporariamente)","endereco":"R da Colônia Nova, s/n","bairro":"","telefone":"(11) 5833-3567","id_fonte":"equipamento_cultura_bibliotecas.40190","id":"bibliotecas-40190"}},{"type":"Feature","geometry":{"type":"Point","coordinates":[-46.396933,-23.497941]},"properties":{"nome":"Ponto de leitura Severino do Ramo (fechado temporariamente)","endereco":"R Barão de Alagoas, 340","bairro":"","telefone":"(11) 2963-2742 / (11) 2568-3329","id_fonte":"equipamento_cultura_bibliotecas.40169","id":"bibliotecas-40169"}},{"type":"Feature","geometry":{"type":"Point","coordinates":[-46.468231,-23.624955]},"properties":{"nome":"Ponto de leitura São Mateus (fechado temporariamente)","endereco":"R. Quaresma Delgado, 354","bairro":"","telefone":"(11) 2019-1718","id_fonte":"equipamento_cultura_bibliotecas.40170","id":"bibliotecas-40170"}},{"type":"Feature","geometry":{"type":"Point","coordinates":[-46.429579,-23.498995]},"properties":{"nome":"Ponto de leitura Tide Setúbal (fechado temporariamente)","endereco":"R Mario Dalari, 170","bairro":"","telefone":"(11) 2297-5969","id_fonte":"equipamento_cultura_bibliotecas.40158","id":"bibliotecas-40158"}},{"type":"Feature","geometry":{"type":"Point","coordinates":[-46.795572,-23.429916]},"properties":{"nome":"Ponto de leitura União dos Moradores do Parque Anhanguera (fechado temporariamente)","endereco":"R Amadeo Caego Monteiro, 209","bairro":"","telefone":"(11) 3911-3394","id_fonte":"equipamento_cultura_bibliotecas.40161","id":"bibliotecas-40161"}},{"type":"Feature","geometry":{"type":"Point","coordinates":[-46.421139,-23.491751]},"properties":{"nome":"Ponto de leitura Vila Mara (fechado temporariamente)","endereco":"R Conceicão do Almeida, 170","bairro":"","telefone":"(11) 2586-2526","id_fonte":"equipamento_cultura_bibliotecas.40157","id":"bibliotecas-40157"}},{"type":"Feature","geometry":{"type":"Point","coordinates":[-46.612927,-23.540248]},"properties":{"nome":"SP Escola de Teatro – Centro de Formação das Artes do Palco","endereco":"Avenida Rangel Pestana, 2401","bairro":"","telefone":"(11) 3121-3200 / (11) 99442-6381","id_fonte":"equipamento_cultura_bibliotecas.40143","id":"bibliotecas-40143"}},{"type":"Feature","geometry":{"type":"Point","coordinates":[-46.730281,-23.560432]},"properties":{"nome":"Serviço Técnico de Biblioteca da FAUUSP","endereco":"Rua do Lago, 876","bairro":"","telefone":"(11) 3091-4558","id_fonte":"equipamento_cultura_bibliotecas.40142","id":"bibliotecas-40142"}},{"type":"Feature","geometry":{"type":"Point","coordinates":[-46.727729,-23.561737]},"properties":{"nome":"Serviço de Biblioteca do Instituto de Geociências da USP","endereco":"Rua do Lago, 562","bairro":"","telefone":"(11) 3091-4140 / (11) 3091-4292","id_fonte":"equipamento_cultura_bibliotecas.40141","id":"bibliotecas-40141"}}]}