{"type":"FeatureCollection","metadata":{"camada":"bom_prato","fonte":"GeoSampa (Prefeitura de São Paulo)","camada_fonte":"geoportal:equipamento_bom_prato","atualizado_em":"2026-10-06","total":22},"features":[{"type":"Feature","geometry":{"type":"Point","coordinates":[-46.773415,-23.659595]},"properties":{"nome":"Bom Prato ","endereco":"Estrada de Itapecerica, 4728","bairro":"","esfera":"Estadual","id_fonte":"equipamento_bom_prato.25052","id":"bom_prato-25052"}},{"type":"Feature","geometry":{"type":"Point","coordinates":[-46.769925,-23.6713]},"properties":{"nome":"Bom Prato ","endereco":"Avenida Atos Tomas Ferraciu, 318","bairro":"","esfera":"Estadual","id_fonte":"equipamento_bom_prato.25053","id":"bom_prato-25053"}},{"type":"Feature","geometry":{"type":"Point","coordinates":[-46.7245,-23.612946]},"properties":{"nome":"Bom Prato ","endereco":"Rua Ernest Renam, 1000","bairro":"","esfera":"Estadual","id_fonte":"equipamento_bom_prato.25054","id":"bom_prato-25054"}},{"type":"Feature","geometry":{"type":"Point","coordinates":[-46.697446,-23.777006]},"properties":{"nome":"Bom Prato ","endereco":"Av. Ogum, 252","bairro":"","esfera":"Estadual","id_fonte":"equipamento_bom_prato.25055","id":"bom_prato-25055"}},{"type":"Feature","geometry":{"type":"Point","coordinates":[-46.698027,-23.711839]},"properties":{"nome":"Bom Prato ","endereco":"Rua Anibal dos Anjos Carvalho, 51","bairro":"","esfera":"Estadual","id_fonte":"equipamento_bom_prato.25056","id":"bom_prato-25056"}},{"type":"Feature","geometry":{"type":"Point","coordinates":[-46.67101,-23.473327]},"properties":{"nome":"Bom Prato ","endereco":"Avenida Deputado Cantidio Sampaio, 140","bairro":"","esfera":"Estadual","id_fonte":"equipamento_bom_prato.25057","id":"bom_prato-25057"}},{"type":"Feature","geometry":{"type":"Point","coordinates":[-46.674001,-23.506745]},"properties":{"nome":"Bom Prato ","endereco":"Avenida Prof. Celestino Bourrol, 779","bairro":"","esfera":"Estadual","id_fonte":"equipamento_bom_prato.25058","id":"bom_prato-25058"}},{"type":"Feature","geometry":{"type":"Point","coordinates":[-46.652734,-23.681475]},"properties":{"nome":"Bom Prato ","endereco":"Avenida Yervant Kissajikian, 3101","bairro":"","esfera":"Estadual","id_fonte":"equipamento_bom_prato.25059","id":"bom_prato-25059"}},{"type":"Feature","geometry":{"type":"Point","coordinates":[-46.691614,-23.472458]},"properties":{"nome":"Bom Prato ","endereco":"Avenida Parapua, 1479","bairro":"","esfera":"Estadual","id_fonte":"equipamento_bom_prato.25061","id":"bom_prato-25061"}},{"type":"Feature","geometry":{"type":"Point","coordinates":[-46.412266,-23.542941]},"properties":{"nome":"Bom Prato ","endereco":"Rua Copenhague, 100","bairro":"","esfera":"Estadual","id_fonte":"equipamento_bom_prato.25062","id":"bom_prato-25062"}},{"type":"Feature","geometry":{"type":"Point","coordinates":[-46.591558,-23.623284]},"properties":{"nome":"Bom Prato ","endereco":"Estrada das Lagrimas, 2608","bairro":"","esfera":"Estadual","id_fonte":"equipamento_bom_prato.25063","id":"bom_prato-25063"}},{"type":"Feature","geometry":{"type":"Point","coordinates":[-46.400184,-23.499469]},"properties":{"nome":"Bom Prato ","endereco":"Rua Alfredo Moreira Pinto, 87","bairro":"","esfera":"Estadual","id_fonte":"equipamento_bom_prato.25064","id":"bom_prato-25064"}},{"type":"Feature","geometry":{"type":"Point","coordinates":[-46.452579,-23.53784]},"properties":{"nome":"Bom Prato ","endereco":"Rua Victorio Santim, 247","bairro":"","esfera":"Estadual","id_fonte":"equipamento_bom_prato.25065","id":"bom_prato-25065"}},{"type":"Feature","geometry":{"type":"Point","coordinates":[-46.706278,-23.522617]},"properties":{"nome":"Bom Prato ","endereco":"Rua Afonso Sardinha, 245","bairro":"","esfera":"Estadual","id_fonte":"equipamento_bom_prato.25066","id":"bom_prato-25066"}},{"type":"Feature","geometry":{"type":"Point","coordinates":[-46.613634,-23.540593]},"properties":{"nome":"Bom Prato ","endereco":"Avenida Rangel Pestana, 2327","bairro":"","esfera":"Estadual","id_fonte":"equipamento_bom_prato.25068","id":"bom_prato-25068"}},{"type":"Feature","geometry":{"type":"Point","coordinates":[-46.75456,-23.406903]},"properties":{"nome":"Bom Prato ","endereco":"Rua Antonio Maia, 652","bairro":"","esfera":"Estadual","id_fonte":"equipamento_bom_prato.25071","id":"bom_prato-25071"}},{"type":"Feature","geometry":{"type":"Point","coordinates":[-46.62533,-23.506565]},"properties":{"nome":"Bom Prato ","endereco":"Rua Alfredo Guedes, 92","bairro":"","esfera":"Estadual","id_fonte":"equipamento_bom_prato.25072","id":"bom_prato-25072"}},{"type":"Feature","geometry":{"type":"Point","coordinates":[-46.611391,-23.47886]},"properties":{"nome":"Bom Prato ","endereco":"Avenida Nova Cantareira, 2099","bairro":"","esfera":"Estadual","id_fonte":"equipamento_bom_prato.25073","id":"bom_prato-25073"}},{"type":"Feature","geometry":{"type":"Point","coordinates":[-46.712209,-23.651838]},"properties":{"nome":"Bom Prato ","endereco":"Avenida Mario Lopes Leao, 685","bairro":"","esfera":"Estadual","id_fonte":"equipamento_bom_prato.25074","id":"bom_prato-25074"}},{"type":"Feature","geometry":{"type":"Point","coordinates":[-46.481354,-23.604403]},"properties":{"nome":"Bom Prato ","endereco":"Avenida Mateo Bei, 2604","bairro":"","esfera":"Estadual","id_fonte":"equipamento_bom_prato.25075","id":"bom_prato-25075"}},{"type":"Feature","geometry":{"type":"Point","coordinates":[-46.438918,-23.491846]},"properties":{"nome":"Bom Prato ","endereco":"Rua Jose Otoni, 256","bairro":"","esfera":"Estadual","id_fonte":"equipamento_bom_prato.25076","id":"bom_prato-25076"}},{"type":"Feature","geometry":{"type":"Point","coordinates":[-46.630604,-23.547982]},"properties":{"nome":"Bom Prato ","endereco":"Rua Vinte e Cinco de Marco, 166","bairro":"","esfera":"Estadual","id_fonte":"equipamento_bom_prato.25078","id":"bom_prato-25078"}}]}