{"type":"FeatureCollection","metadata":{"camada":"centros_esportivos","fonte":"GeoSampa (Prefeitura de São Paulo)","camada_fonte":"geoportal:equipamento_esporte_centro_esportivo","atualizado_em":"2026-10-06","total":46},"features":[{"type":"Feature","geometry":{"type":"Point","coordinates":[-46.628378,-23.571944]},"properties":{"nome":"Centro Esportivo Aclimação - Estádio Municipal Jack Marin","endereco":"Rua Muniz de Souza, 1119","bairro":"","telefone":"","id_fonte":"equipamento_esporte_centro_esportivo.90024","id":"centros_esportivos-90024"}},{"type":"Feature","geometry":{"type":"Point","coordinates":[-46.651518,-23.523517]},"properties":{"nome":"Centro Esportivo Barra Funda - Cee Raul Tabajara","endereco":"Rua Anhanguera, 484","bairro":"","telefone":"","id_fonte":"equipamento_esporte_centro_esportivo.90022","id":"centros_esportivos-90022"}},{"type":"Feature","geometry":{"type":"Point","coordinates":[-46.724012,-23.574832]},"properties":{"nome":"Centro Esportivo Butantã - Cee Solange Nunes Bibas","endereco":"Rua Dr Ernani da Gama Correa, 367","bairro":"","telefone":"","id_fonte":"equipamento_esporte_centro_esportivo.90041","id":"centros_esportivos-90041"}},{"type":"Feature","geometry":{"type":"Point","coordinates":[-46.622414,-23.569915]},"properties":{"nome":"Centro Esportivo Cambuci - Cee Rubens Pecce Lordello","endereco":"Avenida Lins de Vasconcelos, 804","bairro":"","telefone":"","id_fonte":"equipamento_esporte_centro_esportivo.90021","id":"centros_esportivos-90021"}},{"type":"Feature","geometry":{"type":"Point","coordinates":[-46.753838,-23.620048]},"properties":{"nome":"Centro Esportivo Campo Limpo - Mini Balneário Sinésio Rocha","endereco":"Rua Cibauma, 54","bairro":"","telefone":"","id_fonte":"equipamento_esporte_centro_esportivo.90007","id":"centros_esportivos-90007"}},{"type":"Feature","geometry":{"type":"Point","coordinates":[-46.655338,-23.491976]},"properties":{"nome":"Centro Esportivo Casa Verde - Mini Balneário Comandante Garcia D'ávila","endereco":"Rua Armando Coelho e Silva, 775","bairro":"","telefone":"","id_fonte":"equipamento_esporte_centro_esportivo.90016","id":"centros_esportivos-90016"}},{"type":"Feature","geometry":{"type":"Point","coordinates":[-46.693767,-23.483223]},"properties":{"nome":"Centro Esportivo Freguesia do Ó - Cee Aurélio Campos","endereco":"Rua Jacutiba, 167","bairro":"","telefone":"","id_fonte":"equipamento_esporte_centro_esportivo.90018","id":"centros_esportivos-90018"}},{"type":"Feature","geometry":{"type":"Point","coordinates":[-46.655419,-23.597995]},"properties":{"nome":"Centro Esportivo Ibirapuera - Cee Mané Garrincha","endereco":"Rua Pedro de Toledo, 1651","bairro":"","telefone":"","id_fonte":"equipamento_esporte_centro_esportivo.90002","id":"centros_esportivos-90002"}},{"type":"Feature","geometry":{"type":"Point","coordinates":[-46.60536,-23.580395]},"properties":{"nome":"Centro Esportivo Ipiranga - Balneário Carlos Joel Nelli","endereco":"Praca Nami Jafet, 45","bairro":"","telefone":"","id_fonte":"equipamento_esporte_centro_esportivo.90005","id":"centros_esportivos-90005"}},{"type":"Feature","geometry":{"type":"Point","coordinates":[-46.752758,-23.553409]},"properties":{"nome":"Centro Esportivo Jaguaré - Mini Balneário Marechal Espiridião Rosas","endereco":"Rua General Mac Arthur, 1304","bairro":"","telefone":"","id_fonte":"equipamento_esporte_centro_esportivo.90040","id":"centros_esportivos-90040"}},{"type":"Feature","geometry":{"type":"Point","coordinates":[-46.569509,-23.464215]},"properties":{"nome":"Centro Esportivo Jardim Cabuçu - Mini Balneário Irmãos Paolillo","endereco":"Rua General Jeronimo Furtado, 751","bairro":"","telefone":"","id_fonte":"equipamento_esporte_centro_esportivo.90014","id":"centros_esportivos-90014"}},{"type":"Feature","geometry":{"type":"Point","coordinates":[-46.754291,-23.59765]},"properties":{"nome":"Centro Esportivo Jardim Celeste - Balneário Mário Moraes","endereco":"Rua Edward Carmilo, 840","bairro":"","telefone":"","id_fonte":"equipamento_esporte_centro_esportivo.90044","id":"centros_esportivos-90044"}},{"type":"Feature","geometry":{"type":"Point","coordinates":[-46.682181,-23.685966]},"properties":{"nome":"Centro Esportivo Jardim Sabará - Mini Balneário Antonio Carlos de Abreu Sodré","endereco":"Rua Curia, 149","bairro":"","telefone":"","id_fonte":"equipamento_esporte_centro_esportivo.90004","id":"centros_esportivos-90004"}},{"type":"Feature","geometry":{"type":"Point","coordinates":[-46.612803,-23.494804]},"properties":{"nome":"Centro Esportivo Jardim São Paulo - Cee Alfredo Inácio Trindade","endereco":"Rua Viri, 425","bairro":"","telefone":"","id_fonte":"equipamento_esporte_centro_esportivo.90020","id":"centros_esportivos-90020"}},{"type":"Feature","geometry":{"type":"Point","coordinates":[-46.436764,-23.547278]},"properties":{"nome":"Centro Esportivo José Bonifácio - Cel José Bonifácio","endereco":"Rua Ana Perena, 110","bairro":"","telefone":"","id_fonte":"equipamento_esporte_centro_esportivo.90027","id":"centros_esportivos-90027"}},{"type":"Feature","geometry":{"type":"Point","coordinates":[-46.485427,-23.550996]},"properties":{"nome":"Centro Esportivo José de Anchieta - Cel Padre José de Anchieta","endereco":"Rua Jose Balangio, 188","bairro":"","telefone":"","id_fonte":"equipamento_esporte_centro_esportivo.90034","id":"centros_esportivos-90034"}},{"type":"Feature","geometry":{"type":"Point","coordinates":[-46.407275,-23.564019]},"properties":{"nome":"Centro Esportivo Juscelino Kubitschek - Cel Juscelino Kibitschek","endereco":"Rua Inacio Monteiro, 55","bairro":"","telefone":"","id_fonte":"equipamento_esporte_centro_esportivo.90036","id":"centros_esportivos-90036"}},{"type":"Feature","geometry":{"type":"Point","coordinates":[-46.72022,-23.527819]},"properties":{"nome":"Centro Esportivo Lapa - Cee Edson Arantes do Nascimento","endereco":"Rua Belmonte, 957","bairro":"","telefone":"","id_fonte":"equipamento_esporte_centro_esportivo.90043","id":"centros_esportivos-90043"}},{"type":"Feature","geometry":{"type":"Point","coordinates":[-46.63939,-23.469938]},"properties":{"nome":"Centro Esportivo Mandaqui - Mini Balneário Gastão Moutinho","endereco":"Rua Coronel Joao da Silva Feijo, 80","bairro":"","telefone":"","id_fonte":"equipamento_esporte_centro_esportivo.90015","id":"centros_esportivos-90015"}},{"type":"Feature","geometry":{"type":"Point","coordinates":[-46.597215,-23.550303]},"properties":{"nome":"Centro Esportivo Mooca - Cee Salim Farah Maluf","endereco":"Rua Taquari, 635","bairro":"","telefone":"","id_fonte":"equipamento_esporte_centro_esportivo.90033","id":"centros_esportivos-90033"}},{"type":"Feature","geometry":{"type":"Point","coordinates":[-46.770029,-23.74672]},"properties":{"nome":"Centro Esportivo Náutico Guarapiranga","endereco":"Av dos Funcionarios Publicos, 2501","bairro":"","telefone":"","id_fonte":"equipamento_esporte_centro_esportivo.90011","id":"centros_esportivos-90011"}},{"type":"Feature","geometry":{"type":"Point","coordinates":[-46.740631,-23.479017]},"properties":{"nome":"Centro Esportivo Pirituba - Cee Geraldo José de Almeida","endereco":"Av Agenor Couto de Magalhaes, 32","bairro":"","telefone":"","id_fonte":"equipamento_esporte_centro_esportivo.90042","id":"centros_esportivos-90042"}},{"type":"Feature","geometry":{"type":"Point","coordinates":[-46.661518,-23.637917]},"properties":{"nome":"Centro Esportivo Pista de Skate do Parque do Chuvisco","endereco":"Av Dr Lino de Moares Leme, 504","bairro":"","telefone":"","id_fonte":"equipamento_esporte_centro_esportivo.90012","id":"centros_esportivos-90012"}},{"type":"Feature","geometry":{"type":"Point","coordinates":[-46.712352,-23.654817]},"properties":{"nome":"Centro Esportivo Santo Amaro - Cee Joerg Bruder","endereco":"Avenida Padre Jose Maria, 555","bairro":"","telefone":"","id_fonte":"equipamento_esporte_centro_esportivo.90001","id":"centros_esportivos-90001"}},{"type":"Feature","geometry":{"type":"Point","coordinates":[-46.464573,-23.610739]},"properties":{"nome":"Centro Esportivo São Mateus - Mini Balneário José Maria Whitaker","endereco":"Avenida Satelite, 756","bairro":"","telefone":"","id_fonte":"equipamento_esporte_centro_esportivo.90029","id":"centros_esportivos-90029"}},{"type":"Feature","geometry":{"type":"Point","coordinates":[-46.563581,-23.539987]},"properties":{"nome":"Centro Esportivo Tatuapé - Cee Brigadeiro Eduardo Gomes","endereco":"Rua Monte Serrat, 230","bairro":"","telefone":"","id_fonte":"equipamento_esporte_centro_esportivo.90037","id":"centros_esportivos-90037"}},{"type":"Feature","geometry":{"type":"Point","coordinates":[-46.502917,-23.604496]},"properties":{"nome":"Centro Esportivo Teotônio Vilela - Cel Teotônio Vilela","endereco":"Rua Carlo Clausetti, 19","bairro":"","telefone":"","id_fonte":"equipamento_esporte_centro_esportivo.90031","id":"centros_esportivos-90031"}},{"type":"Feature","geometry":{"type":"Point","coordinates":[-46.632134,-23.520518]},"properties":{"nome":"Centro Esportivo Tietê - Centro Esportivo Tietê","endereco":"Avenida Santos Dumont, 843","bairro":"","telefone":"","id_fonte":"equipamento_esporte_centro_esportivo.90025","id":"centros_esportivos-90025"}},{"type":"Feature","geometry":{"type":"Point","coordinates":[-46.527327,-23.51414]},"properties":{"nome":"Centro Esportivo Tiquatira - Cee Luiz Martinez","endereco":"Av Governador Carvalho Pinto, 02","bairro":"","telefone":"","id_fonte":"equipamento_esporte_centro_esportivo.90035","id":"centros_esportivos-90035"}},{"type":"Feature","geometry":{"type":"Point","coordinates":[-46.402244,-23.599081]},"properties":{"nome":"Centro Esportivo Tiradentes - Cel André Vital Ribeiro Soares","endereco":"Avenida dos Metalurgicos, 2255","bairro":"","telefone":"","id_fonte":"equipamento_esporte_centro_esportivo.90030","id":"centros_esportivos-90030"}},{"type":"Feature","geometry":{"type":"Point","coordinates":[-46.697245,-23.475915]},"properties":{"nome":"Centro Esportivo Vila Brasilândia - Cee Oswaldo Brandão","endereco":"Rua Michihisa Murata, 120","bairro":"","telefone":"","id_fonte":"equipamento_esporte_centro_esportivo.90017","id":"centros_esportivos-90017"}},{"type":"Feature","geometry":{"type":"Point","coordinates":[-46.595183,-23.595539]},"properties":{"nome":"Centro Esportivo Vila Carioca - Balneário Princesa Isabel","endereco":"Rua Campante, 100","bairro":"","telefone":"","id_fonte":"equipamento_esporte_centro_esportivo.90008","id":"centros_esportivos-90008"}},{"type":"Feature","geometry":{"type":"Point","coordinates":[-46.419117,-23.498336]},"properties":{"nome":"Centro Esportivo Vila Curuçá - Cee José Ermírio de Moraes","endereco":"Rua Grapira, 537","bairro":"","telefone":"","id_fonte":"equipamento_esporte_centro_esportivo.90032","id":"centros_esportivos-90032"}},{"type":"Feature","geometry":{"type":"Point","coordinates":[-46.637753,-23.640359]},"properties":{"nome":"Centro Esportivo Vila Guarani - Cee Riyuso Ogawa","endereco":"Rua Lussanvira, 178","bairro":"","telefone":"","id_fonte":"equipamento_esporte_centro_esportivo.90009","id":"centros_esportivos-90009"}},{"type":"Feature","geometry":{"type":"Point","coordinates":[-46.59988,-23.507953]},"properties":{"nome":"Centro Esportivo Vila Guilherme - Ginásio Darcy Reis","endereco":"Avenida Guilherme, 1819","bairro":"","telefone":"","id_fonte":"equipamento_esporte_centro_esportivo.90019","id":"centros_esportivos-90019"}},{"type":"Feature","geometry":{"type":"Point","coordinates":[-46.597011,-23.588054]},"properties":{"nome":"Centro Esportivo Vila Independência - Cee Flávio Calabresi Conte","endereco":"Rua das Municipalidades, 10","bairro":"","telefone":"","id_fonte":"equipamento_esporte_centro_esportivo.90003","id":"centros_esportivos-90003"}},{"type":"Feature","geometry":{"type":"Point","coordinates":[-46.532787,-23.548141]},"properties":{"nome":"Centro Esportivo Vila Manchester - Cee Vicente Ítalo Feola","endereco":"Praca Haroldo Daltro, S\\/n","bairro":"","telefone":"","id_fonte":"equipamento_esporte_centro_esportivo.90028","id":"centros_esportivos-90028"}},{"type":"Feature","geometry":{"type":"Point","coordinates":[-46.578838,-23.501287]},"properties":{"nome":"Centro Esportivo Vila Maria - Cee Thomaz Mazzoni","endereco":"Praca Janio da Silva Quadros, 150","bairro":"","telefone":"","id_fonte":"equipamento_esporte_centro_esportivo.90013","id":"centros_esportivos-90013"}},{"type":"Feature","geometry":{"type":"Point","coordinates":[-46.568468,-23.583424]},"properties":{"nome":"Centro Esportivo Vila Prudente/vila Alpina - Cee Arthur Friedenreich","endereco":"Avenida Francisco Falconi, 83","bairro":"","telefone":"","id_fonte":"equipamento_esporte_centro_esportivo.90039","id":"centros_esportivos-90039"}},{"type":"Feature","geometry":{"type":"Point","coordinates":[-46.667487,-23.642242]},"properties":{"nome":"Centro Esportivo Vila Santa Catarina - Balneário Jalisco","endereco":"Rua Rodes, 112","bairro":"","telefone":"","id_fonte":"equipamento_esporte_centro_esportivo.90006","id":"centros_esportivos-90006"}},{"type":"Feature","geometry":{"type":"Point","coordinates":[-46.756412,-23.413099]},"properties":{"nome":"Centro Esportivo e de Lazer Perus - Cel Perus","endereco":"Estrada Sao Paulo,","bairro":"","telefone":"","id_fonte":"equipamento_esporte_centro_esportivo.90045","id":"centros_esportivos-90045"}},{"type":"Feature","geometry":{"type":"Point","coordinates":[-46.557508,-23.559585]},"properties":{"nome":"Centro Esportivo, Recreativo e Educativo do Trabalhador - Ceret","endereco":"Rua Canuto de Abreu, S\\/n","bairro":"","telefone":"","id_fonte":"equipamento_esporte_centro_esportivo.90038","id":"centros_esportivos-90038"}},{"type":"Feature","geometry":{"type":"Point","coordinates":[-46.656269,-23.597951]},"properties":{"nome":"Centro Olímpico de Treinamento e Pesquisa (cotp)","endereco":"Avenida Ibirapuera, 1315","bairro":"","telefone":"","id_fonte":"equipamento_esporte_centro_esportivo.90046","id":"centros_esportivos-90046"}},{"type":"Feature","geometry":{"type":"Point","coordinates":[-46.654506,-23.516822]},"properties":{"nome":"Centro de Esportes Radicais","endereco":"Av Castelo Branco, 5700","bairro":"","telefone":"","id_fonte":"equipamento_esporte_centro_esportivo.90026","id":"centros_esportivos-90026"}},{"type":"Feature","geometry":{"type":"Point","coordinates":[-46.654506,-23.516822]},"properties":{"nome":"Estádio Municipal de Beisebol Bom Retiro - Estádio Municipal Mie Nishi","endereco":"Av Presidente Castelo Branco, 5446","bairro":"","telefone":"","id_fonte":"equipamento_esporte_centro_esportivo.90023","id":"centros_esportivos-90023"}},{"type":"Feature","geometry":{"type":"Point","coordinates":[-46.653028,-23.582581]},"properties":{"nome":"Modelódromo do Ibirapuera","endereco":"Rua Curitiba, 290","bairro":"","telefone":"","id_fonte":"equipamento_esporte_centro_esportivo.90010","id":"centros_esportivos-90010"}}]}