{"type":"FeatureCollection","metadata":{"camada":"ceu","fonte":"GeoSampa (Prefeitura de São Paulo)","camada_fonte":"geoportal:equipamento_educacao_ceu","atualizado_em":"2026-10-06","total":150},"features":[{"type":"Feature","geometry":{"type":"Point","coordinates":[-46.525599,-23.581105]},"properties":{"nome":"CEU CEI Adelaide Teresa Lopes Cimonari Profa","endereco":"Sargento Claudiner Evaristo Dias, 10","bairro":"Parque Santo Antonio","telefone":"20364303","tipo":"CEU CEI","id_fonte":"equipamento_educacao_ceu.55336","id":"ceu-55336"}},{"type":"Feature","geometry":{"type":"Point","coordinates":[-46.406478,-23.593945]},"properties":{"nome":"CEU CEI Agua Azul","endereco":"Dos Metalurgicos, 1262","bairro":"Cidade Tiradentes","telefone":"33966680","tipo":"CEU CEI","id_fonte":"equipamento_educacao_ceu.55015","id":"ceu-55015"}},{"type":"Feature","geometry":{"type":"Point","coordinates":[-46.426949,-23.60998]},"properties":{"nome":"CEU CEI Alto Alegre","endereco":"Bento Guelfi, 1802","bairro":"Jardim da Laranjeira Zona Leste","telefone":"20751030","tipo":"CEU CEI","id_fonte":"equipamento_educacao_ceu.55345","id":"ceu-55345"}},{"type":"Feature","geometry":{"type":"Point","coordinates":[-46.646628,-23.705984]},"properties":{"nome":"CEU CEI Alvarenga","endereco":"Do Alvarenga, 3752","bairro":"Balneario Sao Francisco","telefone":"56722557","tipo":"CEU CEI","id_fonte":"equipamento_educacao_ceu.52516","id":"ceu-52516"}},{"type":"Feature","geometry":{"type":"Point","coordinates":[-46.411431,-23.495363]},"properties":{"nome":"CEU CEI Ana Lucia de Holanda Gamboa Profa","endereco":"Marechal Tito, 3400","bairro":"Itaim Paulista","telefone":"25636123","tipo":"CEU CEI","id_fonte":"equipamento_educacao_ceu.52553","id":"ceu-52553"}},{"type":"Feature","geometry":{"type":"Point","coordinates":[-46.457381,-23.522105]},"properties":{"nome":"CEU CEI Azul da Cor do Mar","endereco":"Ernesto Souza Cruz, 2171","bairro":"Cidade Antonio Estevao de Carvalho","telefone":"33979036","tipo":"CEU CEI","id_fonte":"equipamento_educacao_ceu.55016","id":"ceu-55016"}},{"type":"Feature","geometry":{"type":"Point","coordinates":[-46.389774,-23.513279]},"properties":{"nome":"CEU CEI Benedito Galavote Prof","endereco":"Daniel Muller, 347","bairro":"Chacara Dona Olivia","telefone":"25636216","tipo":"CEU CEI","id_fonte":"equipamento_educacao_ceu.52538","id":"ceu-52538"}},{"type":"Feature","geometry":{"type":"Point","coordinates":[-46.750011,-23.58184]},"properties":{"nome":"CEU CEI Butanta","endereco":"Engenheiro Heitor Antonio Eiras Garcia, 1870","bairro":"Jardim Esmeralda","telefone":"","tipo":"CEU CEI","id_fonte":"equipamento_educacao_ceu.52522","id":"ceu-52522"}},{"type":"Feature","geometry":{"type":"Point","coordinates":[-46.636402,-23.667043]},"properties":{"nome":"CEU CEI Caminho do Mar","endereco":"Engenheiro Armando de Arruda Pereira, 5241","bairro":"Vila do Encontro","telefone":"56246457","tipo":"CEU CEI","id_fonte":"equipamento_educacao_ceu.55281","id":"ceu-55281"}},{"type":"Feature","geometry":{"type":"Point","coordinates":[-46.78047,-23.637909]},"properties":{"nome":"CEU CEI Campo Limpo","endereco":"Carlos Lacerda, 678","bairro":"Pirajussara","telefone":"58434831","tipo":"CEU CEI","id_fonte":"equipamento_educacao_ceu.52572","id":"ceu-52572"}},{"type":"Feature","geometry":{"type":"Point","coordinates":[-46.780407,-23.647089]},"properties":{"nome":"CEU CEI Cantos do Amanhecer","endereco":"Cantos do Amanhecer, S/n","bairro":"Jardim Eledy","telefone":"33979745","tipo":"CEU CEI","id_fonte":"equipamento_educacao_ceu.55222","id":"ceu-55222"}},{"type":"Feature","geometry":{"type":"Point","coordinates":[-46.744318,-23.646285]},"properties":{"nome":"CEU CEI Casa Blanca","endereco":"Joao Damasceno, 85","bairro":"Vila das Belezas","telefone":"55195246","tipo":"CEU CEI","id_fonte":"equipamento_educacao_ceu.52568","id":"ceu-52568"}},{"type":"Feature","geometry":{"type":"Point","coordinates":[-46.704555,-23.710882]},"properties":{"nome":"CEU CEI Cidade Dutra","endereco":"Interlagos, 7350","bairro":"Interlagos","telefone":"56681911","tipo":"CEU CEI","id_fonte":"equipamento_educacao_ceu.52524","id":"ceu-52524"}},{"type":"Feature","geometry":{"type":"Point","coordinates":[-46.503017,-23.570323]},"properties":{"nome":"CEU CEI Dirce Migliaccio","endereco":"Olga Fadel Abarca, S/n","bairro":"Jardim Santa Terezinha Zona Leste","telefone":"27237538","tipo":"CEU CEI","id_fonte":"equipamento_educacao_ceu.52519","id":"ceu-52519"}},{"type":"Feature","geometry":{"type":"Point","coordinates":[-46.771489,-23.674065]},"properties":{"nome":"CEU CEI Elon Macena","endereco":"Daniel Gran, S/n","bairro":"Jardim Modelo","telefone":"58749858","tipo":"CEU CEI","id_fonte":"equipamento_educacao_ceu.55351","id":"ceu-55351"}},{"type":"Feature","geometry":{"type":"Point","coordinates":[-46.424048,-23.538971]},"properties":{"nome":"CEU CEI Evanir Aparecida Hilario Profa","endereco":"Jose Pinheiro Borges, 60","bairro":"Jardim Helena","telefone":"29602012","tipo":"CEU CEI","id_fonte":"equipamento_educacao_ceu.52530","id":"ceu-52530"}},{"type":"Feature","geometry":{"type":"Point","coordinates":[-46.768971,-23.69876]},"properties":{"nome":"CEU CEI Guarapiranga","endereco":"Da Baronesa, 1120","bairro":"Parque Bologne","telefone":"33979671","tipo":"CEU CEI","id_fonte":"equipamento_educacao_ceu.55225","id":"ceu-55225"}},{"type":"Feature","geometry":{"type":"Point","coordinates":[-46.583937,-23.457117]},"properties":{"nome":"CEU CEI Jacana","endereco":"Francisca Esposito Tonetti, S/n","bairro":"Guapira","telefone":"33973972","tipo":"CEU CEI","id_fonte":"equipamento_educacao_ceu.55022","id":"ceu-55022"}},{"type":"Feature","geometry":{"type":"Point","coordinates":[-46.742491,-23.550201]},"properties":{"nome":"CEU CEI Jaguare","endereco":"Kenkiti Shimomoto, 80","bairro":"Jaguare","telefone":"37162179","tipo":"CEU CEI","id_fonte":"equipamento_educacao_ceu.55342","id":"ceu-55342"}},{"type":"Feature","geometry":{"type":"Point","coordinates":[-46.711774,-23.461899]},"properties":{"nome":"CEU CEI Jardim Paulistano","endereco":"Aparecida do Taboado, S/n","bairro":"Jardim Paulistano Zona Norte","telefone":"33975432","tipo":"CEU CEI","id_fonte":"equipamento_educacao_ceu.55228","id":"ceu-55228"}},{"type":"Feature","geometry":{"type":"Point","coordinates":[-46.411283,-23.569261]},"properties":{"nome":"CEU CEI Josely Maria Cardoso Bento","endereco":"Barao Barroso do Amazonas, 115","bairro":"Cohab Inacio Monteiro","telefone":"25189034","tipo":"CEU CEI","id_fonte":"equipamento_educacao_ceu.52527","id":"ceu-52527"}},{"type":"Feature","geometry":{"type":"Point","coordinates":[-46.584623,-23.621333]},"properties":{"nome":"CEU CEI Meninos","endereco":"Barbinos, 111","bairro":"Sao Joao Climaco","telefone":"29452542","tipo":"CEU CEI","id_fonte":"equipamento_educacao_ceu.52532","id":"ceu-52532"}},{"type":"Feature","geometry":{"type":"Point","coordinates":[-46.660107,-23.743797]},"properties":{"nome":"CEU CEI Navegantes","endereco":"Maria Moassab Barbour, S/n","bairro":"Cantinho do CEU","telefone":"59765515","tipo":"CEU CEI","id_fonte":"equipamento_educacao_ceu.52534","id":"ceu-52534"}},{"type":"Feature","geometry":{"type":"Point","coordinates":[-46.727341,-23.622221]},"properties":{"nome":"CEU CEI Paraisopolis","endereco":"Doutor Jose Augusto de Souza e Silva, S/n","bairro":"Jardim Parque Morumbi","telefone":"37471971","tipo":"CEU CEI","id_fonte":"equipamento_educacao_ceu.55396","id":"ceu-55396"}},{"type":"Feature","geometry":{"type":"Point","coordinates":[-46.726212,-23.827417]},"properties":{"nome":"CEU CEI Parelheiros","endereco":"Jose Pedro de Borba, 20","bairro":"Jardim Novo Parelheiros","telefone":"59266918","tipo":"CEU CEI","id_fonte":"equipamento_educacao_ceu.55418","id":"ceu-55418"}},{"type":"Feature","geometry":{"type":"Point","coordinates":[-46.787281,-23.440611]},"properties":{"nome":"CEU CEI Parque Anhanguera","endereco":"Pedro Jose de Lima, 1020","bairro":"Jardim Anhanguera","telefone":"39126051","tipo":"CEU CEI","id_fonte":"equipamento_educacao_ceu.55339","id":"ceu-55339"}},{"type":"Feature","geometry":{"type":"Point","coordinates":[-46.608569,-23.643689]},"properties":{"nome":"CEU CEI Parque Bristol","endereco":"Professor Artur Primavesi, S/n","bairro":"Parque Bristol","telefone":"23349160","tipo":"CEU CEI","id_fonte":"equipamento_educacao_ceu.55333","id":"ceu-55333"}},{"type":"Feature","geometry":{"type":"Point","coordinates":[-46.473808,-23.512518]},"properties":{"nome":"CEU CEI Parque Sao Carlos","endereco":"Clarear, 643","bairro":"Jardim Sao Carlos Zona Leste","telefone":"20454234","tipo":"CEU CEI","id_fonte":"equipamento_educacao_ceu.52536","id":"ceu-52536"}},{"type":"Feature","geometry":{"type":"Point","coordinates":[-46.68882,-23.448025]},"properties":{"nome":"CEU CEI Paz","endereco":"Daniel Cerri, 1549","bairro":"Jardim Parana","telefone":"39863441","tipo":"CEU CEI","id_fonte":"equipamento_educacao_ceu.52574","id":"ceu-52574"}},{"type":"Feature","geometry":{"type":"Point","coordinates":[-46.750428,-23.437069]},"properties":{"nome":"CEU CEI Pera Marmelo","endereco":"Peramarmelo, 226","bairro":"Jardim Santa Lucrecia","telefone":"39483935","tipo":"CEU CEI","id_fonte":"equipamento_educacao_ceu.52541","id":"ceu-52541"}},{"type":"Feature","geometry":{"type":"Point","coordinates":[-46.751964,-23.406244]},"properties":{"nome":"CEU CEI Perus","endereco":"Bernardo Jose de Lorena, S/n","bairro":"Vila Fanton","telefone":"39158717","tipo":"CEU CEI","id_fonte":"equipamento_educacao_ceu.52543","id":"ceu-52543"}},{"type":"Feature","geometry":{"type":"Point","coordinates":[-46.496531,-23.498525]},"properties":{"nome":"CEU CEI Quinta do Sol","endereco":"Luiz Imparato, 564","bairro":"Parque Cisper","telefone":"33963451","tipo":"CEU CEI","id_fonte":"equipamento_educacao_ceu.55232","id":"ceu-55232"}},{"type":"Feature","geometry":{"type":"Point","coordinates":[-46.501893,-23.6229]},"properties":{"nome":"CEU CEI Rosa da China","endereco":"Clara Petrela, 113","bairro":"Jardim Sao Roberto","telefone":"27012311","tipo":"CEU CEI","id_fonte":"equipamento_educacao_ceu.52545","id":"ceu-52545"}},{"type":"Feature","geometry":{"type":"Point","coordinates":[-46.494098,-23.609841]},"properties":{"nome":"CEU CEI Rubem Alves","endereco":"Manuel Quirino de Mattos, S/n","bairro":"Jardim Sapopemba","telefone":"20759121","tipo":"CEU CEI","id_fonte":"equipamento_educacao_ceu.55235","id":"ceu-55235"}},{"type":"Feature","geometry":{"type":"Point","coordinates":[-46.449538,-23.602487]},"properties":{"nome":"CEU CEI Sao Mateus","endereco":"Curumatim, 201","bairro":"Parque Boa Esperanca","telefone":"27328110","tipo":"CEU CEI","id_fonte":"equipamento_educacao_ceu.52547","id":"ceu-52547"}},{"type":"Feature","geometry":{"type":"Point","coordinates":[-46.456429,-23.620343]},"properties":{"nome":"CEU CEI Sao Rafael","endereco":"Cinira Polonio, 100","bairro":"Conjunto Promorar Rio Claro","telefone":"","tipo":"CEU CEI","id_fonte":"equipamento_educacao_ceu.52620","id":"ceu-52620"}},{"type":"Feature","geometry":{"type":"Point","coordinates":[-46.399797,-23.543395]},"properties":{"nome":"CEU CEI Silvana Aparecida Tobias Profa","endereco":"Manuel da Mota Coutinho, 293","bairro":"Lajeado","telefone":"33976979","tipo":"CEU CEI","id_fonte":"equipamento_educacao_ceu.53197","id":"ceu-53197"}},{"type":"Feature","geometry":{"type":"Point","coordinates":[-46.680545,-23.767654]},"properties":{"nome":"CEU CEI Tres Lagos","endereco":"Maria Moura da Conceicao, S/n","bairro":"Jardim Belcito","telefone":"59765614","tipo":"CEU CEI","id_fonte":"equipamento_educacao_ceu.52556","id":"ceu-52556"}},{"type":"Feature","geometry":{"type":"Point","coordinates":[-46.382043,-23.478371]},"properties":{"nome":"CEU CEI Tres Pontes","endereco":"Capachos, 400","bairro":"Jardim Celia","telefone":"33976414","tipo":"CEU CEI","id_fonte":"equipamento_educacao_ceu.55238","id":"ceu-55238"}},{"type":"Feature","geometry":{"type":"Point","coordinates":[-46.790117,-23.60113]},"properties":{"nome":"CEU CEI Uirapuru","endereco":"Nazir Miguel, 849","bairro":"Jardim Paulo Vi","telefone":"37831926","tipo":"CEU CEI","id_fonte":"equipamento_educacao_ceu.55349","id":"ceu-55349"}},{"type":"Feature","geometry":{"type":"Point","coordinates":[-46.762614,-23.481919]},"properties":{"nome":"CEU CEI Vila Atlantica","endereco":"Coronel Jose Venancio Dias, 840","bairro":"Jaragua","telefone":"39018715","tipo":"CEU CEI","id_fonte":"equipamento_educacao_ceu.52550","id":"ceu-52550"}},{"type":"Feature","geometry":{"type":"Point","coordinates":[-46.698096,-23.728028]},"properties":{"nome":"CEU CEI Vila Rubi","endereco":"Domingos Tarroso, 101","bairro":"Vila Rubi","telefone":"56629427","tipo":"CEU CEI","id_fonte":"equipamento_educacao_ceu.55025","id":"ceu-55025"}},{"type":"Feature","geometry":{"type":"Point","coordinates":[-46.780574,-23.737907]},"properties":{"nome":"CEU CEI Vila do Sol","endereco":"Dos Funcionarios Publicos, 369","bairro":"Vila do Sol","telefone":"33979831","tipo":"CEU CEI","id_fonte":"equipamento_educacao_ceu.55219","id":"ceu-55219"}},{"type":"Feature","geometry":{"type":"Point","coordinates":[-46.553586,-23.516843]},"properties":{"nome":"CEU CEI Walter de Andrade Prof","endereco":"Condessa Elisabeth de Robiano, S/n","bairro":"Vila Moreira","telefone":"20757490","tipo":"CEU CEI","id_fonte":"equipamento_educacao_ceu.54831","id":"ceu-54831"}},{"type":"Feature","geometry":{"type":"Point","coordinates":[-46.794627,-23.686214]},"properties":{"nome":"CEU CEI Yolanda de Souza Santalucia Profa","endereco":"Feitico da Vila, 399","bairro":"Chacara Santa Maria","telefone":"33976620","tipo":"CEU CEI","id_fonte":"equipamento_educacao_ceu.55019","id":"ceu-55019"}},{"type":"Feature","geometry":{"type":"Point","coordinates":[-46.39158,-23.586911]},"properties":{"nome":"CEU CEMEI Barro Branco III","endereco":"Salvador Vigano, 88","bairro":"Conjunto Habitacional Barro Branco II","telefone":"39870442","tipo":"CEMEI","id_fonte":"equipamento_educacao_ceu.51389","id":"ceu-51389"}},{"type":"Feature","geometry":{"type":"Point","coordinates":[-46.714591,-23.44826]},"properties":{"nome":"CEU CEMEI Coreto de Taipas","endereco":"Joao Amado Coutinho, 240","bairro":"Conjunto Residencial Elisio Teixeira Lei","telefone":"39712260","tipo":"CEMEI","id_fonte":"equipamento_educacao_ceu.51385","id":"ceu-51385"}},{"type":"Feature","geometry":{"type":"Point","coordinates":[-46.693767,-23.483223]},"properties":{"nome":"CEU CEMEI Freguesia do O","endereco":"Jacutiba, 167","bairro":"Parque Sao Luis","telefone":"","tipo":"CEMEI","id_fonte":"equipamento_educacao_ceu.51378","id":"ceu-51378"}},{"type":"Feature","geometry":{"type":"Point","coordinates":[-46.486941,-23.552862]},"properties":{"nome":"CEU CEMEI Horizonte Azul","endereco":"Sylvio Torres, 295","bairro":"Conjunto Habitacional Padre Jose de Anch","telefone":"22170506","tipo":"CEMEI","id_fonte":"equipamento_educacao_ceu.51392","id":"ceu-51392"}},{"type":"Feature","geometry":{"type":"Point","coordinates":[-46.596752,-23.450227]},"properties":{"nome":"CEU CEMEI Jardim Tremembe - Acelino Scalquette Prof","endereco":"Adauto Bezerra Delgado, 84","bairro":"Parque Casa de Pedra","telefone":"33965759","tipo":"CEMEI","id_fonte":"equipamento_educacao_ceu.51382","id":"ceu-51382"}},{"type":"Feature","geometry":{"type":"Point","coordinates":[-46.427996,-23.548622]},"properties":{"nome":"CEU CEMEI Jose Bonifacio","endereco":"Professora Lucila Cerqueira, 194","bairro":"Jardim Sao Pedro","telefone":"20168873","tipo":"CEMEI","id_fonte":"equipamento_educacao_ceu.51388","id":"ceu-51388"}},{"type":"Feature","geometry":{"type":"Point","coordinates":[-46.563581,-23.539987]},"properties":{"nome":"CEU CEMEI Monte Serrat","endereco":"Monte Serrat, 230","bairro":"Tatuape","telefone":"22964326","tipo":"CEMEI","id_fonte":"equipamento_educacao_ceu.51437","id":"ceu-51437"}},{"type":"Feature","geometry":{"type":"Point","coordinates":[-46.574791,-23.518018]},"properties":{"nome":"CEU CEMEI Novo Mundo","endereco":"Ernesto Augusto Lopes, 100","bairro":"Parque Vila Maria","telefone":"","tipo":"CEMEI","id_fonte":"equipamento_educacao_ceu.51428","id":"ceu-51428"}},{"type":"Feature","geometry":{"type":"Point","coordinates":[-46.478434,-23.575306]},"properties":{"nome":"CEU CEMEI Parque do Carmo","endereco":"Gaspar da Silva, 240","bairro":"Jardim Nossa Senhora do Carmo","telefone":"22172120","tipo":"CEMEI","id_fonte":"equipamento_educacao_ceu.51351","id":"ceu-51351"}},{"type":"Feature","geometry":{"type":"Point","coordinates":[-46.732191,-23.438244]},"properties":{"nome":"CEU CEMEI Pinheirinho Dagua","endereco":"Camillo Zanotti, 92","bairro":"Conjunto City Jaragua","telefone":"39281016","tipo":"CEMEI","id_fonte":"equipamento_educacao_ceu.51384","id":"ceu-51384"}},{"type":"Feature","geometry":{"type":"Point","coordinates":[-46.429672,-23.50021]},"properties":{"nome":"CEU CEMEI Sao Miguel","endereco":"Jose Ferreira Crespo, 495","bairro":"Jardim Sao Vicente","telefone":"","tipo":"CEMEI","id_fonte":"equipamento_educacao_ceu.51383","id":"ceu-51383"}},{"type":"Feature","geometry":{"type":"Point","coordinates":[-46.566205,-23.585614]},"properties":{"nome":"CEU CEMEI Vila Alpina","endereco":"Joao Pedro Lecor, 141","bairro":"Jardim Avelino","telefone":"","tipo":"CEMEI","id_fonte":"equipamento_educacao_ceu.51350","id":"ceu-51350"}},{"type":"Feature","geometry":{"type":"Point","coordinates":[-46.426941,-23.609018]},"properties":{"nome":"CEU EMEF Alto Alegre","endereco":"Bento Guelfi, S/n","bairro":"Jardim da Laranjeira Zona Leste","telefone":"20751040","tipo":"CEU EMEF","id_fonte":"equipamento_educacao_ceu.55347","id":"ceu-55347"}},{"type":"Feature","geometry":{"type":"Point","coordinates":[-46.553494,-23.517073]},"properties":{"nome":"CEU EMEF Antonio Carlos Rocha Prof","endereco":"Condessa Elisabeth de Robiano, S/n","bairro":"Vila Moreira","telefone":"20757492","tipo":"CEU EMEF","id_fonte":"equipamento_educacao_ceu.55326","id":"ceu-55326"}},{"type":"Feature","geometry":{"type":"Point","coordinates":[-46.750011,-23.58184]},"properties":{"nome":"CEU EMEF Butanta","endereco":"Engenheiro Heitor Antonio Eiras Garcia, 1870","bairro":"Jardim Esmeralda","telefone":"37324530","tipo":"CEU EMEF","id_fonte":"equipamento_educacao_ceu.52520","id":"ceu-52520"}},{"type":"Feature","geometry":{"type":"Point","coordinates":[-46.594111,-23.615728]},"properties":{"nome":"CEU EMEF Campos Salles Pres","endereco":"Das Lagrimas, 2385","bairro":"Ipiranga","telefone":"29476723","tipo":"CEU EMEF","id_fonte":"equipamento_educacao_ceu.52284","id":"ceu-52284"}},{"type":"Feature","geometry":{"type":"Point","coordinates":[-46.456429,-23.620343]},"properties":{"nome":"CEU EMEF Candida Dora Pino Pretini Profa","endereco":"Cinira Polonio, 100","bairro":"Conjunto Promorar Rio Claro","telefone":"27521007","tipo":"CEU EMEF","id_fonte":"equipamento_educacao_ceu.52619","id":"ceu-52619"}},{"type":"Feature","geometry":{"type":"Point","coordinates":[-46.785303,-23.649676]},"properties":{"nome":"CEU EMEF Cantos do Amanhecer","endereco":"Cantos do Amanhecer, S/n","bairro":"Jardim Eledy","telefone":"33979747","tipo":"CEU EMEF","id_fonte":"equipamento_educacao_ceu.55224","id":"ceu-55224"}},{"type":"Feature","geometry":{"type":"Point","coordinates":[-46.744318,-23.646285]},"properties":{"nome":"CEU EMEF Casa Blanca","endereco":"Joao Damasceno, 85","bairro":"Vila das Belezas","telefone":"55195226","tipo":"CEU EMEF","id_fonte":"equipamento_educacao_ceu.52566","id":"ceu-52566"}},{"type":"Feature","geometry":{"type":"Point","coordinates":[-46.790117,-23.60113]},"properties":{"nome":"CEU EMEF Cesar Arruda Castanho Dep","endereco":"Nazir Miguel, 849","bairro":"Jardim Paulo Vi","telefone":"37830669","tipo":"CEU EMEF","id_fonte":"equipamento_educacao_ceu.54642","id":"ceu-54642"}},{"type":"Feature","geometry":{"type":"Point","coordinates":[-46.704555,-23.710882]},"properties":{"nome":"CEU EMEF Cidade Dutra","endereco":"Interlagos, 7350","bairro":"Interlagos","telefone":"56681935","tipo":"CEU EMEF","id_fonte":"equipamento_educacao_ceu.52523","id":"ceu-52523"}},{"type":"Feature","geometry":{"type":"Point","coordinates":[-46.457381,-23.522105]},"properties":{"nome":"CEU EMEF Conceicao Aparecida de Jesus Profa","endereco":"Ernesto Souza Cruz, 2171","bairro":"Cidade Antonio Estevao de Carvalho","telefone":"33979056","tipo":"CEU EMEF","id_fonte":"equipamento_educacao_ceu.54793","id":"ceu-54793"}},{"type":"Feature","geometry":{"type":"Point","coordinates":[-46.501893,-23.6229]},"properties":{"nome":"CEU EMEF Domingos Rubino Prof","endereco":"Clara Petrela, 113","bairro":"Jardim Sao Roberto","telefone":"27012321","tipo":"CEU EMEF","id_fonte":"equipamento_educacao_ceu.52827","id":"ceu-52827"}},{"type":"Feature","geometry":{"type":"Point","coordinates":[-46.794627,-23.686214]},"properties":{"nome":"CEU EMEF Feitico da Vila","endereco":"Feitico da Vila, 399","bairro":"Chacara Santa Maria","telefone":"33976601","tipo":"CEU EMEF","id_fonte":"equipamento_educacao_ceu.55017","id":"ceu-55017"}},{"type":"Feature","geometry":{"type":"Point","coordinates":[-46.78047,-23.637909]},"properties":{"nome":"CEU EMEF Hermes Ferreira de Souza","endereco":"Carlos Lacerda, 678","bairro":"Pirajussara","telefone":"58434808","tipo":"CEU EMEF","id_fonte":"equipamento_educacao_ceu.52569","id":"ceu-52569"}},{"type":"Feature","geometry":{"type":"Point","coordinates":[-46.410597,-23.567781]},"properties":{"nome":"CEU EMEF Inacio Monteiro","endereco":"Barao Barroso do Amazonas, 155","bairro":"Cohab Inacio Monteiro","telefone":"25189023","tipo":"CEU EMEF","id_fonte":"equipamento_educacao_ceu.52525","id":"ceu-52525"}},{"type":"Feature","geometry":{"type":"Point","coordinates":[-46.583797,-23.457077]},"properties":{"nome":"CEU EMEF Jacana","endereco":"Francisca Esposito Tonetti, S/n","bairro":"Guapira","telefone":"33973984","tipo":"CEU EMEF","id_fonte":"equipamento_educacao_ceu.55020","id":"ceu-55020"}},{"type":"Feature","geometry":{"type":"Point","coordinates":[-46.742491,-23.550201]},"properties":{"nome":"CEU EMEF Jaguare","endereco":"Kenkiti Shimomoto, 80","bairro":"Jaguare","telefone":"37162150","tipo":"CEU EMEF","id_fonte":"equipamento_educacao_ceu.55344","id":"ceu-55344"}},{"type":"Feature","geometry":{"type":"Point","coordinates":[-46.424048,-23.538971]},"properties":{"nome":"CEU EMEF Jambeiro","endereco":"Jose Pinheiro Borges, 60","bairro":"Jardim Helena","telefone":"29602041","tipo":"CEU EMEF","id_fonte":"equipamento_educacao_ceu.52528","id":"ceu-52528"}},{"type":"Feature","geometry":{"type":"Point","coordinates":[-46.660179,-23.743827]},"properties":{"nome":"CEU EMEF Jardim Eliana","endereco":"Maria Moassab Barbour, S/n","bairro":"Cantinho do CEU","telefone":"59765509","tipo":"CEU EMEF","id_fonte":"equipamento_educacao_ceu.54656","id":"ceu-54656"}},{"type":"Feature","geometry":{"type":"Point","coordinates":[-46.711752,-23.461899]},"properties":{"nome":"CEU EMEF Jardim Paulistano","endereco":"Aparecida do Taboado, S/n","bairro":"Jardim Paulistano Zona Norte","telefone":"33975448","tipo":"CEU EMEF","id_fonte":"equipamento_educacao_ceu.55230","id":"ceu-55230"}},{"type":"Feature","geometry":{"type":"Point","coordinates":[-46.636402,-23.667043]},"properties":{"nome":"CEU EMEF Jose Rezende Prof","endereco":"Engenheiro Armando de Arruda Pereira, 5241","bairro":"Vila do Encontro","telefone":"33965579","tipo":"CEU EMEF","id_fonte":"equipamento_educacao_ceu.55283","id":"ceu-55283"}},{"type":"Feature","geometry":{"type":"Point","coordinates":[-46.77142,-23.673922]},"properties":{"nome":"CEU EMEF Jose Saramago","endereco":"Daniel Gran, S/n","bairro":"Jardim Modelo","telefone":"58749862","tipo":"CEU EMEF","id_fonte":"equipamento_educacao_ceu.55353","id":"ceu-55353"}},{"type":"Feature","geometry":{"type":"Point","coordinates":[-46.399797,-23.543395]},"properties":{"nome":"CEU EMEF Lajeado","endereco":"Manuel da Mota Coutinho, 293","bairro":"Lajeado","telefone":"21539825","tipo":"CEU EMEF","id_fonte":"equipamento_educacao_ceu.55231","id":"ceu-55231"}},{"type":"Feature","geometry":{"type":"Point","coordinates":[-46.726212,-23.827417]},"properties":{"nome":"CEU EMEF Manoel Vieira de Queiroz Filho","endereco":"Jose Pedro de Borba, 20","bairro":"Jardim Novo Parelheiros","telefone":"59266926","tipo":"CEU EMEF","id_fonte":"equipamento_educacao_ceu.54620","id":"ceu-54620"}},{"type":"Feature","geometry":{"type":"Point","coordinates":[-46.608732,-23.64345]},"properties":{"nome":"CEU EMEF Mara Cristina Tartaglia Sena Profa","endereco":"Professor Artur Primavesi, S/n","bairro":"Parque Bristol","telefone":"23349169","tipo":"CEU EMEF","id_fonte":"equipamento_educacao_ceu.55335","id":"ceu-55335"}},{"type":"Feature","geometry":{"type":"Point","coordinates":[-46.525599,-23.581105]},"properties":{"nome":"CEU EMEF Maria Aparecida de Souza Campos Profa","endereco":"Sargento Claudiner Evaristo Dias, 10","bairro":"Parque Santo Antonio","telefone":"20364305","tipo":"CEU EMEF","id_fonte":"equipamento_educacao_ceu.55338","id":"ceu-55338"}},{"type":"Feature","geometry":{"type":"Point","coordinates":[-46.389774,-23.513279]},"properties":{"nome":"CEU EMEF Maria Clara Machado","endereco":"Daniel Muller, 347","bairro":"Chacara Dona Olivia","telefone":"25636231","tipo":"CEU EMEF","id_fonte":"equipamento_educacao_ceu.54798","id":"ceu-54798"}},{"type":"Feature","geometry":{"type":"Point","coordinates":[-46.449538,-23.602487]},"properties":{"nome":"CEU EMEF Maria Lisboa da Silva Profa","endereco":"Curumatim, 201","bairro":"Parque Boa Esperanca","telefone":"27328122","tipo":"CEU EMEF","id_fonte":"equipamento_educacao_ceu.54658","id":"ceu-54658"}},{"type":"Feature","geometry":{"type":"Point","coordinates":[-46.768971,-23.69876]},"properties":{"nome":"CEU EMEF Mario Fittipaldi","endereco":"Da Baronesa, 1120","bairro":"Parque Bologne","telefone":"33979621","tipo":"CEU EMEF","id_fonte":"equipamento_educacao_ceu.55227","id":"ceu-55227"}},{"type":"Feature","geometry":{"type":"Point","coordinates":[-46.584623,-23.621333]},"properties":{"nome":"CEU EMEF Meninos","endereco":"Barbinos, 111","bairro":"Sao Joao Climaco","telefone":"29452535","tipo":"CEU EMEF","id_fonte":"equipamento_educacao_ceu.52531","id":"ceu-52531"}},{"type":"Feature","geometry":{"type":"Point","coordinates":[-46.407282,-23.592043]},"properties":{"nome":"CEU EMEF Nazare Neri Lima Profa","endereco":"Dos Metalurgicos, 1300","bairro":"Cidade Tiradentes","telefone":"22827671","tipo":"CEU EMEF","id_fonte":"equipamento_educacao_ceu.55013","id":"ceu-55013"}},{"type":"Feature","geometry":{"type":"Point","coordinates":[-46.727243,-23.621932]},"properties":{"nome":"CEU EMEF Paraisopolis","endereco":"Doutor Jose Augusto de Souza e Silva, S/n","bairro":"Jardim Parque Morumbi","telefone":"37471964","tipo":"CEU EMEF","id_fonte":"equipamento_educacao_ceu.55398","id":"ceu-55398"}},{"type":"Feature","geometry":{"type":"Point","coordinates":[-46.473808,-23.512518]},"properties":{"nome":"CEU EMEF Parque Sao Carlos","endereco":"Clarear, 643","bairro":"Jardim Sao Carlos Zona Leste","telefone":"20454214","tipo":"CEU EMEF","id_fonte":"equipamento_educacao_ceu.52535","id":"ceu-52535"}},{"type":"Feature","geometry":{"type":"Point","coordinates":[-46.503165,-23.570831]},"properties":{"nome":"CEU EMEF Paulo Gomes Cardim Prof Dr","endereco":"Olga Fadel Abarca, S/n","bairro":"Jardim Santa Teresinha","telefone":"27237539","tipo":"CEU EMEF","id_fonte":"equipamento_educacao_ceu.52517","id":"ceu-52517"}},{"type":"Feature","geometry":{"type":"Point","coordinates":[-46.646628,-23.705984]},"properties":{"nome":"CEU EMEF Paulo Goncalo dos Santos Prof","endereco":"Do Alvarenga, 3752","bairro":"Balneario Sao Francisco","telefone":"56722516","tipo":"CEU EMEF","id_fonte":"equipamento_educacao_ceu.52514","id":"ceu-52514"}},{"type":"Feature","geometry":{"type":"Point","coordinates":[-46.750428,-23.437069]},"properties":{"nome":"CEU EMEF Pera Marmelo","endereco":"Peramarmelo, 226","bairro":"Jardim Santa Lucrecia","telefone":"39483942","tipo":"CEU EMEF","id_fonte":"equipamento_educacao_ceu.52539","id":"ceu-52539"}},{"type":"Feature","geometry":{"type":"Point","coordinates":[-46.751996,-23.406283]},"properties":{"nome":"CEU EMEF Perus","endereco":"Bernardo Jose de Lorena, S/n","bairro":"Vila Fanton","telefone":"39158732","tipo":"CEU EMEF","id_fonte":"equipamento_educacao_ceu.52542","id":"ceu-52542"}},{"type":"Feature","geometry":{"type":"Point","coordinates":[-46.496531,-23.498525]},"properties":{"nome":"CEU EMEF Rosangela Rodrigues Vieira Profa","endereco":"Luiz Imparato, 564","bairro":"Parque Cisper","telefone":"","tipo":"CEU EMEF","id_fonte":"equipamento_educacao_ceu.55234","id":"ceu-55234"}},{"type":"Feature","geometry":{"type":"Point","coordinates":[-46.49398,-23.609841]},"properties":{"nome":"CEU EMEF Tatiana Belinky","endereco":"Manuel Quirino de Mattos, S/n","bairro":"Jardim Sapopemba","telefone":"20759134","tipo":"CEU EMEF","id_fonte":"equipamento_educacao_ceu.55237","id":"ceu-55237"}},{"type":"Feature","geometry":{"type":"Point","coordinates":[-46.688848,-23.447874]},"properties":{"nome":"CEU EMEF Teotonio Vilela Sen","endereco":"Daniel Cerri, 1549","bairro":"Jardim Parana","telefone":"39863423","tipo":"CEU EMEF","id_fonte":"equipamento_educacao_ceu.52744","id":"ceu-52744"}},{"type":"Feature","geometry":{"type":"Point","coordinates":[-46.680384,-23.767448]},"properties":{"nome":"CEU EMEF Tres Lagos","endereco":"Maria Moura da Conceicao, S/n","bairro":"Jardim Belcito","telefone":"59765628","tipo":"CEU EMEF","id_fonte":"equipamento_educacao_ceu.52554","id":"ceu-52554"}},{"type":"Feature","geometry":{"type":"Point","coordinates":[-46.382043,-23.478371]},"properties":{"nome":"CEU EMEF Tres Pontes","endereco":"Capachos, 400","bairro":"Jardim Celia","telefone":"33976435","tipo":"CEU EMEF","id_fonte":"equipamento_educacao_ceu.55240","id":"ceu-55240"}},{"type":"Feature","geometry":{"type":"Point","coordinates":[-46.787281,-23.440611]},"properties":{"nome":"CEU EMEF Valter Paulino Estevam Prof Dr","endereco":"Pedro Jose de Lima, 1020","bairro":"Jardim Anhanguera","telefone":"39126041","tipo":"CEU EMEF","id_fonte":"equipamento_educacao_ceu.55341","id":"ceu-55341"}},{"type":"Feature","geometry":{"type":"Point","coordinates":[-46.762614,-23.481919]},"properties":{"nome":"CEU EMEF Vila Atlantica","endereco":"Coronel Jose Venancio Dias, 840","bairro":"Jaragua","telefone":"39018722","tipo":"CEU EMEF","id_fonte":"equipamento_educacao_ceu.52548","id":"ceu-52548"}},{"type":"Feature","geometry":{"type":"Point","coordinates":[-46.411352,-23.495366]},"properties":{"nome":"CEU EMEF Vila Curuca","endereco":"Marechal Tito, 3452","bairro":"Itaim Paulista","telefone":"25636110","tipo":"CEU EMEF","id_fonte":"equipamento_educacao_ceu.52551","id":"ceu-52551"}},{"type":"Feature","geometry":{"type":"Point","coordinates":[-46.698096,-23.728028]},"properties":{"nome":"CEU EMEF Vila Rubi","endereco":"Domingos Tarroso, 101","bairro":"Vila Rubi","telefone":"56629441","tipo":"CEU EMEF","id_fonte":"equipamento_educacao_ceu.55023","id":"ceu-55023"}},{"type":"Feature","geometry":{"type":"Point","coordinates":[-46.780574,-23.737907]},"properties":{"nome":"CEU EMEF Vila do Sol","endereco":"Dos Funcionarios Publicos, 369","bairro":"Vila do Sol","telefone":"33979822","tipo":"CEU EMEF","id_fonte":"equipamento_educacao_ceu.55221","id":"ceu-55221"}},{"type":"Feature","geometry":{"type":"Point","coordinates":[-46.426801,-23.609106]},"properties":{"nome":"CEU EMEI Alto Alegre","endereco":"Bento Guelfi, S/n","bairro":"Jardim da Laranjeira Zona Leste","telefone":"20751024","tipo":"CEU EMEI","id_fonte":"equipamento_educacao_ceu.55346","id":"ceu-55346"}},{"type":"Feature","geometry":{"type":"Point","coordinates":[-46.646628,-23.705984]},"properties":{"nome":"CEU EMEI Alvarenga","endereco":"Do Alvarenga, 3752","bairro":"Balneario Sao Francisco","telefone":"56722512","tipo":"CEU EMEI","id_fonte":"equipamento_educacao_ceu.52515","id":"ceu-52515"}},{"type":"Feature","geometry":{"type":"Point","coordinates":[-46.389774,-23.513279]},"properties":{"nome":"CEU EMEI Anton Makarenko","endereco":"Daniel Muller, 347","bairro":"Chacara Dona Olivia","telefone":"25636225","tipo":"CEU EMEI","id_fonte":"equipamento_educacao_ceu.52537","id":"ceu-52537"}},{"type":"Feature","geometry":{"type":"Point","coordinates":[-46.596327,-23.627052]},"properties":{"nome":"CEU EMEI Antonio Francisco Lisboa","endereco":"Sao Joao Climaco, 12","bairro":"Sao Joao Climaco","telefone":"29463392","tipo":"CEU EMEI","id_fonte":"equipamento_educacao_ceu.52127","id":"ceu-52127"}},{"type":"Feature","geometry":{"type":"Point","coordinates":[-46.411431,-23.495363]},"properties":{"nome":"CEU EMEI Apparecido Domingues Prof","endereco":"Marechal Tito, 3400","bairro":"Itaim Paulista","telefone":"25636122","tipo":"CEU EMEI","id_fonte":"equipamento_educacao_ceu.52552","id":"ceu-52552"}},{"type":"Feature","geometry":{"type":"Point","coordinates":[-46.503507,-23.569854]},"properties":{"nome":"CEU EMEI Aricanduva","endereco":"Olga Fadel Abarca, S/n","bairro":"Jardim Santa Terezinha Zona Leste","telefone":"27211097","tipo":"CEU EMEI","id_fonte":"equipamento_educacao_ceu.52518","id":"ceu-52518"}},{"type":"Feature","geometry":{"type":"Point","coordinates":[-46.584623,-23.621333]},"properties":{"nome":"CEU EMEI Benno Hubert Stollenwerk Pe","endereco":"Barbinos, 111","bairro":"Sao Joao Climaco","telefone":"29452519","tipo":"CEU EMEI","id_fonte":"equipamento_educacao_ceu.52737","id":"ceu-52737"}},{"type":"Feature","geometry":{"type":"Point","coordinates":[-46.496531,-23.498525]},"properties":{"nome":"CEU EMEI Braz Jaime Romano","endereco":"Luiz Imparato, 564","bairro":"Parque Cisper","telefone":"33963462","tipo":"CEU EMEI","id_fonte":"equipamento_educacao_ceu.55233","id":"ceu-55233"}},{"type":"Feature","geometry":{"type":"Point","coordinates":[-46.750011,-23.58184]},"properties":{"nome":"CEU EMEI Butanta","endereco":"Engenheiro Heitor Antonio Eiras Garcia, 1870","bairro":"Jardim Esmeralda","telefone":"37324520","tipo":"CEU EMEI","id_fonte":"equipamento_educacao_ceu.52521","id":"ceu-52521"}},{"type":"Feature","geometry":{"type":"Point","coordinates":[-46.636402,-23.667043]},"properties":{"nome":"CEU EMEI Caminho do Mar","endereco":"Engenheiro Armando de Arruda Pereira, 5241","bairro":"Vila do Encontro","telefone":"33965574","tipo":"CEU EMEI","id_fonte":"equipamento_educacao_ceu.55282","id":"ceu-55282"}},{"type":"Feature","geometry":{"type":"Point","coordinates":[-46.785429,-23.649311]},"properties":{"nome":"CEU EMEI Cantos do Amanhecer","endereco":"Cantos do Amanhecer, S/n","bairro":"Jardim Eledy","telefone":"33979740","tipo":"CEU EMEI","id_fonte":"equipamento_educacao_ceu.55223","id":"ceu-55223"}},{"type":"Feature","geometry":{"type":"Point","coordinates":[-46.473806,-23.509991]},"properties":{"nome":"CEU EMEI Carlos Olivaldo de Souza Lopes Muniz Dr","endereco":"Clarear, 141","bairro":"Jardim Sao Carlos Zona Leste","telefone":"20454210","tipo":"CEU EMEI","id_fonte":"equipamento_educacao_ceu.52628","id":"ceu-52628"}},{"type":"Feature","geometry":{"type":"Point","coordinates":[-46.744318,-23.646285]},"properties":{"nome":"CEU EMEI Casa Blanca","endereco":"Joao Damasceno, 85","bairro":"Vila das Belezas","telefone":"55195240","tipo":"CEU EMEI","id_fonte":"equipamento_educacao_ceu.52567","id":"ceu-52567"}},{"type":"Feature","geometry":{"type":"Point","coordinates":[-46.399797,-23.543395]},"properties":{"nome":"CEU EMEI Edna Alves de Sousa Profa","endereco":"Manuel da Mota Coutinho, 293","bairro":"Lajeado","telefone":"21539562","tipo":"CEU EMEI","id_fonte":"equipamento_educacao_ceu.53203","id":"ceu-53203"}},{"type":"Feature","geometry":{"type":"Point","coordinates":[-46.493654,-23.608914]},"properties":{"nome":"CEU EMEI Erika de Souza Brito Matos Profa","endereco":"Manuel Quirino de Mattos, S/n","bairro":"Jardim Sapopemba","telefone":"20759126","tipo":"CEU EMEI","id_fonte":"equipamento_educacao_ceu.55236","id":"ceu-55236"}},{"type":"Feature","geometry":{"type":"Point","coordinates":[-46.794627,-23.686214]},"properties":{"nome":"CEU EMEI Feitico da Vila","endereco":"Feitico da Vila, 399","bairro":"Chacara Santa Maria","telefone":"33976634","tipo":"CEU EMEI","id_fonte":"equipamento_educacao_ceu.55018","id":"ceu-55018"}},{"type":"Feature","geometry":{"type":"Point","coordinates":[-46.525599,-23.581105]},"properties":{"nome":"CEU EMEI Formosa","endereco":"Sargento Claudiner Evaristo Dias, 10","bairro":"Parque Santo Antonio","telefone":"20364324","tipo":"CEU EMEI","id_fonte":"equipamento_educacao_ceu.55337","id":"ceu-55337"}},{"type":"Feature","geometry":{"type":"Point","coordinates":[-46.768971,-23.69876]},"properties":{"nome":"CEU EMEI Guarapiranga","endereco":"Da Baronesa, 1120","bairro":"Parque Bologne","telefone":"33979652","tipo":"CEU EMEI","id_fonte":"equipamento_educacao_ceu.55226","id":"ceu-55226"}},{"type":"Feature","geometry":{"type":"Point","coordinates":[-46.411521,-23.569566]},"properties":{"nome":"CEU EMEI Inacio Monteiro","endereco":"Barao Joaquim do Amparo, 115","bairro":"Cidade Tiradentes","telefone":"25189011","tipo":"CEU EMEI","id_fonte":"equipamento_educacao_ceu.52526","id":"ceu-52526"}},{"type":"Feature","geometry":{"type":"Point","coordinates":[-46.406478,-23.593945]},"properties":{"nome":"CEU EMEI Irene Manke Marques Profa","endereco":"Dos Metalurgicos, 1262","bairro":"Cidade Tiradentes","telefone":"22827569","tipo":"CEU EMEI","id_fonte":"equipamento_educacao_ceu.55014","id":"ceu-55014"}},{"type":"Feature","geometry":{"type":"Point","coordinates":[-46.58336,-23.457406]},"properties":{"nome":"CEU EMEI Jacana","endereco":"Francisca Esposito Tonetti, 105","bairro":"Guapira","telefone":"33973985","tipo":"CEU EMEI","id_fonte":"equipamento_educacao_ceu.55021","id":"ceu-55021"}},{"type":"Feature","geometry":{"type":"Point","coordinates":[-46.742491,-23.550201]},"properties":{"nome":"CEU EMEI Jaguare","endereco":"Kenkiti Shimomoto, 80","bairro":"Jaguare","telefone":"37162176","tipo":"CEU EMEI","id_fonte":"equipamento_educacao_ceu.55343","id":"ceu-55343"}},{"type":"Feature","geometry":{"type":"Point","coordinates":[-46.711645,-23.461948]},"properties":{"nome":"CEU EMEI Jardim Paulistano","endereco":"Aparecida do Taboado, S/n","bairro":"Jardim Paulistano Zona Norte","telefone":"33975436","tipo":"CEU EMEI","id_fonte":"equipamento_educacao_ceu.55229","id":"ceu-55229"}},{"type":"Feature","geometry":{"type":"Point","coordinates":[-46.457381,-23.522105]},"properties":{"nome":"CEU EMEI Jardim Vila Nova","endereco":"Ernesto Souza Cruz, 2171","bairro":"Cidade Antonio Estevao de Carvalho","telefone":"33979000","tipo":"CEU EMEI","id_fonte":"equipamento_educacao_ceu.54792","id":"ceu-54792"}},{"type":"Feature","geometry":{"type":"Point","coordinates":[-46.751944,-23.40644]},"properties":{"nome":"CEU EMEI Jorge Amado","endereco":"Bernardo Jose de Lorena, S/n","bairro":"Vila Fanton","telefone":"39158721","tipo":"CEU EMEI","id_fonte":"equipamento_educacao_ceu.54622","id":"ceu-54622"}},{"type":"Feature","geometry":{"type":"Point","coordinates":[-46.503114,-23.570176]},"properties":{"nome":"CEU EMEI Jose Gaspar D","endereco":"Olga Fadel Abarca, S/n","bairro":"Jardim Santa Terezinha Zona Leste","telefone":"27237523","tipo":"CEU EMEI","id_fonte":"equipamento_educacao_ceu.52222","id":"ceu-52222"}},{"type":"Feature","geometry":{"type":"Point","coordinates":[-46.770812,-23.673908]},"properties":{"nome":"CEU EMEI Loreane Lallo Profa","endereco":"Daniel Gran, S/n","bairro":"Jardim Modelo","telefone":"58749851","tipo":"CEU EMEI","id_fonte":"equipamento_educacao_ceu.55352","id":"ceu-55352"}},{"type":"Feature","geometry":{"type":"Point","coordinates":[-46.609021,-23.644157]},"properties":{"nome":"CEU EMEI Luciana Azevedo Pompermayer Profa","endereco":"Professor Artur Primavesi, S/n","bairro":"Parque Bristol","telefone":"23349166","tipo":"CEU EMEI","id_fonte":"equipamento_educacao_ceu.55334","id":"ceu-55334"}},{"type":"Feature","geometry":{"type":"Point","coordinates":[-46.78047,-23.637909]},"properties":{"nome":"CEU EMEI Luiza Helena Ferreira Profa","endereco":"Carlos Lacerda, 678","bairro":"Pirajussara","telefone":"58434821","tipo":"CEU EMEI","id_fonte":"equipamento_educacao_ceu.52571","id":"ceu-52571"}},{"type":"Feature","geometry":{"type":"Point","coordinates":[-46.726212,-23.827417]},"properties":{"nome":"CEU EMEI Magda Ferreira da Silva Carvalho Profa","endereco":"Jose Pedro de Borba, 20","bairro":"Jardim Novo Parelheiros","telefone":"59266924","tipo":"CEU EMEI","id_fonte":"equipamento_educacao_ceu.55419","id":"ceu-55419"}},{"type":"Feature","geometry":{"type":"Point","coordinates":[-46.698096,-23.728028]},"properties":{"nome":"CEU EMEI Maria Aparecida Coelho Alves Teixeira Profa","endereco":"Domingos Tarroso, 101","bairro":"Vila Rubi","telefone":"56629434","tipo":"CEU EMEI","id_fonte":"equipamento_educacao_ceu.55024","id":"ceu-55024"}},{"type":"Feature","geometry":{"type":"Point","coordinates":[-46.704555,-23.710882]},"properties":{"nome":"CEU EMEI Milton Santos Prof","endereco":"Interlagos, 7350","bairro":"Cidade Dutra","telefone":"56681925","tipo":"CEU EMEI","id_fonte":"equipamento_educacao_ceu.54776","id":"ceu-54776"}},{"type":"Feature","geometry":{"type":"Point","coordinates":[-46.660396,-23.743907]},"properties":{"nome":"CEU EMEI Navegantes","endereco":"Maria Moassab Barbour, S/n","bairro":"Cantinho do CEU","telefone":"59765508","tipo":"CEU EMEI","id_fonte":"equipamento_educacao_ceu.52533","id":"ceu-52533"}},{"type":"Feature","geometry":{"type":"Point","coordinates":[-46.727286,-23.622226]},"properties":{"nome":"CEU EMEI Paraisopolis","endereco":"Doutor Jose Augusto de Souza e Silva, S/n","bairro":"Jardim Parque Morumbi","telefone":"37471967","tipo":"CEU EMEI","id_fonte":"equipamento_educacao_ceu.55397","id":"ceu-55397"}},{"type":"Feature","geometry":{"type":"Point","coordinates":[-46.787281,-23.440611]},"properties":{"nome":"CEU EMEI Parque Anhanguera","endereco":"Pedro Jose de Lima, 1020","bairro":"Jardim Anhanguera","telefone":"39126048","tipo":"CEU EMEI","id_fonte":"equipamento_educacao_ceu.55340","id":"ceu-55340"}},{"type":"Feature","geometry":{"type":"Point","coordinates":[-46.553851,-23.517384]},"properties":{"nome":"CEU EMEI Paulo Freire Prof","endereco":"Condessa Elisabeth de Robiano, S/n","bairro":"Vila Moreira","telefone":"20757483","tipo":"CEU EMEI","id_fonte":"equipamento_educacao_ceu.54811","id":"ceu-54811"}},{"type":"Feature","geometry":{"type":"Point","coordinates":[-46.688906,-23.447996]},"properties":{"nome":"CEU EMEI Paz","endereco":"Daniel Cerri, 1549","bairro":"Jardim Parana","telefone":"39863419","tipo":"CEU EMEI","id_fonte":"equipamento_educacao_ceu.52573","id":"ceu-52573"}},{"type":"Feature","geometry":{"type":"Point","coordinates":[-46.750428,-23.437069]},"properties":{"nome":"CEU EMEI Pera Marmelo","endereco":"Peramarmelo, 226","bairro":"Jardim Santa Lucrecia","telefone":"39483919","tipo":"CEU EMEI","id_fonte":"equipamento_educacao_ceu.52540","id":"ceu-52540"}},{"type":"Feature","geometry":{"type":"Point","coordinates":[-46.456262,-23.62044]},"properties":{"nome":"CEU EMEI Roque Spencer Maciel de Barros Prof","endereco":"Cinira Polonio, 80","bairro":"Conjunto Promorar Rio Claro","telefone":"27521018","tipo":"CEU EMEI","id_fonte":"equipamento_educacao_ceu.54624","id":"ceu-54624"}},{"type":"Feature","geometry":{"type":"Point","coordinates":[-46.501893,-23.6229]},"properties":{"nome":"CEU EMEI Rosa da China","endereco":"Clara Petrela, 113","bairro":"Jardim Sao Roberto","telefone":"27012334","tipo":"CEU EMEI","id_fonte":"equipamento_educacao_ceu.52544","id":"ceu-52544"}},{"type":"Feature","geometry":{"type":"Point","coordinates":[-46.449538,-23.602487]},"properties":{"nome":"CEU EMEI Sao Mateus","endereco":"Curumatim, 201","bairro":"Parque Boa Esperanca","telefone":"27328129","tipo":"CEU EMEI","id_fonte":"equipamento_educacao_ceu.52546","id":"ceu-52546"}},{"type":"Feature","geometry":{"type":"Point","coordinates":[-46.424048,-23.538971]},"properties":{"nome":"CEU EMEI Theresinha Squinca da Silva Profa","endereco":"Jose Pinheiro Borges, 60","bairro":"Jardim Helena","telefone":"29602020","tipo":"CEU EMEI","id_fonte":"equipamento_educacao_ceu.52529","id":"ceu-52529"}},{"type":"Feature","geometry":{"type":"Point","coordinates":[-46.680523,-23.767487]},"properties":{"nome":"CEU EMEI Tres Lagos","endereco":"Maria Moura da Conceicao, S/n","bairro":"Jardim Belcito","telefone":"59765626","tipo":"CEU EMEI","id_fonte":"equipamento_educacao_ceu.52555","id":"ceu-52555"}},{"type":"Feature","geometry":{"type":"Point","coordinates":[-46.382043,-23.478371]},"properties":{"nome":"CEU EMEI Tres Pontes","endereco":"Capachos, 400","bairro":"Jardim Celia","telefone":"33976416","tipo":"CEU EMEI","id_fonte":"equipamento_educacao_ceu.55239","id":"ceu-55239"}},{"type":"Feature","geometry":{"type":"Point","coordinates":[-46.790117,-23.60113]},"properties":{"nome":"CEU EMEI Uirapuru","endereco":"Nazir Miguel, 849","bairro":"Jardim Paulo Vi","telefone":"37830835","tipo":"CEU EMEI","id_fonte":"equipamento_educacao_ceu.55350","id":"ceu-55350"}},{"type":"Feature","geometry":{"type":"Point","coordinates":[-46.762614,-23.481919]},"properties":{"nome":"CEU EMEI Vila Atlantica","endereco":"Coronel Jose Venancio Dias, 840","bairro":"Jaragua","telefone":"39018736","tipo":"CEU EMEI","id_fonte":"equipamento_educacao_ceu.52549","id":"ceu-52549"}},{"type":"Feature","geometry":{"type":"Point","coordinates":[-46.780574,-23.737907]},"properties":{"nome":"CEU EMEI Vila do Sol","endereco":"Dos Funcionarios Publicos, 369","bairro":"Vila do Sol","telefone":"33979860","tipo":"CEU EMEI","id_fonte":"equipamento_educacao_ceu.55220","id":"ceu-55220"}}]}