{"type":"FeatureCollection","metadata":{"camada":"cras","fonte":"GeoSampa (Prefeitura de São Paulo)","camada_fonte":"geoportal:equipamento_assistencia_social","atualizado_em":"2026-10-06","total":2},"features":[{"type":"Feature","geometry":{"type":"Point","coordinates":[-46.639689,-23.689316]},"properties":{"nome":"Centro Popular de Defesa dos Direitos Humanos Frei Tito de Alencar Lima","endereco":"Rua Herbert Maya Vasconcelos, 443","bairro":"No","telefone":"No","id_fonte":"equipamento_assistencia_social.30830","id":"cras-30830"}},{"type":"Feature","geometry":{"type":"Point","coordinates":[-46.646704,-23.669822]},"properties":{"nome":"Centro Popular de Defesa dos Direitos Humanos Frei Tito de Alencar Lima","endereco":"Rua Jacinto Paes, 57","bairro":"No","telefone":"No","id_fonte":"equipamento_assistencia_social.30860","id":"cras-30860"}}]}