{"type":"FeatureCollection","metadata":{"camada":"descomplica","fonte":"GeoSampa (Prefeitura de São Paulo)","camada_fonte":"geoportal:descomplica","atualizado_em":"2026-10-06","total":33},"features":[{"type":"Feature","geometry":{"type":"Point","coordinates":[-46.634128,-23.546537]},"properties":{"nome":"Descomplica SP 24 horas","endereco":"Rua Quinze de Novembro, 268","horario":"Dom a Dom 24h (exceto em pontos facultativos, feriados e emendas)","servicos":"Descomplica SP Digital; SPTrans; CATe; ENEL","id_fonte":"descomplica.276","id":"descomplica-276"}},{"type":"Feature","geometry":{"type":"Point","coordinates":[-46.5042,-23.5685]},"properties":{"nome":"Descomplica SP Aricanduva/Carrão","endereco":"Av. Aricanduva, 5777","horario":"Seg A Sex (8h As 17h)","servicos":"Descomplica SP Digital; SPTrans; CATe; ADESAMPA (Atendimento MEI); Subprefeitur; Junta Militar","id_fonte":"descomplica.262","id":"descomplica-262"}},{"type":"Feature","geometry":{"type":"Point","coordinates":[-46.7381,-23.5884]},"properties":{"nome":"Descomplica SP Butantã","endereco":"Rua Dr Ulpiano da Costa Manso, 201","horario":"Seg A Sex (8h As 17h)","servicos":"Descomplica SP Digital; SMADS (CadÚnico); Casa de Mediação; Direitos Humanos; Fazenda; Junta Militar; SPTRANS; Subprefeituras; ADESAMPA (Atendimento MEI);CATE; SABESP","id_fonte":"descomplica.255","id":"descomplica-255"}},{"type":"Feature","geometry":{"type":"Point","coordinates":[-46.7365,-23.6425]},"properties":{"nome":"Descomplica SP Campo Limpo","endereco":"AVENIDA GIOVANNI GRONCHI, 7143. 4º ANDAR","horario":"Seg A Sex (8h As 17h)","servicos":"Descomplica SP Digital; SMADS (CadÚnico); Direitos Humanos; SPTRANS; ADESAMPA (Atendimento MEI); CATE","id_fonte":"descomplica.284","id":"descomplica-284"}},{"type":"Feature","geometry":{"type":"Point","coordinates":[-46.7018,-23.7205]},"properties":{"nome":"Descomplica SP Capela do Socorro","endereco":"Rua Cassiano dos Santos, 499","horario":"Seg A Sex (8h As 17h)","servicos":"Descomplica SP Digital; SMADS (CadÚnico); Casa de Mediação; Direitos Humanos; Junta Militar; SPTRANS; Subprefeituras; ADESAMPA (Atendimento MEI); CATE; SABESP; Zoonozes","id_fonte":"descomplica.273","id":"descomplica-273"}},{"type":"Feature","geometry":{"type":"Point","coordinates":[-46.6665,-23.512]},"properties":{"nome":"Descomplica SP Casa Verde/Cachoeirinha","endereco":"Avenida Ordem e Progresso, 1001","horario":"Seg A Sex (8h As 17h)","servicos":"Descomplica SP Digital; SMADS; SPTRANS; CATE; ADESAMPA; Subprefeitura","id_fonte":"descomplica.283","id":"descomplica-283"}},{"type":"Feature","geometry":{"type":"Point","coordinates":[-46.6752,-23.6671]},"properties":{"nome":"Descomplica SP Cidade Ademar","endereco":"Avenida Yervant Kissajikian, 416","horario":"Seg A Sex (8h As 17h)","servicos":"Descomplica SP Digital; SMADS; SPTRANS; CATE; ADESAMPA (Atendimento MEI); Subprefeitura","id_fonte":"descomplica.269","id":"descomplica-269"}},{"type":"Feature","geometry":{"type":"Point","coordinates":[-46.415787,-23.58344]},"properties":{"nome":"Descomplica SP Cidade Tiradentes","endereco":"Estrada Iguatemi, 7001","horario":"Seg A Sex (8h As 17h)","servicos":"Descomplica SP Digital; SMADS (CadÚnico); Direitos Humanos e Cidadania; Alistamento e Serviço Militar; Mobilidade e Transportes; Subprefeituras; ADESAMPA (Atendimento MEI); SABESP; Habitação","id_fonte":"descomplica.268","id":"descomplica-268"}},{"type":"Feature","geometry":{"type":"Point","coordinates":[-46.4859,-23.497]},"properties":{"nome":"Descomplica SP Ermelino Matarazzo","endereco":"Rua Boturussu, 1180","horario":"Seg A Sex (8h As 17h)","servicos":"Descomplica SP Digital; SPTrans; CATe; ADESAMPA (Atendimento MEI); SMADS (CadÚnico); Subprefeitura","id_fonte":"descomplica.261","id":"descomplica-261"}},{"type":"Feature","geometry":{"type":"Point","coordinates":[-46.6648,-23.4766]},"properties":{"nome":"Descomplica SP Freguesia do Ó/ Brasilândia","endereco":"Avenida João Marcelino Branco,95","horario":"Seg A Sex (8h As 17h)","servicos":"Descomplica SP Digital; SMADS (CadÚnico); Junta Militar; SPTRANS; Subprefeitura; ADESAMPA (Atendimento MEI); CATE","id_fonte":"descomplica.259","id":"descomplica-259"}},{"type":"Feature","geometry":{"type":"Point","coordinates":[-46.412174,-23.542905]},"properties":{"nome":"Descomplica SP Guaianases","endereco":"Rua Copenhague, 92","horario":"Seg A Sex (8h As 17h)","servicos":"Descomplica SP Digital; SPTrans; CATe; ADESAMPA (Atendimento MEI); SMADS (CadÚnico); Subprefeitura; Mediação","id_fonte":"descomplica.256","id":"descomplica-256"}},{"type":"Feature","geometry":{"type":"Point","coordinates":[-46.6218,-23.5975]},"properties":{"nome":"Descomplica SP Ipiranga","endereco":"Rua Breno Ferraz do Amaral, 425","horario":"Seg A Sex (8h As 17h)","servicos":"Descomplica SP Digital; SMADS (CadÚnico); Casa de Mediação; Direitos Humanos; Junta Militar; SPTRANS; Subprefeituras; CATE; ADESAMPA (Atendimento MEI)","id_fonte":"descomplica.264","id":"descomplica-264"}},{"type":"Feature","geometry":{"type":"Point","coordinates":[-46.4171,-23.4946]},"properties":{"nome":"Descomplica SP Itaim Paulista","endereco":"Avenida Marechal Tito, 3012","horario":"Seg A Sex (8h As 17h)","servicos":"Descomplica SP Digital; SPTrans; CATe; ADESAMPA (Atendimento MEI); SMADS (CadÚnico); Subprefeitura; Mediação","id_fonte":"descomplica.257","id":"descomplica-257"}},{"type":"Feature","geometry":{"type":"Point","coordinates":[-46.4642,-23.5511]},"properties":{"nome":"Descomplica SP Itaquera","endereco":"Avenida Itaquera, 6735","horario":"Seg A Sex (8h As 17h)","servicos":"Descomplica SP Digital; SPTrans; CATe; ADESAMPA (Atendimento MEI); SMADS (CadÚnico); Subprefeitura; Junta Militar; Mediação","id_fonte":"descomplica.285","id":"descomplica-285"}},{"type":"Feature","geometry":{"type":"Point","coordinates":[-46.6404,-23.6479]},"properties":{"nome":"Descomplica SP Jabaquara","endereco":"Avenida Engenheiro Armando de Arruda Pereira, 2314","horario":"Seg A Sex (8h As 17h)","servicos":"Descomplica SP Digital; SMADS (CadÚnico); Casa de Mediação; Direitos Humanos; Fazenda; Junta Militar; SPTRANS; Subprefeituras; ADESAMPA (Atendimento MEI); CATE","id_fonte":"descomplica.272","id":"descomplica-272"}},{"type":"Feature","geometry":{"type":"Point","coordinates":[-46.5823,-23.4683]},"properties":{"nome":"Descomplica SP Jaçanã/Tremembé","endereco":"Avenida Luis Stamatis, 300","horario":"Seg A Sex (8h As 17h)","servicos":"Descomplica SP Digital; SMADS; SPTRANS; CATE; ADESAMPA (Atendimento MEI); Subprefeitura","id_fonte":"descomplica.279","id":"descomplica-279"}},{"type":"Feature","geometry":{"type":"Point","coordinates":[-46.6958,-23.5224]},"properties":{"nome":"Descomplica SP Lapa","endereco":"Rua Guaicurus, 1000","horario":"Seg A Sex (8h As 17h)","servicos":"Descomplica SP Digital; Direitos Humanos; Fazenda; Junta Militar; SMADS","id_fonte":"descomplica.278","id":"descomplica-278"}},{"type":"Feature","geometry":{"type":"Point","coordinates":[-46.6038,-23.5519]},"properties":{"nome":"Descomplica SP Mooca","endereco":"Rua Hipódromo, 1552","horario":"Seg A Sex (8h As 17h)","servicos":"Descomplica SP Digital; SMADS (CadÚnico); SPTRANS; ADESAMPA (Atendimento MEI); CATE; Fazenda; Subprefeitura","id_fonte":"descomplica.260","id":"descomplica-260"}},{"type":"Feature","geometry":{"type":"Point","coordinates":[-46.7284,-23.6676]},"properties":{"nome":"Descomplica SP M´Boi Mirim","endereco":"Avenida Guarapiranga, 1695","horario":"Seg A Sex (8h As 17h)","servicos":"Descomplica SP Digital; SMADS (CadÚnico); SPTRANS; ADESAMPA (Atendimento MEI); CATE; Junta Militar; Subprefeitura","id_fonte":"descomplica.263","id":"descomplica-263"}},{"type":"Feature","geometry":{"type":"Point","coordinates":[-46.735544,-23.815774]},"properties":{"nome":"Descomplica SP Parelheiros","endereco":"Estrada Ecoturística de Parelheiros, 5252","horario":"Seg A Sex (8h As 17h)","servicos":"Descomplica SP Digital; SPTrans; CATe; ADESAMPA (Atendimento MEI); SMADS (CadÚnico); Subprefeitura; Direitos Humanos; CPIR - Promoção da Igualdade Racial","id_fonte":"descomplica.281","id":"descomplica-281"}},{"type":"Feature","geometry":{"type":"Point","coordinates":[-46.521,-23.5187]},"properties":{"nome":"Descomplica SP Penha","endereco":"Rua Candapui, 492","horario":"Seg A Sex (8h As 17h)","servicos":"Descomplica SP Digital; SMADS (CadÚnico); Casa de Mediação; Direitos Humanos; Fazenda; Junta Militar; SPTRANS; Ouvidoria; Subprefeituras; ADESAMPA (Atendimento MEI); CATE; SABESP","id_fonte":"descomplica.270","id":"descomplica-270"}},{"type":"Feature","geometry":{"type":"Point","coordinates":[-46.752707,-23.407735]},"properties":{"nome":"Descomplica SP Perus/Anhanguera","endereco":"Rua Ylídio Figueiredo, 285","horario":"Seg A Sex (8h As 17h)","servicos":"Descomplica SP Digital; SMADS; SPTRANS; CATE; ADESAMPA (Atendimento MEI); Fazenda; Subprefeitura","id_fonte":"descomplica.271","id":"descomplica-271"}},{"type":"Feature","geometry":{"type":"Point","coordinates":[-46.7025,-23.5661]},"properties":{"nome":"Descomplica SP Pinheiros","endereco":"Avenida Dra. Ruth Cardoso, 7123","horario":"Seg A Sex (8h As 17h)","servicos":"Descomplica SP Digital; SPTrans; CATe; ADESAMPA (Atendimento MEI); Subprefeitura; Fazenda; ENEL","id_fonte":"descomplica.258","id":"descomplica-258"}},{"type":"Feature","geometry":{"type":"Point","coordinates":[-46.7125,-23.4964]},"properties":{"nome":"Descomplica SP Pirituba/Jaraguá","endereco":"Rua Paula Ferreira, 1708","horario":"Seg A Sex (8h As 17h)","servicos":"Descomplica SP Digital; SMADS; SPTrans; CATE; ADESAMPA; Junta Militar; Subprefeitura","id_fonte":"descomplica.280","id":"descomplica-280"}},{"type":"Feature","geometry":{"type":"Point","coordinates":[-46.6043,-23.4816]},"properties":{"nome":"Descomplica SP Santana/Tucuruvi","endereco":"Avenida Tucuruvi, 808","horario":"Seg A Sex (8h As 17h)","servicos":"Descomplica SP Digital; SMADS (CadÚnico); Casa de Mediação; Direitos Humanos; Fazenda; SPTRANS; Ouvidoria; Subprefeituras; ADESAMPA (Atendimento MEI); CATE","id_fonte":"descomplica.266","id":"descomplica-266"}},{"type":"Feature","geometry":{"type":"Point","coordinates":[-46.707,-23.6515]},"properties":{"nome":"Descomplica SP Santo Amaro","endereco":"Praça Floriano Peixoto, 54","horario":"Seg A Sex (8h As 17h)","servicos":"Descomplica SP Digital; SMADS; SPTRANS; CATE; ADESAMPA (Atendimento MEI); Junta Militar; Fazenda; Subprefeitura","id_fonte":"descomplica.277","id":"descomplica-277"}},{"type":"Feature","geometry":{"type":"Point","coordinates":[-46.502598,-23.615214]},"properties":{"nome":"Descomplica SP Sapopemba","endereco":"Rua Luís Juliani, 45","horario":"Seg A Sex (8h As 17h)","servicos":"Descomplica SP Digital","id_fonte":"descomplica.282","id":"descomplica-282"}},{"type":"Feature","geometry":{"type":"Point","coordinates":[-46.4695,-23.5999]},"properties":{"nome":"Descomplica SP São Mateus","endereco":"Avenida Ragueb Chohfi, 1400","horario":"Seg A Sex (8h As 17h)","servicos":"Descomplica SP Digital; SMADS (CadÚnico); Casa de Mediação; Direitos Humanos; Fazenda; Junta Militar; SPTRANS; Subprefeituras; ADESAMPA (Atendimento MEI); CATE","id_fonte":"descomplica.275","id":"descomplica-275"}},{"type":"Feature","geometry":{"type":"Point","coordinates":[-46.4513,-23.5005]},"properties":{"nome":"Descomplica SP São Miguel Paulista","endereco":"Rua Dona Ana Flora Pinheiro de Sousa, 76","horario":"Seg A Sex (8h As 17h)","servicos":"Descomplica SP Digital; SMADS (CadÚnico); Casa de Mediação; Direitos Humanos; Fazenda; Junta Militar; SPTRANS; Subprefeituras; ADESAMPA (Atendimento MEI); CATE; SABESP; COHAB; DETRAN","id_fonte":"descomplica.265","id":"descomplica-265"}},{"type":"Feature","geometry":{"type":"Point","coordinates":[-46.6347,-23.5481]},"properties":{"nome":"Descomplica SP Sé","endereco":"Rua Álvares Penteado, 49","horario":"Seg A Sex (8h As 17h)","servicos":"Descomplica SP Digital; Subprefeituras; ADESAMPA (Atendimento MEI)","id_fonte":"descomplica.254","id":"descomplica-254"}},{"type":"Feature","geometry":{"type":"Point","coordinates":[-46.5918,-23.5014]},"properties":{"nome":"Descomplica SP Vila Maria/Vila Guilherme","endereco":"Rua General Mendes, 111","horario":"Seg A Sex (8h As 17h)","servicos":"Descomplica SP Digital; SMADS (CadÚnico); Casa de Mediação; SPTRANS; Subprefeituras; ADESAMPA (Atendimento MEI); CATE","id_fonte":"descomplica.267","id":"descomplica-267"}},{"type":"Feature","geometry":{"type":"Point","coordinates":[-46.6496,-23.5984]},"properties":{"nome":"Descomplica SP Vila Mariana","endereco":"Rua José de Magalhães, 500","horario":"Seg A Sex (8h As 17h)","servicos":"Descomplica SP Digital; SPTRANS; CATE; ADESAMPA (Atendimento MEI); Junta Militar; Subprefeitura","id_fonte":"descomplica.274","id":"descomplica-274"}},{"type":"Feature","geometry":{"type":"Point","coordinates":[-46.5613,-23.5829]},"properties":{"nome":"Descomplica SP Vila Prudente","endereco":"Avenida do Oratório, 172","horario":"Seg A Sex (8h As 17h)","servicos":"Descomplica SP Digital; SMADS; SPTrans; CATE; ADESAMPA; Junta Militar; Subprefeitura","id_fonte":"descomplica.286","id":"descomplica-286"}}]}