{"type":"FeatureCollection","metadata":{"camada":"espacos_culturais","fonte":"GeoSampa (Prefeitura de São Paulo)","camada_fonte":"geoportal:equipamento_cultura_espacos_culturais","atualizado_em":"2026-10-06","total":35},"features":[{"type":"Feature","geometry":{"type":"Point","coordinates":[-46.732629,-23.587253]},"properties":{"nome":"Casa de Cultura - Butantã","endereco":"Avenida Junta Mizumoto, 13","bairro":"","telefone":"(11) 3744-4369 / (11) 3742-6218","id_fonte":"equipamento_cultura_espacos_culturais.40197","id":"espacos_culturais-40197"}},{"type":"Feature","geometry":{"type":"Point","coordinates":[-46.401691,-23.497777]},"properties":{"nome":"Casa de Cultura - Itaim Paulista","endereco":"Rua Monte Camberela, 490","bairro":"","telefone":"(11) 2568-3329 / (11) 2963-2742 / (11) 2025-1950","id_fonte":"equipamento_cultura_espacos_culturais.40218","id":"espacos_culturais-40218"}},{"type":"Feature","geometry":{"type":"Point","coordinates":[-46.742501,-23.673193]},"properties":{"nome":"Casa de Cultura - M'Boi Mirim","endereco":"Avenida Inácio Dias da Silva, s/n","bairro":"","telefone":"(11) 5514-3408","id_fonte":"equipamento_cultura_espacos_culturais.40225","id":"espacos_culturais-40225"}},{"type":"Feature","geometry":{"type":"Point","coordinates":[-46.73049,-23.83126]},"properties":{"nome":"Casa de Cultura - Parelheiros (fechado temporariamente)","endereco":"Rua Nazle Mauad Lufti, 169","bairro":"","telefone":"(11) 5921-1347","id_fonte":"equipamento_cultura_espacos_culturais.40202","id":"espacos_culturais-40202"}},{"type":"Feature","geometry":{"type":"Point","coordinates":[-46.487556,-23.588867]},"properties":{"nome":"Casa de Cultura - São Mateus","endereco":"Rua Monte Mandirá, 40","bairro":"","telefone":"(11) 3793-1054","id_fonte":"equipamento_cultura_espacos_culturais.40212","id":"espacos_culturais-40212"}},{"type":"Feature","geometry":{"type":"Point","coordinates":[-46.468231,-23.624955]},"properties":{"nome":"Casa de Cultura - São Rafael","endereco":"Rua Quaresma Delgado, 354","bairro":"","telefone":"(11) 3793-1071","id_fonte":"equipamento_cultura_espacos_culturais.40210","id":"espacos_culturais-40210"}},{"type":"Feature","geometry":{"type":"Point","coordinates":[-46.62229,-23.46084]},"properties":{"nome":"Casa de Cultura - Tremembé","endereco":"Rua Maria Amália Lopes de Azevedo, 190","bairro":"","telefone":"(11) 2991-4291","id_fonte":"equipamento_cultura_espacos_culturais.40203","id":"espacos_culturais-40203"}},{"type":"Feature","geometry":{"type":"Point","coordinates":[-46.698871,-23.469632]},"properties":{"nome":"Casa de Cultura Brasilândia - Sonia Franieck","endereco":"Praça Benedicta Cavalheiro, s/n","bairro":"","telefone":"(11) 3922-9123 / (11) 3922-7664","id_fonte":"equipamento_cultura_espacos_culturais.40226","id":"espacos_culturais-40226"}},{"type":"Feature","geometry":{"type":"Point","coordinates":[-46.776347,-23.633203]},"properties":{"nome":"Casa de Cultura Campo Limpo - Dora Nascimento","endereco":"Rua Aroldo de Azevedo, 100","bairro":"","telefone":"(11) 5841-8164","id_fonte":"equipamento_cultura_espacos_culturais.40194","id":"espacos_culturais-40194"}},{"type":"Feature","geometry":{"type":"Point","coordinates":[-46.707365,-23.650852]},"properties":{"nome":"Casa de Cultura Casa Amarela - Júlio Guerra","endereco":"Praça Floriano Peixoto, 130","bairro":"","telefone":"(11) 5523-6455","id_fonte":"equipamento_cultura_espacos_culturais.40198","id":"espacos_culturais-40198"}},{"type":"Feature","geometry":{"type":"Point","coordinates":[-46.405925,-23.582811]},"properties":{"nome":"Casa de Cultura Cidade Tiradentes - Hip Hop Leste","endereco":"R. Sara Kubistchek, 165","bairro":"","telefone":"(11) 3333-4896","id_fonte":"equipamento_cultura_espacos_culturais.40200","id":"espacos_culturais-40200"}},{"type":"Feature","geometry":{"type":"Point","coordinates":[-46.68213,-23.670614]},"properties":{"nome":"Casa de Cultura Cora Coralina - Hip Hop Sul","endereco":"R Sant'ana, 201","bairro":"","telefone":"(11) 98454-9138 / (11) 97548-2271","id_fonte":"equipamento_cultura_espacos_culturais.40205","id":"espacos_culturais-40205"}},{"type":"Feature","geometry":{"type":"Point","coordinates":[-46.699493,-23.501851]},"properties":{"nome":"Casa de Cultura Freguesia do Ó - Salvador Ligabue","endereco":"Largo da Matriz, 215","bairro":"","telefone":"(11) 3932-7113 / (11) 3931-8266","id_fonte":"equipamento_cultura_espacos_culturais.40207","id":"espacos_culturais-40207"}},{"type":"Feature","geometry":{"type":"Point","coordinates":[-46.401768,-23.550553]},"properties":{"nome":"Casa de Cultura Guaianases - Richard David Manuel Junior","endereco":"Rua Castelo de Leça, s/n","bairro":"","telefone":"(11) 2016-1961","id_fonte":"equipamento_cultura_espacos_culturais.40224","id":"espacos_culturais-40224"}},{"type":"Feature","geometry":{"type":"Point","coordinates":[-46.608731,-23.616117]},"properties":{"nome":"Casa de Cultura Ipiranga - Chico Science","endereco":"Avenida Pres. Tancredo Neves, 1265","bairro":"","telefone":"(11) 2969-7066 / (11) 2352-1138","id_fonte":"equipamento_cultura_espacos_culturais.40196","id":"espacos_culturais-40196"}},{"type":"Feature","geometry":{"type":"Point","coordinates":[-46.443166,-23.553209]},"properties":{"nome":"Casa de Cultura Itaquera - Raul Seixas (fechado temporariamente)","endereco":"Rua Murmúrios da Tarde, 211","bairro":"","telefone":"(11) 2521-6411","id_fonte":"equipamento_cultura_espacos_culturais.40206","id":"espacos_culturais-40206"}},{"type":"Feature","geometry":{"type":"Point","coordinates":[-46.70846,-23.646677]},"properties":{"nome":"Casa de Cultura Santo Amaro - Manoel Cardoso de Mendonça","endereco":"Praça Doutor Francisco Ferreira Lopes, 434","bairro":"","telefone":"(11) 5523-6455","id_fonte":"equipamento_cultura_espacos_culturais.40213","id":"espacos_culturais-40213"}},{"type":"Feature","geometry":{"type":"Point","coordinates":[-46.450461,-23.495931]},"properties":{"nome":"Casa de Cultura São Miguel - Antônio Marcos","endereco":"Rua Irineu Bonardi, 169","bairro":"","telefone":"(11) 2297-9177 / (11) 2037-5009","id_fonte":"equipamento_cultura_espacos_culturais.40201","id":"espacos_culturais-40201"}},{"type":"Feature","geometry":{"type":"Point","coordinates":[-46.6006,-23.507669]},"properties":{"nome":"Casa de Cultura Vila Guilherme - Casarão (fechado temporariamente)","endereco":"Praça Oscar Silva, s/n","bairro":"","telefone":"(11) 2909-0065","id_fonte":"equipamento_cultura_espacos_culturais.40227","id":"espacos_culturais-40227"}},{"type":"Feature","geometry":{"type":"Point","coordinates":[-46.683914,-23.587134]},"properties":{"nome":"Centro Cultural Diversidade","endereco":"Rua Lopes Neto, 206","bairro":"","telefone":"(11) 3079-3438","id_fonte":"equipamento_cultura_espacos_culturais.40215","id":"espacos_culturais-40215"}},{"type":"Feature","geometry":{"type":"Point","coordinates":[-46.692814,-23.736301]},"properties":{"nome":"Centro Cultural Grajaú","endereco":"Rua Professor Oscar Barreto Filho, 50","bairro":"","telefone":"(11) 5925-4943","id_fonte":"equipamento_cultura_espacos_culturais.40219","id":"espacos_culturais-40219"}},{"type":"Feature","geometry":{"type":"Point","coordinates":[-46.669881,-23.47582]},"properties":{"nome":"Centro Cultural Juventude (fechado temporariamente)","endereco":"Avenida Deputado Emílio Carlos, 3641","bairro":"","telefone":"(11) 3343-8972","id_fonte":"equipamento_cultura_espacos_culturais.40211","id":"espacos_culturais-40211"}},{"type":"Feature","geometry":{"type":"Point","coordinates":[-46.639049,-23.543452]},"properties":{"nome":"Centro Cultural Olido (fechado temporariamente)","endereco":"Avenida São João, 473","bairro":"","telefone":"(11) 2899-7374","id_fonte":"equipamento_cultura_espacos_culturais.40216","id":"espacos_culturais-40216"}},{"type":"Feature","geometry":{"type":"Point","coordinates":[-46.548454,-23.525841]},"properties":{"nome":"Centro Cultural Penha","endereco":"Largo do Rosário, 20","bairro":"","telefone":"(11) 2095-6480","id_fonte":"equipamento_cultura_espacos_culturais.40204","id":"espacos_culturais-40204"}},{"type":"Feature","geometry":{"type":"Point","coordinates":[-46.708762,-23.645025]},"properties":{"nome":"Centro Cultural Santo Amaro","endereco":"Avenida João Dias, 822","bairro":"","telefone":"(11) 5687-0513","id_fonte":"equipamento_cultura_espacos_culturais.40222","id":"espacos_culturais-40222"}},{"type":"Feature","geometry":{"type":"Point","coordinates":[-46.640274,-23.571262]},"properties":{"nome":"Centro Cultural São Paulo - CCSP","endereco":"Rua Vergueiro, 1000","bairro":"","telefone":"(11) 3397-4001 / (11) 3397-4002","id_fonte":"equipamento_cultura_espacos_culturais.40195","id":"espacos_culturais-40195"}},{"type":"Feature","geometry":{"type":"Point","coordinates":[-46.696536,-23.521592]},"properties":{"nome":"Centro Cultural Tendal da Lapa","endereco":"Rua Constança, 72","bairro":"","telefone":"(11) 3862-1837","id_fonte":"equipamento_cultura_espacos_culturais.40221","id":"espacos_culturais-40221"}},{"type":"Feature","geometry":{"type":"Point","coordinates":[-46.540303,-23.571734]},"properties":{"nome":"Centro Cultural Vila Formosa","endereco":"Avenida Renata, 163","bairro":"","telefone":"(11) 2216-1520","id_fonte":"equipamento_cultura_espacos_culturais.40199","id":"espacos_culturais-40199"}},{"type":"Feature","geometry":{"type":"Point","coordinates":[-46.641248,-23.561579]},"properties":{"nome":"Centro Cultural Vila Itororó","endereco":"R. Maestro Cardim, 60","bairro":"","telefone":"(11) 3253-0187","id_fonte":"equipamento_cultura_espacos_culturais.40193","id":"espacos_culturais-40193"}},{"type":"Feature","geometry":{"type":"Point","coordinates":[-46.644925,-23.650923]},"properties":{"nome":"Centro de Culturas Negras Jabaquara","endereco":"Rua Arsênio Tavolieri, 45","bairro":"","telefone":"(11) 5011-2421","id_fonte":"equipamento_cultura_espacos_culturais.40214","id":"espacos_culturais-40214"}},{"type":"Feature","geometry":{"type":"Point","coordinates":[-46.390143,-23.580487]},"properties":{"nome":"Centro de Formação Cultural da Cidade de Tiradentes","endereco":"R. Inácio Monteiro, 6900","bairro":"","telefone":"","id_fonte":"equipamento_cultura_espacos_culturais.40220","id":"espacos_culturais-40220"}},{"type":"Feature","geometry":{"type":"Point","coordinates":[-46.639049,-23.543452]},"properties":{"nome":"Centro de Memória do Circo - Galeria Olido","endereco":"Avenida São João, 473","bairro":"","telefone":"(11) 2899-7377","id_fonte":"equipamento_cultura_espacos_culturais.40217","id":"espacos_culturais-40217"}},{"type":"Feature","geometry":{"type":"Point","coordinates":[-46.638364,-23.546067]},"properties":{"nome":"Centro de Referência da Dança","endereco":"Baixos do Viaduto do Chá, s/n","bairro":"","telefone":"(11) 3214-3249","id_fonte":"equipamento_cultura_espacos_culturais.40223","id":"espacos_culturais-40223"}},{"type":"Feature","geometry":{"type":"Point","coordinates":[-46.74415,-23.60219]},"properties":{"nome":"Polo Cultural e Criativo - Chácara do Jockey","endereco":"Av. Prof. Francisco Morato, 5300","bairro":"","telefone":"","id_fonte":"equipamento_cultura_espacos_culturais.40209","id":"espacos_culturais-40209"}},{"type":"Feature","geometry":{"type":"Point","coordinates":[-46.637402,-23.544413]},"properties":{"nome":"Praça das Artes","endereco":"Avenida São João, 281","bairro":"","telefone":"","id_fonte":"equipamento_cultura_espacos_culturais.40208","id":"espacos_culturais-40208"}}]}