{"type":"FeatureCollection","metadata":{"camada":"hospitais","fonte":"GeoSampa (Prefeitura de São Paulo)","camada_fonte":"geoportal:equipamento_saude_hospital","atualizado_em":"2026-10-06","total":98},"features":[{"type":"Feature","geometry":{"type":"Point","coordinates":[-46.589968,-23.610308]},"properties":{"nome":"AME Dr. Luiz Roberto Barradas Barata","endereco":"Av. Almirante Delamare, 1534","bairro":"Cidade Nova Heliopolis","telefone":"2065-1550","tipo":"Estadual","id_fonte":"equipamento_saude_hospital.120108","id":"hospitais-120108"}},{"type":"Feature","geometry":{"type":"Point","coordinates":[-46.597427,-23.530206]},"properties":{"nome":"AME Maria Zelia","endereco":"R. Jequitinhonha, 360","bairro":"Belenzinho","telefone":"3583-1800","tipo":"Estadual","id_fonte":"equipamento_saude_hospital.120113","id":"hospitais-120113"}},{"type":"Feature","geometry":{"type":"Point","coordinates":[-46.644104,-23.548789]},"properties":{"nome":"Amb Espec Dr. Geraldo Paulo Bourrol (consolação)","endereco":"R. Martins Fontes, 208","bairro":"Centro","telefone":"2141-6200","tipo":"Estadual","id_fonte":"equipamento_saude_hospital.120093","id":"hospitais-120093"}},{"type":"Feature","geometry":{"type":"Point","coordinates":[-46.724093,-23.485973]},"properties":{"nome":"Caism Philippe Pinel","endereco":"Av. Raimundo Pereira de Magalhaes, 5214","bairro":"Pirituba","telefone":"3993-8227","tipo":"Estadual","id_fonte":"equipamento_saude_hospital.120115","id":"hospitais-120115"}},{"type":"Feature","geometry":{"type":"Point","coordinates":[-46.631841,-23.651552]},"properties":{"nome":"Caism- Dr Davi Capistrano - Hosp Est Agua Funda","endereco":"Av. Miguel Stefano, 3030","bairro":"Agua Funda","telefone":"5077-7893","tipo":"Estadual","id_fonte":"equipamento_saude_hospital.120114","id":"hospitais-120114"}},{"type":"Feature","geometry":{"type":"Point","coordinates":[-46.61914,-23.509256]},"properties":{"nome":"Centro Hospitalar do Sistema Penitenciário","endereco":"R. Dom Jose Mauricio, 15","bairro":"Carandiru","telefone":"","tipo":"Estadual","id_fonte":"equipamento_saude_hospital.120269","id":"hospitais-120269"}},{"type":"Feature","geometry":{"type":"Point","coordinates":[-46.618804,-23.469117]},"properties":{"nome":"Centro Medico Pmesp","endereco":"Av. Nova Cantareira, 3659","bairro":"Tremembe","telefone":"2109-3755","tipo":"Estadual","id_fonte":"equipamento_saude_hospital.120270","id":"hospitais-120270"}},{"type":"Feature","geometry":{"type":"Point","coordinates":[-46.643813,-23.534295]},"properties":{"nome":"Centro de Referência da Saude da Mulher - Hosp Est","endereco":"Av. Rio Branco, 1080","bairro":"Campos Eliseos","telefone":"3367-3900","tipo":"Estadual","id_fonte":"equipamento_saude_hospital.120263","id":"hospitais-120263"}},{"type":"Feature","geometry":{"type":"Point","coordinates":[-46.636054,-23.596656]},"properties":{"nome":"Centro de Referência e Treinamento Dst/aids - São Paulo","endereco":"R. Santa Cruz, 81","bairro":"Vil Mariana","telefone":"5087-9911","tipo":"Estadual","id_fonte":"equipamento_saude_hospital.120265","id":"hospitais-120265"}},{"type":"Feature","geometry":{"type":"Point","coordinates":[-46.568907,-23.430141]},"properties":{"nome":"Hosp Casa de David","endereco":"Rodovia Fernao Dias, Km 82","bairro":"Parque Edu Chaves","telefone":"2453-6600","tipo":"Privado","id_fonte":"equipamento_saude_hospital.120389","id":"hospitais-120389"}},{"type":"Feature","geometry":{"type":"Point","coordinates":[-46.643028,-23.513785]},"properties":{"nome":"Hosp da Aeronautica de SP","endereco":"Av. Olavo Fontoura, 1400","bairro":"Santana","telefone":"2224-7000","tipo":"Federal","id_fonte":"equipamento_saude_hospital.120390","id":"hospitais-120390"}},{"type":"Feature","geometry":{"type":"Point","coordinates":[-46.643526,-23.599944]},"properties":{"nome":"Hospital Amparo Maternal","endereco":"R. Loefgreen, 1901","bairro":"Vila Clementino","telefone":"5089-8277","tipo":"Privado","id_fonte":"equipamento_saude_hospital.120391","id":"hospitais-120391"}},{"type":"Feature","geometry":{"type":"Point","coordinates":[-46.61585,-23.473094]},"properties":{"nome":"Hospital Cantareira","endereco":"Av. Nova Cantareira, 3050","bairro":"Tucuruvi","telefone":"2203-3222","tipo":"Privado","id_fonte":"equipamento_saude_hospital.120392","id":"hospitais-120392"}},{"type":"Feature","geometry":{"type":"Point","coordinates":[-46.683939,-23.473232]},"properties":{"nome":"Hospital Dia - Brasilandia Fo","endereco":"R. Rui de Morais Apocalipse, 2","bairro":"Jd. do Tiro","telefone":"3923-6447 / 3923-6404","tipo":"Municipal","id_fonte":"equipamento_saude_hospital.120394","id":"hospitais-120394"}},{"type":"Feature","geometry":{"type":"Point","coordinates":[-46.732112,-23.5866]},"properties":{"nome":"Hospital Dia - Butantã","endereco":"R. João Guerra, 247","bairro":"Jd Peri Peri","telefone":"3744-8037","tipo":"Municipal","id_fonte":"equipamento_saude_hospital.120395","id":"hospitais-120395"}},{"type":"Feature","geometry":{"type":"Point","coordinates":[-46.766154,-23.631528]},"properties":{"nome":"Hospital Dia - Campo Limpo - Jardim Pirajussara","endereco":"Av. Amadeu da Silva Samelo, 423","bairro":"Jardim Martinica","telefone":"5843-5858 / 5841-9911","tipo":"Municipal","id_fonte":"equipamento_saude_hospital.120396","id":"hospitais-120396"}},{"type":"Feature","geometry":{"type":"Point","coordinates":[-46.659879,-23.695575]},"properties":{"nome":"Hospital Dia - Cidade Ademar","endereco":"R. Corrego Azul, 433","bairro":"Pedreira","telefone":"5555-8594","tipo":"Municipal","id_fonte":"equipamento_saude_hospital.120397","id":"hospitais-120397"}},{"type":"Feature","geometry":{"type":"Point","coordinates":[-46.608734,-23.58729]},"properties":{"nome":"Hospital Dia - Flavio Giannotti","endereco":"R. Xavier de Almeida, 210","bairro":"Ipiranga","telefone":"2062-7236","tipo":"Municipal","id_fonte":"equipamento_saude_hospital.120398","id":"hospitais-120398"}},{"type":"Feature","geometry":{"type":"Point","coordinates":[-46.386087,-23.489337]},"properties":{"nome":"Hospital Dia - Itaim Paulista","endereco":"Av. Marechal Tito, 6577","bairro":"Itaim Paulista","telefone":"4780-5046","tipo":"Municipal","id_fonte":"equipamento_saude_hospital.120399","id":"hospitais-120399"}},{"type":"Feature","geometry":{"type":"Point","coordinates":[-46.736533,-23.666669]},"properties":{"nome":"Hospital Dia - M Boi Mirim I - Jardim Ibirapuera","endereco":"R. Philipe de Vitry, 280","bairro":"Jd Santa Josefina","telefone":"2540-4444","tipo":"Municipal","id_fonte":"equipamento_saude_hospital.120400","id":"hospitais-120400"}},{"type":"Feature","geometry":{"type":"Point","coordinates":[-46.783469,-23.733507]},"properties":{"nome":"Hospital Dia - M Boi Mirim II - Vera Cruz","endereco":"Av. dos Funcionarios Publicos, 379","bairro":"Jardim Vera Cruz","telefone":"5898-5900 / 5898-5923","tipo":"Municipal","id_fonte":"equipamento_saude_hospital.120401","id":"hospitais-120401"}},{"type":"Feature","geometry":{"type":"Point","coordinates":[-46.575467,-23.57093]},"properties":{"nome":"Hospital Dia - Mooca","endereco":"R. Farol Paulistano, 410","bairro":"Alto da Mooca","telefone":"2021-4087 / 2021-7210","tipo":"Municipal","id_fonte":"equipamento_saude_hospital.120402","id":"hospitais-120402"}},{"type":"Feature","geometry":{"type":"Point","coordinates":[-46.704137,-23.649747]},"properties":{"nome":"Hospital Dia - Santo Amaro","endereco":"Av. Adolfo Pinheiro, 339","bairro":"Santo Amaro","telefone":"5555-6767","tipo":"Municipal","id_fonte":"equipamento_saude_hospital.120403","id":"hospitais-120403"}},{"type":"Feature","geometry":{"type":"Point","coordinates":[-46.489921,-23.592968]},"properties":{"nome":"Hospital Dia - São Mateus Dr Henrique C Goncalves","endereco":"R. Senador Mainard Gomes, S/n","bairro":"Jd Tiete","telefone":"2017-5530 / 2297-4162","tipo":"Municipal","id_fonte":"equipamento_saude_hospital.120404","id":"hospitais-120404"}},{"type":"Feature","geometry":{"type":"Point","coordinates":[-46.440799,-23.49665]},"properties":{"nome":"Hospital Dia - São Miguel Dr Tito Lopes da Silva","endereco":"R. João Augusto de Morais, 348","bairro":"São Miguel Paulista","telefone":"2956-8122","tipo":"Municipal","id_fonte":"equipamento_saude_hospital.120405","id":"hospitais-120405"}},{"type":"Feature","geometry":{"type":"Point","coordinates":[-46.604867,-23.51628]},"properties":{"nome":"Hospital Dia - Vila Guilherme","endereco":"R. João Ventura Batista, 615","bairro":"Vila Guilherme","telefone":"2901-5883","tipo":"Municipal","id_fonte":"equipamento_saude_hospital.120406","id":"hospitais-120406"}},{"type":"Feature","geometry":{"type":"Point","coordinates":[-46.583095,-23.581974]},"properties":{"nome":"Hospital Dia - Vila Prudente","endereco":"Praça do Centenário de Vila Prudente, 108","bairro":"Vl Prudente","telefone":"2274-2523","tipo":"Municipal","id_fonte":"equipamento_saude_hospital.120407","id":"hospitais-120407"}},{"type":"Feature","geometry":{"type":"Point","coordinates":[-46.550441,-23.52646]},"properties":{"nome":"Hospital Dia Penha - Hatiro Shimomoto","endereco":"Praça Nossa Senhora da Penha, 55","bairro":"Penha","telefone":"2092-8154","tipo":"Municipal","id_fonte":"equipamento_saude_hospital.120408","id":"hospitais-120408"}},{"type":"Feature","geometry":{"type":"Point","coordinates":[-46.667538,-23.555778]},"properties":{"nome":"Hospital Estadual - Inst Infectologia Emilio Ribas","endereco":"Av. Dr Arnaldo, 165","bairro":"Cerqueira Cesar","telefone":"3896-1200","tipo":"Estadual","id_fonte":"equipamento_saude_hospital.120411","id":"hospitais-120411"}},{"type":"Feature","geometry":{"type":"Point","coordinates":[-46.652133,-23.584659]},"properties":{"nome":"Hospital Estadual Dante Pazzanese","endereco":"Av. Dr Dante Pazzanese, 500","bairro":"Ibirapuera","telefone":"5549-1538","tipo":"Estadual","id_fonte":"equipamento_saude_hospital.120412","id":"hospitais-120412"}},{"type":"Feature","geometry":{"type":"Point","coordinates":[-46.651563,-23.570017]},"properties":{"nome":"Hospital Estadual Euryclides de Jesus Zerbini","endereco":"Av. Brigadeiro Luis Antonio, 2651","bairro":"Jardim Paulista","telefone":"3170-6329","tipo":"Estadual","id_fonte":"equipamento_saude_hospital.120425","id":"hospitais-120425"}},{"type":"Feature","geometry":{"type":"Point","coordinates":[-46.593611,-23.608567]},"properties":{"nome":"Hospital Estadual Heliópolis","endereco":"R. Cônego Xavier, 276","bairro":"Cidade Nova Heliopolis","telefone":"2274-7600","tipo":"Estadual","id_fonte":"equipamento_saude_hospital.120426","id":"hospitais-120426"}},{"type":"Feature","geometry":{"type":"Point","coordinates":[-46.585229,-23.551899]},"properties":{"nome":"Hospital Estadual Infantil Candido Fontoura","endereco":"R. Siqueira Bueno, 1757","bairro":"Agua Rasa","telefone":"2603-5300","tipo":"Estadual","id_fonte":"equipamento_saude_hospital.120427","id":"hospitais-120427"}},{"type":"Feature","geometry":{"type":"Point","coordinates":[-46.710893,-23.592845]},"properties":{"nome":"Hospital Estadual Infantil Darcy Vargas","endereco":"R. Dr Serafico de Assis Carvalho, 34","bairro":"Jardim Guedala","telefone":"3723-3700","tipo":"Estadual","id_fonte":"equipamento_saude_hospital.120428","id":"hospitais-120428"}},{"type":"Feature","geometry":{"type":"Point","coordinates":[-46.611574,-23.584209]},"properties":{"nome":"Hospital Estadual Ipiranga","endereco":"Av. Nazaré, 28","bairro":"Ipiranga","telefone":"2067-7799","tipo":"Estadual","id_fonte":"equipamento_saude_hospital.120429","id":"hospitais-120429"}},{"type":"Feature","geometry":{"type":"Point","coordinates":[-46.513771,-23.609852]},"properties":{"nome":"Hospital Estadual Local de Sapopemba","endereco":"R. Iamacaru, 45","bairro":"Sapopemba","telefone":"2024-7510","tipo":"Estadual","id_fonte":"equipamento_saude_hospital.120430","id":"hospitais-120430"}},{"type":"Feature","geometry":{"type":"Point","coordinates":[-46.701975,-23.706816]},"properties":{"nome":"Hospital Estadual Maternidade Interlagos","endereco":"R. Leonor Alvim, 211","bairro":"Jd Leblon","telefone":"5668-1232","tipo":"Estadual","id_fonte":"equipamento_saude_hospital.120431","id":"hospitais-120431"}},{"type":"Feature","geometry":{"type":"Point","coordinates":[-46.638365,-23.588146]},"properties":{"nome":"Hospital Estadual Psiquiátrico de Vila Mariana","endereco":"R. Major Maragliano, 241","bairro":"Vila Mariana","telefone":"3466-2100","tipo":"Estadual","id_fonte":"equipamento_saude_hospital.120432","id":"hospitais-120432"}},{"type":"Feature","geometry":{"type":"Point","coordinates":[-46.705822,-23.655524]},"properties":{"nome":"Hospital Estadual Regional Sul","endereco":"R. General Roberto Alves de Carvalho Filho, 270","bairro":"Santo Amaro","telefone":"5694-8200","tipo":"Estadual","id_fonte":"equipamento_saude_hospital.120433","id":"hospitais-120433"}},{"type":"Feature","geometry":{"type":"Point","coordinates":[-46.719688,-23.565062]},"properties":{"nome":"Hospital Estadual Vital Brazil","endereco":"Av. Vital Brazil, 1500","bairro":"Butanta","telefone":"3726-7962","tipo":"Estadual","id_fonte":"equipamento_saude_hospital.120434","id":"hospitais-120434"}},{"type":"Feature","geometry":{"type":"Point","coordinates":[-46.405494,-23.552683]},"properties":{"nome":"Hospital Estadual de Guaianases - Jesus Teixeira da Costa","endereco":"Av. Miguel Achiole da Fonseca, 1092","bairro":"Jardim Sao Paulo","telefone":"2257-6972","tipo":"Estadual","id_fonte":"equipamento_saude_hospital.120413","id":"hospitais-120413"}},{"type":"Feature","geometry":{"type":"Point","coordinates":[-46.388622,-23.492536]},"properties":{"nome":"Hospital Estadual de Itaim Paulista","endereco":"Av. Marechal Tito, 6035","bairro":"Itaim Paulista","telefone":"2563-6300","tipo":"Estadual","id_fonte":"equipamento_saude_hospital.120414","id":"hospitais-120414"}},{"type":"Feature","geometry":{"type":"Point","coordinates":[-46.676783,-23.681728]},"properties":{"nome":"Hospital Estadual de Pedreira","endereco":"R. João Francisco de Moura, 251","bairro":"Vila Campo Grande","telefone":"5613-5900","tipo":"Estadual","id_fonte":"equipamento_saude_hospital.120415","id":"hospitais-120415"}},{"type":"Feature","geometry":{"type":"Point","coordinates":[-46.493075,-23.610677]},"properties":{"nome":"Hospital Estadual de Sapopemba","endereco":"R. Manoel Franca dos Santos, 174","bairro":"Jardim Sapopemba","telefone":"2014-6000","tipo":"Estadual","id_fonte":"equipamento_saude_hospital.120417","id":"hospitais-120417"}},{"type":"Feature","geometry":{"type":"Point","coordinates":[-46.486287,-23.595116]},"properties":{"nome":"Hospital Estadual de São Mateus - Manoel Bifulco","endereco":"R. Angelo de Candia, 540","bairro":"Sao Mateus","telefone":"2014-5148","tipo":"Estadual","id_fonte":"equipamento_saude_hospital.120416","id":"hospitais-120416"}},{"type":"Feature","geometry":{"type":"Point","coordinates":[-46.717665,-23.443665]},"properties":{"nome":"Hospital Estadual de Taipas - Katia de Souza Rodrigues","endereco":"Av. Elisio Teixeira Leite, 6999","bairro":"Parada de Taipas","telefone":"3973-0400 / 3973-0416","tipo":"Estadual","id_fonte":"equipamento_saude_hospital.120418","id":"hospitais-120418"}},{"type":"Feature","geometry":{"type":"Point","coordinates":[-46.56157,-23.593353]},"properties":{"nome":"Hospital Estadual de Vila Alpina","endereco":"Av. Francisco Falconi, 1501","bairro":"Vila Alpina","telefone":"2318-2100","tipo":"Estadual","id_fonte":"equipamento_saude_hospital.120419","id":"hospitais-120419"}},{"type":"Feature","geometry":{"type":"Point","coordinates":[-46.672497,-23.481524]},"properties":{"nome":"Hospital Estadual de Vila Nova Cachoeirinha","endereco":"Av. Deputado Emilio Carlos, 3000","bairro":"Vl Nova Cahoeirinha","telefone":"3859-4822","tipo":"Estadual","id_fonte":"equipamento_saude_hospital.120420","id":"hospitais-120420"}},{"type":"Feature","geometry":{"type":"Point","coordinates":[-46.695,-23.48535]},"properties":{"nome":"Hospital Estadual de Vila Penteado - Dr Jose Pangella","endereco":"Av. Ministro Petronio Portela, 1642","bairro":"Jd Iracema","telefone":"3976-9911","tipo":"Estadual","id_fonte":"equipamento_saude_hospital.120421","id":"hospitais-120421"}},{"type":"Feature","geometry":{"type":"Point","coordinates":[-46.690774,-23.729279]},"properties":{"nome":"Hospital Estadual do Grajau - Prof Liber John Alphonse Di Dio","endereco":"R. Francisco Octavio Pacca, 180","bairro":"Parque das Nacoes","telefone":"3544-9443 / 3544-9444 R:322","tipo":"Estadual","id_fonte":"equipamento_saude_hospital.120422","id":"hospitais-120422"}},{"type":"Feature","geometry":{"type":"Point","coordinates":[-46.631433,-23.484058]},"properties":{"nome":"Hospital Estadual do Mandaqui","endereco":"R. Voluntarios da Patria, 4301","bairro":"Santana","telefone":"2281-5000 / 2281-5051","tipo":"Estadual","id_fonte":"equipamento_saude_hospital.120423","id":"hospitais-120423"}},{"type":"Feature","geometry":{"type":"Point","coordinates":[-46.588472,-23.536122]},"properties":{"nome":"Hospital Estadual e Maternidade Leonor Mendes de Barros","endereco":"Av. Celso Garcia, 2477","bairro":"Belenzinho","telefone":"2847-7000","tipo":"Estadual","id_fonte":"equipamento_saude_hospital.120424","id":"hospitais-120424"}},{"type":"Feature","geometry":{"type":"Point","coordinates":[-46.613521,-23.569661]},"properties":{"nome":"Hospital Militar de Area de São Paulo","endereco":"R. Ouvidor Portugal, 230","bairro":"Cambuci","telefone":"","tipo":"Federal","id_fonte":"equipamento_saude_hospital.120435","id":"hospitais-120435"}},{"type":"Feature","geometry":{"type":"Point","coordinates":[-46.698152,-23.475935]},"properties":{"nome":"Hospital Municipal Brasilândia - Adib Jatene","endereco":"Av. Michihisa Murata, 150","bairro":"Jardim Maristela","telefone":"3386-4243","tipo":"Municipal","id_fonte":"equipamento_saude_hospital.120436","id":"hospitais-120436"}},{"type":"Feature","geometry":{"type":"Point","coordinates":[-46.748645,-23.64856]},"properties":{"nome":"Hospital Municipal Campo Limpo - Dr. Fernando Mauro Pires da Rocha","endereco":"Estrada de Itapecerica, 1661","bairro":"Campo Limpo","telefone":"5178-2450","tipo":"Municipal","id_fonte":"equipamento_saude_hospital.120437","id":"hospitais-120437"}},{"type":"Feature","geometry":{"type":"Point","coordinates":[-46.713403,-23.730042]},"properties":{"nome":"Hospital Municipal Capela do Socorro","endereco":"R. Cassio de Campos Nogueira, 2031","bairro":"Jardim das Imbuias","telefone":"5527-1060","tipo":"Municipal","id_fonte":"equipamento_saude_hospital.120438","id":"hospitais-120438"}},{"type":"Feature","geometry":{"type":"Point","coordinates":[-46.403598,-23.597277]},"properties":{"nome":"Hospital Municipal Cidade Tiradentes - Carmen Prudente","endereco":"Av. dos Metalurgicos, 1797","bairro":"Cidade Tiradentes","telefone":"2559-6200","tipo":"Municipal","id_fonte":"equipamento_saude_hospital.120439","id":"hospitais-120439"}},{"type":"Feature","geometry":{"type":"Point","coordinates":[-46.590292,-23.571907]},"properties":{"nome":"Hospital Municipal Dr. Ignácio Proença de Gouvea","endereco":"R. Juventus, 562","bairro":"Parque da Mooca","telefone":"5178-0000 / 3394-7810","tipo":"Municipal","id_fonte":"equipamento_saude_hospital.120440","id":"hospitais-120440"}},{"type":"Feature","geometry":{"type":"Point","coordinates":[-46.472155,-23.500191]},"properties":{"nome":"Hospital Municipal Ermelino Matarazzo - Prof. Dr. Alípio Correa Netto","endereco":"Alameda Rodrigo de Brum, 1989","bairro":"Vila Paranaguá","telefone":"5178-2000","tipo":"Municipal","id_fonte":"equipamento_saude_hospital.120442","id":"hospitais-120442"}},{"type":"Feature","geometry":{"type":"Point","coordinates":[-46.653292,-23.656791]},"properties":{"nome":"Hospital Municipal Gilson de Cassia Marques de Carvalho","endereco":"Av. Santa Catarina, 2785","bairro":"Vila Mascote","telefone":"","tipo":"Municipal","id_fonte":"equipamento_saude_hospital.120443","id":"hospitais-120443"}},{"type":"Feature","geometry":{"type":"Point","coordinates":[-46.742163,-23.706138]},"properties":{"nome":"Hospital Municipal Guarapiranga","endereco":"Estrada da Riviera, 4742","bairro":"Riviera Paulista","telefone":"3113-9592","tipo":"Municipal","id_fonte":"equipamento_saude_hospital.120444","id":"hospitais-120444"}},{"type":"Feature","geometry":{"type":"Point","coordinates":[-46.647347,-23.560183]},"properties":{"nome":"Hospital Municipal Infantil Menino Jesus","endereco":"R. dos Ingleses, 258","bairro":"Bela Vista","telefone":"3016-0500","tipo":"Municipal","id_fonte":"equipamento_saude_hospital.120445","id":"hospitais-120445"}},{"type":"Feature","geometry":{"type":"Point","coordinates":[-46.44479,-23.53088]},"properties":{"nome":"Hospital Municipal Itaquera/planalto - Prof. Dr. Waldomiro de Paula","endereco":"R. Augusto Carlos Baumann, 1074","bairro":"Itaquera","telefone":"5178-0500","tipo":"Municipal","id_fonte":"equipamento_saude_hospital.120446","id":"hospitais-120446"}},{"type":"Feature","geometry":{"type":"Point","coordinates":[-46.645403,-23.653383]},"properties":{"nome":"Hospital Municipal Jabaquara - Dr. Artur Ribeiro de Saboya","endereco":"Av. Francisco de Paula Quintanilha Ribeiro, 860","bairro":"Vila Campestre","telefone":"5178-1000","tipo":"Municipal","id_fonte":"equipamento_saude_hospital.120447","id":"hospitais-120447"}},{"type":"Feature","geometry":{"type":"Point","coordinates":[-46.514409,-23.587581]},"properties":{"nome":"Hospital Municipal Jardim Iva - Dr Benedicto Montenegro","endereco":"R. Antonio Lázaro, 226","bairro":"Jd Iva","telefone":"5178-2762","tipo":"Municipal","id_fonte":"equipamento_saude_hospital.120448","id":"hospitais-120448"}},{"type":"Feature","geometry":{"type":"Point","coordinates":[-46.775098,-23.691806]},"properties":{"nome":"Hospital Municipal M Boi Mirim - Dr Moyses Deustsch","endereco":"Estrada M Boi Mirim, 5203","bairro":"Jardim Angela","telefone":"5832-2554","tipo":"Municipal","id_fonte":"equipamento_saude_hospital.120449","id":"hospitais-120449"}},{"type":"Feature","geometry":{"type":"Point","coordinates":[-46.764717,-23.578028]},"properties":{"nome":"Hospital Municipal Maternidade Jardim Sarah - Prof. Mario Degni","endereco":"R. Lucas de Leyde, 257","bairro":"Vila Antonio","telefone":"5178-1750","tipo":"Municipal","id_fonte":"equipamento_saude_hospital.120450","id":"hospitais-120450"}},{"type":"Feature","geometry":{"type":"Point","coordinates":[-46.725401,-23.82289]},"properties":{"nome":"Hospital Municipal Parelheiros - Josanias Castanha Braga","endereco":"R. Euzebio Coghi, 841","bairro":"Jardim Roschel","telefone":"","tipo":"Municipal","id_fonte":"equipamento_saude_hospital.120451","id":"hospitais-120451"}},{"type":"Feature","geometry":{"type":"Point","coordinates":[-46.727648,-23.484607]},"properties":{"nome":"Hospital Municipal Pirituba - Dr. José Soares Hungria","endereco":"Av. Menotti Laudísio, 100","bairro":"Pirituba","telefone":"5178-0750","tipo":"Municipal","id_fonte":"equipamento_saude_hospital.120452","id":"hospitais-120452"}},{"type":"Feature","geometry":{"type":"Point","coordinates":[-46.701408,-23.523754]},"properties":{"nome":"Hospital Municipal Sorocabana","endereco":"R. Faustolo, 1633","bairro":"Vila Romana","telefone":"3879-3090","tipo":"Municipal","id_fonte":"equipamento_saude_hospital.120454","id":"hospitais-120454"}},{"type":"Feature","geometry":{"type":"Point","coordinates":[-46.440204,-23.497067]},"properties":{"nome":"Hospital Municipal São Miguel - Tide Setubal","endereco":"R. Dr José Guilherme Eiras, 123","bairro":"São Miguel Paulista","telefone":"5178-1250","tipo":"Municipal","id_fonte":"equipamento_saude_hospital.120453","id":"hospitais-120453"}},{"type":"Feature","geometry":{"type":"Point","coordinates":[-46.566291,-23.533267]},"properties":{"nome":"Hospital Municipal Tatuapé - Dr. Carmino Caricchio","endereco":"Av. Celso Garcia, 4815","bairro":"Tatuapé","telefone":"5178-1500","tipo":"Municipal","id_fonte":"equipamento_saude_hospital.120455","id":"hospitais-120455"}},{"type":"Feature","geometry":{"type":"Point","coordinates":[-46.562067,-23.521924]},"properties":{"nome":"Hospital Municipal Vila Maria - Vereador José Storopolli","endereco":"R. Francisco Fanganiello, 127","bairro":"Parque Novo Mundo","telefone":"2207-9000","tipo":"Municipal","id_fonte":"equipamento_saude_hospital.120456","id":"hospitais-120456"}},{"type":"Feature","geometry":{"type":"Point","coordinates":[-46.501634,-23.542285]},"properties":{"nome":"Hospital Municipal Vila Nhocuné - Dr. Alexandre Zaio","endereco":"R. Alves Maldonado, 128","bairro":"Vila Nhocune","telefone":"5178-0250","tipo":"Municipal","id_fonte":"equipamento_saude_hospital.120457","id":"hospitais-120457"}},{"type":"Feature","geometry":{"type":"Point","coordinates":[-46.671088,-23.479973]},"properties":{"nome":"Hospital Municipal e Matern Esc Cachoeirinha - Dr. Mário de M A da Silva","endereco":"Av. Deputado Emilio Carlos, 3100","bairro":"Vila Nova Cachoeirinha","telefone":"3986-1000","tipo":"Municipal","id_fonte":"equipamento_saude_hospital.120441","id":"hospitais-120441"}},{"type":"Feature","geometry":{"type":"Point","coordinates":[-46.461011,-23.553059]},"properties":{"nome":"Hospital Santa Marcelina","endereco":"R. Santa Marcelina, 177","bairro":"Itaquera","telefone":"2070-6293","tipo":"Privado","id_fonte":"equipamento_saude_hospital.120458","id":"hospitais-120458"}},{"type":"Feature","geometry":{"type":"Point","coordinates":[-46.582052,-23.458745]},"properties":{"nome":"Hospital São Luiz Gonzaga","endereco":"R. Michel Ouchana, 94","bairro":"Jacana","telefone":"3466-1000","tipo":"Privado","id_fonte":"equipamento_saude_hospital.120459","id":"hospitais-120459"}},{"type":"Feature","geometry":{"type":"Point","coordinates":[-46.643699,-23.597479]},"properties":{"nome":"Hospital São Paulo - Unifesp","endereco":"R. Napoleão de Barros, 715","bairro":"Vil Clementino","telefone":"5572-1922","tipo":"Privado","id_fonte":"equipamento_saude_hospital.120460","id":"hospitais-120460"}},{"type":"Feature","geometry":{"type":"Point","coordinates":[-46.740293,-23.565528]},"properties":{"nome":"Hospital Universitario - Hu/usp","endereco":"Av. Prof. Lineu Prestes, 2565","bairro":"Butanta","telefone":"3091-9200 / 3091-9316","tipo":"Estadual","id_fonte":"equipamento_saude_hospital.120461","id":"hospitais-120461"}},{"type":"Feature","geometry":{"type":"Point","coordinates":[-46.669658,-23.557788]},"properties":{"nome":"Hospital das Clinicas - Hc da Fmusp","endereco":"R. Dr Ovidio Pires de Campos, 225","bairro":"Cerqueira Cesar","telefone":"2661-0000 / 3087-5456","tipo":"Estadual","id_fonte":"equipamento_saude_hospital.120393","id":"hospitais-120393"}},{"type":"Feature","geometry":{"type":"Point","coordinates":[-46.655547,-23.596971]},"properties":{"nome":"Hospital do Servidor Público Estadual Francisco Morato de Oliveira","endereco":"R. Pedro de Toledo, 1800","bairro":"Vila Clementino","telefone":"4573-8000","tipo":"Estadual","id_fonte":"equipamento_saude_hospital.120409","id":"hospitais-120409"}},{"type":"Feature","geometry":{"type":"Point","coordinates":[-46.639002,-23.567266]},"properties":{"nome":"Hospital do Servidor Público Municipal - Hspm","endereco":"R. Castro Alves, 60","bairro":"Liberdade","telefone":"3397-7700","tipo":"Municipal","id_fonte":"equipamento_saude_hospital.120410","id":"hospitais-120410"}},{"type":"Feature","geometry":{"type":"Point","coordinates":[-46.667093,-23.558049]},"properties":{"nome":"Instituto de Psiquiatria - Hc/fmusp","endereco":"R. Dr Ovídio Pires de Campos, 785","bairro":"Cerqueira Cesar","telefone":"3087-5456","tipo":"Estadual","id_fonte":"equipamento_saude_hospital.120464","id":"hospitais-120464"}},{"type":"Feature","geometry":{"type":"Point","coordinates":[-46.735387,-23.632371]},"properties":{"nome":"Instituto de Reabilitação Lucy Montoro","endereco":"R. Jandiatuba, 580","bairro":"Vila Andrade","telefone":"3905-8300","tipo":"Estadual","id_fonte":"equipamento_saude_hospital.120465","id":"hospitais-120465"}},{"type":"Feature","geometry":{"type":"Point","coordinates":[-46.650121,-23.542683]},"properties":{"nome":"Instituto do Cancer Arnaldo Vieira de Carvalho","endereco":"R. Dr. Cesario Motta Junior, 112","bairro":"Vila Buarque","telefone":"3367-3844","tipo":"Privado","id_fonte":"equipamento_saude_hospital.120466","id":"hospitais-120466"}},{"type":"Feature","geometry":{"type":"Point","coordinates":[-46.668253,-23.556796]},"properties":{"nome":"Instituto do Coração - Incor Hc/fmusp","endereco":"Av. Dr Eneas de Carvalho Aguiar, 44","bairro":"Cerqueira Cesar","telefone":"2661-5000","tipo":"Estadual","id_fonte":"equipamento_saude_hospital.120468","id":"hospitais-120468"}},{"type":"Feature","geometry":{"type":"Point","coordinates":[-46.668938,-23.555266]},"properties":{"nome":"Instituto do Câncer do Estado de São Paulo","endereco":"Av. Dr Arnaldo, 251","bairro":"Cerqueira Cesar","telefone":"3893-2000","tipo":"Estadual","id_fonte":"equipamento_saude_hospital.120467","id":"hospitais-120467"}},{"type":"Feature","geometry":{"type":"Point","coordinates":[-46.625604,-23.557016]},"properties":{"nome":"Pam Varzea do Carmo Nga - 63","endereco":"R. Leopoldo Miguez, 327","bairro":"Cambuci","telefone":"3385-7000","tipo":"Estadual","id_fonte":"equipamento_saude_hospital.120489","id":"hospitais-120489"}},{"type":"Feature","geometry":{"type":"Point","coordinates":[-46.649326,-23.542683]},"properties":{"nome":"Santa Casa de São Paulo","endereco":"R. Dr Cesario Motta Jr, 112","bairro":"Vila Buarque","telefone":"2176-7000","tipo":"Privado","id_fonte":"equipamento_saude_hospital.120520","id":"hospitais-120520"}},{"type":"Feature","geometry":{"type":"Point","coordinates":[-46.698017,-23.640119]},"properties":{"nome":"Unidade Ae Santo Amaro Cies","endereco":"Av. Santo Amaro, 6781","bairro":"Santo Amaro","telefone":"","tipo":"Privado","id_fonte":"equipamento_saude_hospital.120980","id":"hospitais-120980"}},{"type":"Feature","geometry":{"type":"Point","coordinates":[-46.60408,-23.48146]},"properties":{"nome":"Unidade Brasilandia Cies","endereco":"Av. Tucuruvi, 808","bairro":"Tucuruvi","telefone":"","tipo":"Privado","id_fonte":"equipamento_saude_hospital.120981","id":"hospitais-120981"}},{"type":"Feature","geometry":{"type":"Point","coordinates":[-46.40411,-23.597341]},"properties":{"nome":"Unidade Cidade de Tiradentes Cies","endereco":"Av. dos Metalurgicos, 1797","bairro":"Cidade Tiradentes","telefone":"","tipo":"Privado","id_fonte":"equipamento_saude_hospital.120982","id":"hospitais-120982"}},{"type":"Feature","geometry":{"type":"Point","coordinates":[-46.538574,-23.545658]},"properties":{"nome":"Unidade Hd Carrao Cies","endereco":"R. Odete Gomes Barreto, 419","bairro":"Vila Carrao","telefone":"","tipo":"Privado","id_fonte":"equipamento_saude_hospital.120985","id":"hospitais-120985"}},{"type":"Feature","geometry":{"type":"Point","coordinates":[-46.717351,-23.492032]},"properties":{"nome":"Unidade Hd Pirituba Cies","endereco":"R. Celso Vieira, 205","bairro":"Vila Pereira Bareto","telefone":"","tipo":"Privado","id_fonte":"equipamento_saude_hospital.120986","id":"hospitais-120986"}},{"type":"Feature","geometry":{"type":"Point","coordinates":[-46.709468,-23.65493]},"properties":{"nome":"Unidade Hd Santo Amaro Cies","endereco":"R. Padre José Maria, 555","bairro":"Santo Amaro","telefone":"","tipo":"Privado","id_fonte":"equipamento_saude_hospital.120987","id":"hospitais-120987"}},{"type":"Feature","geometry":{"type":"Point","coordinates":[-46.492004,-23.554821]},"properties":{"nome":"Unidade Itaquera Cies","endereco":"Av. Osvaldo Valle Cordeiro, 245","bairro":"Jd Brasilia","telefone":"","tipo":"Privado","id_fonte":"equipamento_saude_hospital.120988","id":"hospitais-120988"}},{"type":"Feature","geometry":{"type":"Point","coordinates":[-46.471732,-23.606713]},"properties":{"nome":"Unidade Sao Mateus Cies","endereco":"Av. Ragueb Chohfi, 730","bairro":"Jardim Tres Marias","telefone":"","tipo":"Privado","id_fonte":"equipamento_saude_hospital.120995","id":"hospitais-120995"}},{"type":"Feature","geometry":{"type":"Point","coordinates":[-46.604373,-23.481435]},"properties":{"nome":"Unidade Tucuruvi Cies","endereco":"Av. Tucuruvi, 808","bairro":"Tucuruvi","telefone":"","tipo":"Privado","id_fonte":"equipamento_saude_hospital.120996","id":"hospitais-120996"}}]}