{"type":"FeatureCollection","metadata":{"camada":"metro","fonte":"GeoSampa (Prefeitura de São Paulo)","camada_fonte":"geoportal:estacao_metro","atualizado_em":"2026-10-06","total":85},"features":[{"type":"Feature","geometry":{"type":"Point","coordinates":[-46.6518,-23.597636]},"properties":{"nome":"AACD-Servidor","linhas":"Lilas","id_fonte":"estacao_metro.78","id":"metro-78"}},{"type":"Feature","geometry":{"type":"Point","coordinates":[-46.703884,-23.649653]},"properties":{"nome":"Adolfo Pinheiro","linhas":"Lilas","id_fonte":"estacao_metro.69","id":"metro-69"}},{"type":"Feature","geometry":{"type":"Point","coordinates":[-46.699056,-23.641501]},"properties":{"nome":"Alto da Boa Vista","linhas":"Lilas","id_fonte":"estacao_metro.70","id":"metro-70"}},{"type":"Feature","geometry":{"type":"Point","coordinates":[-46.61237,-23.602195]},"properties":{"nome":"Alto do Ipiranga","linhas":"Verde","id_fonte":"estacao_metro.29","id":"metro-29"}},{"type":"Feature","geometry":{"type":"Point","coordinates":[-46.638627,-23.581355]},"properties":{"nome":"Ana Rosa","linhas":"Verde, Azul","id_fonte":"estacao_metro.26","id":"metro-26"}},{"type":"Feature","geometry":{"type":"Point","coordinates":[-46.638886,-23.547948]},"properties":{"nome":"Anhangabaú","linhas":"Vermelha","id_fonte":"estacao_metro.14","id":"metro-14"}},{"type":"Feature","geometry":{"type":"Point","coordinates":[-46.62934,-23.5255]},"properties":{"nome":"Armênia","linhas":"Azul","id_fonte":"estacao_metro.40","id":"metro-40"}},{"type":"Feature","geometry":{"type":"Point","coordinates":[-46.48459,-23.540288]},"properties":{"nome":"Artur Alvim","linhas":"Vermelha","id_fonte":"estacao_metro.2","id":"metro-2"}},{"type":"Feature","geometry":{"type":"Point","coordinates":[-46.61711,-23.492417]},"properties":{"nome":"Ayrton Senna-Jardim São Paulo","linhas":"Azul","id_fonte":"estacao_metro.36","id":"metro-36"}},{"type":"Feature","geometry":{"type":"Point","coordinates":[-46.590108,-23.543023]},"properties":{"nome":"Belém","linhas":"Vermelha","id_fonte":"estacao_metro.9","id":"metro-9"}},{"type":"Feature","geometry":{"type":"Point","coordinates":[-46.693015,-23.633361]},"properties":{"nome":"Borba Gato","linhas":"Lilas","id_fonte":"estacao_metro.71","id":"metro-71"}},{"type":"Feature","geometry":{"type":"Point","coordinates":[-46.60754,-23.546476]},"properties":{"nome":"Bresser-Mooca","linhas":"Vermelha","id_fonte":"estacao_metro.10","id":"metro-10"}},{"type":"Feature","geometry":{"type":"Point","coordinates":[-46.647354,-23.56888]},"properties":{"nome":"Brigadeiro","linhas":"Verde","id_fonte":"estacao_metro.24","id":"metro-24"}},{"type":"Feature","geometry":{"type":"Point","coordinates":[-46.688028,-23.627253]},"properties":{"nome":"Brooklin","linhas":"Lilas","id_fonte":"estacao_metro.72","id":"metro-72"}},{"type":"Feature","geometry":{"type":"Point","coordinates":[-46.615909,-23.547884]},"properties":{"nome":"Brás","linhas":"Vermelha","id_fonte":"estacao_metro.11","id":"metro-11"}},{"type":"Feature","geometry":{"type":"Point","coordinates":[-46.70824,-23.571993]},"properties":{"nome":"Butantã","linhas":"Amarela","id_fonte":"estacao_metro.84","id":"metro-84"}},{"type":"Feature","geometry":{"type":"Point","coordinates":[-46.537693,-23.595413]},"properties":{"nome":"Camilo Haddad","linhas":"Prata","id_fonte":"estacao_metro.62","id":"metro-62"}},{"type":"Feature","geometry":{"type":"Point","coordinates":[-46.682319,-23.618974]},"properties":{"nome":"Campo Belo","linhas":"Lilas","id_fonte":"estacao_metro.89","id":"metro-89"}},{"type":"Feature","geometry":{"type":"Point","coordinates":[-46.758961,-23.649384]},"properties":{"nome":"Campo Limpo","linhas":"Lilas","id_fonte":"estacao_metro.64","id":"metro-64"}},{"type":"Feature","geometry":{"type":"Point","coordinates":[-46.768012,-23.659299]},"properties":{"nome":"Capão Redondo","linhas":"Lilas","id_fonte":"estacao_metro.63","id":"metro-63"}},{"type":"Feature","geometry":{"type":"Point","coordinates":[-46.624963,-23.509276]},"properties":{"nome":"Carandiru","linhas":"Azul","id_fonte":"estacao_metro.38","id":"metro-38"}},{"type":"Feature","geometry":{"type":"Point","coordinates":[-46.564155,-23.537851]},"properties":{"nome":"Carrão","linhas":"Vermelha","id_fonte":"estacao_metro.7","id":"metro-7"}},{"type":"Feature","geometry":{"type":"Point","coordinates":[-46.630486,-23.592632]},"properties":{"nome":"Chácara Klabin","linhas":"Verde, Lilas","id_fonte":"estacao_metro.27","id":"metro-27"}},{"type":"Feature","geometry":{"type":"Point","coordinates":[-46.670762,-23.554111]},"properties":{"nome":"Clínicas","linhas":"Verde","id_fonte":"estacao_metro.21","id":"metro-21"}},{"type":"Feature","geometry":{"type":"Point","coordinates":[-46.641332,-23.635378]},"properties":{"nome":"Conceição","linhas":"Azul","id_fonte":"estacao_metro.55","id":"metro-55"}},{"type":"Feature","geometry":{"type":"Point","coordinates":[-46.661192,-23.557228]},"properties":{"nome":"Consolação","linhas":"Verde","id_fonte":"estacao_metro.22","id":"metro-22"}},{"type":"Feature","geometry":{"type":"Point","coordinates":[-46.471078,-23.542305]},"properties":{"nome":"Corinthians-Itaquera","linhas":"Vermelha","id_fonte":"estacao_metro.1","id":"metro-1"}},{"type":"Feature","geometry":{"type":"Point","coordinates":[-46.668991,-23.610145]},"properties":{"nome":"Eucaliptos","linhas":"Lilas","id_fonte":"estacao_metro.73","id":"metro-73"}},{"type":"Feature","geometry":{"type":"Point","coordinates":[-46.693988,-23.567158]},"properties":{"nome":"Faria Lima","linhas":"Amarela","id_fonte":"estacao_metro.82","id":"metro-82"}},{"type":"Feature","geometry":{"type":"Point","coordinates":[-46.487472,-23.611688]},"properties":{"nome":"Fazenda da Juta","linhas":"Prata","id_fonte":"estacao_metro.91","id":"metro-91"}},{"type":"Feature","geometry":{"type":"Point","coordinates":[-46.684165,-23.566169]},"properties":{"nome":"Fradique Coutinho","linhas":"Amarela","id_fonte":"estacao_metro.85","id":"metro-85"}},{"type":"Feature","geometry":{"type":"Point","coordinates":[-46.734096,-23.643965]},"properties":{"nome":"Giovanni Gronchi","linhas":"Lilas","id_fonte":"estacao_metro.66","id":"metro-66"}},{"type":"Feature","geometry":{"type":"Point","coordinates":[-46.516548,-23.529263]},"properties":{"nome":"Guilhermina-Esperança","linhas":"Vermelha","id_fonte":"estacao_metro.4","id":"metro-4"}},{"type":"Feature","geometry":{"type":"Point","coordinates":[-46.652261,-23.548952]},"properties":{"nome":"Higienópolis-Mackenzie","linhas":"Amarela","id_fonte":"estacao_metro.86","id":"metro-86"}},{"type":"Feature","geometry":{"type":"Point","coordinates":[-46.64536,-23.59816]},"properties":{"nome":"Hospital São Paulo","linhas":"Lilas","id_fonte":"estacao_metro.75","id":"metro-75"}},{"type":"Feature","geometry":{"type":"Point","coordinates":[-46.640991,-23.646483]},"properties":{"nome":"Jabaquara","linhas":"Azul","id_fonte":"estacao_metro.56","id":"metro-56"}},{"type":"Feature","geometry":{"type":"Point","coordinates":[-46.635734,-23.554976]},"properties":{"nome":"Japão-Liberdade","linhas":"Azul","id_fonte":"estacao_metro.45","id":"metro-45"}},{"type":"Feature","geometry":{"type":"Point","coordinates":[-46.507052,-23.607391]},"properties":{"nome":"Jardim Planalto","linhas":"Prata","id_fonte":"estacao_metro.93","id":"metro-93"}},{"type":"Feature","geometry":{"type":"Point","coordinates":[-46.709535,-23.654463]},"properties":{"nome":"Largo Treze","linhas":"Lilas","id_fonte":"estacao_metro.68","id":"metro-68"}},{"type":"Feature","geometry":{"type":"Point","coordinates":[-46.63367,-23.536902]},"properties":{"nome":"Luz","linhas":"Azul, Amarela","id_fonte":"estacao_metro.42","id":"metro-42"}},{"type":"Feature","geometry":{"type":"Point","coordinates":[-46.656027,-23.533518]},"properties":{"nome":"Marechal Deodoro","linhas":"Vermelha","id_fonte":"estacao_metro.17","id":"metro-17"}},{"type":"Feature","geometry":{"type":"Point","coordinates":[-46.661987,-23.603329]},"properties":{"nome":"Moema","linhas":"Lilas","id_fonte":"estacao_metro.74","id":"metro-74"}},{"type":"Feature","geometry":{"type":"Point","coordinates":[-46.5619,-23.582178]},"properties":{"nome":"Oratório","linhas":"Prata","id_fonte":"estacao_metro.57","id":"metro-57"}},{"type":"Feature","geometry":{"type":"Point","coordinates":[-46.672084,-23.560518]},"properties":{"nome":"Oscar Freire","linhas":"Amarela","id_fonte":"estacao_metro.87","id":"metro-87"}},{"type":"Feature","geometry":{"type":"Point","coordinates":[-46.667373,-23.525948]},"properties":{"nome":"Palmeiras-Barra Funda","linhas":"Vermelha","id_fonte":"estacao_metro.18","id":"metro-18"}},{"type":"Feature","geometry":{"type":"Point","coordinates":[-46.608821,-23.487033]},"properties":{"nome":"Parada Inglesa","linhas":"Azul","id_fonte":"estacao_metro.35","id":"metro-35"}},{"type":"Feature","geometry":{"type":"Point","coordinates":[-46.641056,-23.575768]},"properties":{"nome":"Paraíso","linhas":"Verde, Azul","id_fonte":"estacao_metro.25","id":"metro-25"}},{"type":"Feature","geometry":{"type":"Point","coordinates":[-46.501382,-23.531183]},"properties":{"nome":"Patriarca","linhas":"Vermelha","id_fonte":"estacao_metro.3","id":"metro-3"}},{"type":"Feature","geometry":{"type":"Point","coordinates":[-46.662187,-23.555076]},"properties":{"nome":"Paulista","linhas":"Amarela","id_fonte":"estacao_metro.81","id":"metro-81"}},{"type":"Feature","geometry":{"type":"Point","coordinates":[-46.625909,-23.549716]},"properties":{"nome":"Pedro II","linhas":"Vermelha","id_fonte":"estacao_metro.12","id":"metro-12"}},{"type":"Feature","geometry":{"type":"Point","coordinates":[-46.542349,-23.533481]},"properties":{"nome":"Penha","linhas":"Vermelha","id_fonte":"estacao_metro.6","id":"metro-6"}},{"type":"Feature","geometry":{"type":"Point","coordinates":[-46.701696,-23.567183]},"properties":{"nome":"Pinheiros","linhas":"Amarela","id_fonte":"estacao_metro.83","id":"metro-83"}},{"type":"Feature","geometry":{"type":"Point","coordinates":[-46.625161,-23.516131]},"properties":{"nome":"Portuguesa-Tietê","linhas":"Azul","id_fonte":"estacao_metro.39","id":"metro-39"}},{"type":"Feature","geometry":{"type":"Point","coordinates":[-46.637884,-23.610642]},"properties":{"nome":"Praça da Árvore","linhas":"Azul","id_fonte":"estacao_metro.52","id":"metro-52"}},{"type":"Feature","geometry":{"type":"Point","coordinates":[-46.643149,-23.543894]},"properties":{"nome":"República","linhas":"Vermelha, Amarela","id_fonte":"estacao_metro.15","id":"metro-15"}},{"type":"Feature","geometry":{"type":"Point","coordinates":[-46.603172,-23.601415]},"properties":{"nome":"Sacomã","linhas":"Verde","id_fonte":"estacao_metro.30","id":"metro-30"}},{"type":"Feature","geometry":{"type":"Point","coordinates":[-46.64888,-23.539638]},"properties":{"nome":"Santa Cecília","linhas":"Vermelha","id_fonte":"estacao_metro.16","id":"metro-16"}},{"type":"Feature","geometry":{"type":"Point","coordinates":[-46.636688,-23.598829]},"properties":{"nome":"Santa Cruz","linhas":"Azul, Lilas","id_fonte":"estacao_metro.51","id":"metro-51"}},{"type":"Feature","geometry":{"type":"Point","coordinates":[-46.624773,-23.502569]},"properties":{"nome":"Santana","linhas":"Azul","id_fonte":"estacao_metro.37","id":"metro-37"}},{"type":"Feature","geometry":{"type":"Point","coordinates":[-46.720934,-23.65575]},"properties":{"nome":"Santo Amaro","linhas":"Lilas","id_fonte":"estacao_metro.67","id":"metro-67"}},{"type":"Feature","geometry":{"type":"Point","coordinates":[-46.6207,-23.595938]},"properties":{"nome":"Santos-Imigrantes","linhas":"Verde","id_fonte":"estacao_metro.28","id":"metro-28"}},{"type":"Feature","geometry":{"type":"Point","coordinates":[-46.677538,-23.551016]},"properties":{"nome":"Santuário Nossa Senhora de Fátima-Sumaré","linhas":"Verde","id_fonte":"estacao_metro.20","id":"metro-20"}},{"type":"Feature","geometry":{"type":"Point","coordinates":[-46.501427,-23.614753]},"properties":{"nome":"Sapopemba","linhas":"Prata","id_fonte":"estacao_metro.92","id":"metro-92"}},{"type":"Feature","geometry":{"type":"Point","coordinates":[-46.639237,-23.618609]},"properties":{"nome":"Saúde","linhas":"Azul","id_fonte":"estacao_metro.53","id":"metro-53"}},{"type":"Feature","geometry":{"type":"Point","coordinates":[-46.634167,-23.544084]},"properties":{"nome":"São Bento","linhas":"Azul","id_fonte":"estacao_metro.43","id":"metro-43"}},{"type":"Feature","geometry":{"type":"Point","coordinates":[-46.638697,-23.561911]},"properties":{"nome":"São Joaquim","linhas":"Azul","id_fonte":"estacao_metro.46","id":"metro-46"}},{"type":"Feature","geometry":{"type":"Point","coordinates":[-46.640812,-23.625752]},"properties":{"nome":"São Judas","linhas":"Azul","id_fonte":"estacao_metro.54","id":"metro-54"}},{"type":"Feature","geometry":{"type":"Point","coordinates":[-46.544369,-23.589295]},"properties":{"nome":"São Lucas","linhas":"Prata","id_fonte":"estacao_metro.59","id":"metro-59"}},{"type":"Feature","geometry":{"type":"Point","coordinates":[-46.476682,-23.612088]},"properties":{"nome":"São Mateus","linhas":"Prata","id_fonte":"estacao_metro.90","id":"metro-90"}},{"type":"Feature","geometry":{"type":"Point","coordinates":[-46.72383,-23.586389]},"properties":{"nome":"São Paulo-Morumbi","linhas":"Amarela","id_fonte":"estacao_metro.88","id":"metro-88"}},{"type":"Feature","geometry":{"type":"Point","coordinates":[-46.633135,-23.550921]},"properties":{"nome":"Sé","linhas":"Vermelha, Azul","id_fonte":"estacao_metro.13","id":"metro-13"}},{"type":"Feature","geometry":{"type":"Point","coordinates":[-46.589575,-23.592938]},"properties":{"nome":"Tamanduateí","linhas":"Verde","id_fonte":"estacao_metro.31","id":"metro-31"}},{"type":"Feature","geometry":{"type":"Point","coordinates":[-46.576284,-23.54044]},"properties":{"nome":"Tatuapé","linhas":"Vermelha","id_fonte":"estacao_metro.8","id":"metro-8"}},{"type":"Feature","geometry":{"type":"Point","coordinates":[-46.632172,-23.530658]},"properties":{"nome":"Tiradentes","linhas":"Azul","id_fonte":"estacao_metro.41","id":"metro-41"}},{"type":"Feature","geometry":{"type":"Point","coordinates":[-46.654416,-23.563161]},"properties":{"nome":"Trianon-MASP","linhas":"Verde","id_fonte":"estacao_metro.23","id":"metro-23"}},{"type":"Feature","geometry":{"type":"Point","coordinates":[-46.603151,-23.47998]},"properties":{"nome":"Tucuruvi","linhas":"Azul","id_fonte":"estacao_metro.34","id":"metro-34"}},{"type":"Feature","geometry":{"type":"Point","coordinates":[-46.639937,-23.568915]},"properties":{"nome":"Vergueiro","linhas":"Azul","id_fonte":"estacao_metro.47","id":"metro-47"}},{"type":"Feature","geometry":{"type":"Point","coordinates":[-46.690855,-23.546391]},"properties":{"nome":"Vila Madalena","linhas":"Verde","id_fonte":"estacao_metro.19","id":"metro-19"}},{"type":"Feature","geometry":{"type":"Point","coordinates":[-46.634651,-23.589108]},"properties":{"nome":"Vila Mariana","linhas":"Azul","id_fonte":"estacao_metro.33","id":"metro-33"}},{"type":"Feature","geometry":{"type":"Point","coordinates":[-46.531005,-23.531877]},"properties":{"nome":"Vila Matilde","linhas":"Vermelha","id_fonte":"estacao_metro.5","id":"metro-5"}},{"type":"Feature","geometry":{"type":"Point","coordinates":[-46.581906,-23.584326]},"properties":{"nome":"Vila Prudente","linhas":"Verde, Prata","id_fonte":"estacao_metro.32","id":"metro-32"}},{"type":"Feature","geometry":{"type":"Point","coordinates":[-46.734758,-23.593418]},"properties":{"nome":"Vila Sônia","linhas":"Amarela","id_fonte":"estacao_metro.94","id":"metro-94"}},{"type":"Feature","geometry":{"type":"Point","coordinates":[-46.527095,-23.600921]},"properties":{"nome":"Vila Tolstói","linhas":"Prata","id_fonte":"estacao_metro.60","id":"metro-60"}},{"type":"Feature","geometry":{"type":"Point","coordinates":[-46.516113,-23.60287]},"properties":{"nome":"Vila União","linhas":"Prata","id_fonte":"estacao_metro.61","id":"metro-61"}},{"type":"Feature","geometry":{"type":"Point","coordinates":[-46.745736,-23.640406]},"properties":{"nome":"Vila das Belezas","linhas":"Lilas","id_fonte":"estacao_metro.65","id":"metro-65"}}]}