{"type":"FeatureCollection","metadata":{"camada":"trem","fonte":"GeoSampa (Prefeitura de São Paulo)","camada_fonte":"geoportal:estacao_trem","atualizado_em":"2026-10-06","total":98},"features":[{"type":"Feature","geometry":{"type":"Point","coordinates":[-46.493813,-23.433057]},"properties":{"nome":"Aeroporto Guarulhos","linhas":"Jade","id_fonte":"estacao_trem.3024","id":"trem-3024"}},{"type":"Feature","geometry":{"type":"Point","coordinates":[-46.983756,-23.530508]},"properties":{"nome":"Amador Bueno","linhas":"Diamante","id_fonte":"estacao_trem.3097","id":"trem-3097"}},{"type":"Feature","geometry":{"type":"Point","coordinates":[-46.972705,-23.530168]},"properties":{"nome":"Ambuitá","linhas":"Diamante","id_fonte":"estacao_trem.3109","id":"trem-3109"}},{"type":"Feature","geometry":{"type":"Point","coordinates":[-46.38367,-23.554349]},"properties":{"nome":"Antonio Gianetti Neto","linhas":"Coral","id_fonte":"estacao_trem.3035","id":"trem-3035"}},{"type":"Feature","geometry":{"type":"Point","coordinates":[-46.858902,-23.516831]},"properties":{"nome":"Antônio João","linhas":"Diamante","id_fonte":"estacao_trem.3076","id":"trem-3076"}},{"type":"Feature","geometry":{"type":"Point","coordinates":[-46.339085,-23.499739]},"properties":{"nome":"Aracaré","linhas":"Safira","id_fonte":"estacao_trem.3036","id":"trem-3036"}},{"type":"Feature","geometry":{"type":"Point","coordinates":[-46.688447,-23.706557]},"properties":{"nome":"Autódromo","linhas":"Esmeralda","id_fonte":"estacao_trem.3065","id":"trem-3065"}},{"type":"Feature","geometry":{"type":"Point","coordinates":[-46.723619,-23.309892]},"properties":{"nome":"Baltazar Fidelis","linhas":"Rubi","id_fonte":"estacao_trem.3037","id":"trem-3037"}},{"type":"Feature","geometry":{"type":"Point","coordinates":[-46.875172,-23.512558]},"properties":{"nome":"Barueri","linhas":"Diamante","id_fonte":"estacao_trem.3077","id":"trem-3077"}},{"type":"Feature","geometry":{"type":"Point","coordinates":[-46.696976,-23.605278]},"properties":{"nome":"Berrini","linhas":"Esmeralda","id_fonte":"estacao_trem.3064","id":"trem-3064"}},{"type":"Feature","geometry":{"type":"Point","coordinates":[-46.767735,-23.235826]},"properties":{"nome":"Botujuru","linhas":"Rubi","id_fonte":"estacao_trem.3038","id":"trem-3038"}},{"type":"Feature","geometry":{"type":"Point","coordinates":[-46.616877,-23.544021]},"properties":{"nome":"Brás","linhas":"Turquesa, Coral, Safira","id_fonte":"estacao_trem.3092","id":"trem-3092"}},{"type":"Feature","geometry":{"type":"Point","coordinates":[-46.22553,-23.536301]},"properties":{"nome":"Brás Cubas","linhas":"Coral","id_fonte":"estacao_trem.3039","id":"trem-3039"}},{"type":"Feature","geometry":{"type":"Point","coordinates":[-46.751636,-23.366276]},"properties":{"nome":"Caieiras","linhas":"Rubi","id_fonte":"estacao_trem.3040","id":"trem-3040"}},{"type":"Feature","geometry":{"type":"Point","coordinates":[-46.332389,-23.525683]},"properties":{"nome":"Calmon Viana","linhas":"Coral, Safira","id_fonte":"estacao_trem.3025","id":"trem-3025"}},{"type":"Feature","geometry":{"type":"Point","coordinates":[-46.785291,-23.206689]},"properties":{"nome":"Campo Limpo Paulista","linhas":"Rubi","id_fonte":"estacao_trem.3043","id":"trem-3043"}},{"type":"Feature","geometry":{"type":"Point","coordinates":[-46.490109,-23.658349]},"properties":{"nome":"Capuava","linhas":"Turquesa","id_fonte":"estacao_trem.3044","id":"trem-3044"}},{"type":"Feature","geometry":{"type":"Point","coordinates":[-46.835417,-23.518536]},"properties":{"nome":"Carapicuíba","linhas":"Diamante","id_fonte":"estacao_trem.3078","id":"trem-3078"}},{"type":"Feature","geometry":{"type":"Point","coordinates":[-46.742611,-23.537419]},"properties":{"nome":"Ceasa","linhas":"Esmeralda","id_fonte":"estacao_trem.3079","id":"trem-3079"}},{"type":"Feature","geometry":{"type":"Point","coordinates":[-46.691163,-23.585524]},"properties":{"nome":"Cidade Jardim","linhas":"Esmeralda","id_fonte":"estacao_trem.3071","id":"trem-3071"}},{"type":"Feature","geometry":{"type":"Point","coordinates":[-46.711777,-23.557643]},"properties":{"nome":"Cidade Universitária","linhas":"Esmeralda","id_fonte":"estacao_trem.3080","id":"trem-3080"}},{"type":"Feature","geometry":{"type":"Point","coordinates":[-46.795869,-23.525705]},"properties":{"nome":"Comandante Sampaio","linhas":"Diamante","id_fonte":"estacao_trem.3081","id":"trem-3081"}},{"type":"Feature","geometry":{"type":"Point","coordinates":[-46.482409,-23.485142]},"properties":{"nome":"Comendador Ermelino","linhas":"Safira","id_fonte":"estacao_trem.3104","id":"trem-3104"}},{"type":"Feature","geometry":{"type":"Point","coordinates":[-46.471144,-23.54206]},"properties":{"nome":"Corinthians - Itaquera","linhas":"Coral","id_fonte":"estacao_trem.3029","id":"trem-3029"}},{"type":"Feature","geometry":{"type":"Point","coordinates":[-46.448129,-23.541798]},"properties":{"nome":"Dom Bosco","linhas":"Coral","id_fonte":"estacao_trem.3030","id":"trem-3030"}},{"type":"Feature","geometry":{"type":"Point","coordinates":[-46.721485,-23.51893]},"properties":{"nome":"Domingos de Morais","linhas":"Diamante","id_fonte":"estacao_trem.3082","id":"trem-3082"}},{"type":"Feature","geometry":{"type":"Point","coordinates":[-46.928579,-23.535233]},"properties":{"nome":"Engenheiro Cardoso","linhas":"Diamante","id_fonte":"estacao_trem.3019","id":"trem-3019"}},{"type":"Feature","geometry":{"type":"Point","coordinates":[-46.520102,-23.498101]},"properties":{"nome":"Engenheiro Goulart","linhas":"Safira, Jade","id_fonte":"estacao_trem.3105","id":"trem-3105"}},{"type":"Feature","geometry":{"type":"Point","coordinates":[-46.36838,-23.479366]},"properties":{"nome":"Engenheiro Manoel Feio","linhas":"Safira","id_fonte":"estacao_trem.3045","id":"trem-3045"}},{"type":"Feature","geometry":{"type":"Point","coordinates":[-46.184863,-23.515654]},"properties":{"nome":"Estudantes","linhas":"Coral","id_fonte":"estacao_trem.3046","id":"trem-3046"}},{"type":"Feature","geometry":{"type":"Point","coordinates":[-46.368269,-23.540751]},"properties":{"nome":"Ferraz de Vasconcelos","linhas":"Coral","id_fonte":"estacao_trem.3047","id":"trem-3047"}},{"type":"Feature","geometry":{"type":"Point","coordinates":[-46.742544,-23.281685]},"properties":{"nome":"Francisco Morato","linhas":"Rubi","id_fonte":"estacao_trem.3048","id":"trem-3048"}},{"type":"Feature","geometry":{"type":"Point","coordinates":[-46.726294,-23.329637]},"properties":{"nome":"Franco da Rocha","linhas":"Rubi","id_fonte":"estacao_trem.3049","id":"trem-3049"}},{"type":"Feature","geometry":{"type":"Point","coordinates":[-46.815695,-23.523423]},"properties":{"nome":"General Miguel Costa","linhas":"Diamante","id_fonte":"estacao_trem.3067","id":"trem-3067"}},{"type":"Feature","geometry":{"type":"Point","coordinates":[-46.697015,-23.736449]},"properties":{"nome":"Grajaú","linhas":"Esmeralda","id_fonte":"estacao_trem.3069","id":"trem-3069"}},{"type":"Feature","geometry":{"type":"Point","coordinates":[-46.712288,-23.627916]},"properties":{"nome":"Granja Julieta","linhas":"Esmeralda","id_fonte":"estacao_trem.3074","id":"trem-3074"}},{"type":"Feature","geometry":{"type":"Point","coordinates":[-46.415612,-23.542318]},"properties":{"nome":"Guaianases","linhas":"Coral","id_fonte":"estacao_trem.3098","id":"trem-3098"}},{"type":"Feature","geometry":{"type":"Point","coordinates":[-46.448849,-23.692031]},"properties":{"nome":"Guapituba","linhas":"Turquesa","id_fonte":"estacao_trem.3050","id":"trem-3050"}},{"type":"Feature","geometry":{"type":"Point","coordinates":[-46.493693,-23.447441]},"properties":{"nome":"Guarulhos Cecap","linhas":"Jade","id_fonte":"estacao_trem.3018","id":"trem-3018"}},{"type":"Feature","geometry":{"type":"Point","coordinates":[-46.698792,-23.573612]},"properties":{"nome":"Hebraica - Rebouças","linhas":"Esmeralda","id_fonte":"estacao_trem.3070","id":"trem-3070"}},{"type":"Feature","geometry":{"type":"Point","coordinates":[-46.737592,-23.523754]},"properties":{"nome":"Imperatriz Leopoldina","linhas":"Diamante","id_fonte":"estacao_trem.3051","id":"trem-3051"}},{"type":"Feature","geometry":{"type":"Point","coordinates":[-46.596651,-23.582495]},"properties":{"nome":"Ipiranga","linhas":"Turquesa","id_fonte":"estacao_trem.3021","id":"trem-3021"}},{"type":"Feature","geometry":{"type":"Point","coordinates":[-46.401997,-23.493854]},"properties":{"nome":"Itaim Paulista","linhas":"Safira","id_fonte":"estacao_trem.3022","id":"trem-3022"}},{"type":"Feature","geometry":{"type":"Point","coordinates":[-46.935689,-23.546136]},"properties":{"nome":"Itapevi","linhas":"Diamante","id_fonte":"estacao_trem.3062","id":"trem-3062"}},{"type":"Feature","geometry":{"type":"Point","coordinates":[-46.347883,-23.486136]},"properties":{"nome":"Itaquaquecetuba","linhas":"Safira","id_fonte":"estacao_trem.3023","id":"trem-3023"}},{"type":"Feature","geometry":{"type":"Point","coordinates":[-46.902379,-23.527707]},"properties":{"nome":"Jandira","linhas":"Diamante","id_fonte":"estacao_trem.3052","id":"trem-3052"}},{"type":"Feature","geometry":{"type":"Point","coordinates":[-46.738417,-23.45545]},"properties":{"nome":"Jaraguá","linhas":"Rubi","id_fonte":"estacao_trem.3086","id":"trem-3086"}},{"type":"Feature","geometry":{"type":"Point","coordinates":[-46.889281,-23.513993]},"properties":{"nome":"Jardim Belval","linhas":"Diamante","id_fonte":"estacao_trem.3053","id":"trem-3053"}},{"type":"Feature","geometry":{"type":"Point","coordinates":[-46.420932,-23.492704]},"properties":{"nome":"Jardim Helena - Vila Mara","linhas":"Safira","id_fonte":"estacao_trem.3032","id":"trem-3032"}},{"type":"Feature","geometry":{"type":"Point","coordinates":[-46.385391,-23.484823]},"properties":{"nome":"Jardim Romano","linhas":"Safira","id_fonte":"estacao_trem.3033","id":"trem-3033"}},{"type":"Feature","geometry":{"type":"Point","coordinates":[-46.893597,-23.523849]},"properties":{"nome":"Jardim Silveira","linhas":"Diamante","id_fonte":"estacao_trem.3054","id":"trem-3054"}},{"type":"Feature","geometry":{"type":"Point","coordinates":[-46.431507,-23.539061]},"properties":{"nome":"José Bonifácio","linhas":"Coral","id_fonte":"estacao_trem.3031","id":"trem-3031"}},{"type":"Feature","geometry":{"type":"Point","coordinates":[-46.723843,-23.640213]},"properties":{"nome":"João Dias","linhas":"Esmeralda","id_fonte":"estacao_trem.3020","id":"trem-3020"}},{"type":"Feature","geometry":{"type":"Point","coordinates":[-46.25813,-23.542799]},"properties":{"nome":"Jundiapeba","linhas":"Coral","id_fonte":"estacao_trem.3083","id":"trem-3083"}},{"type":"Feature","geometry":{"type":"Point","coordinates":[-46.872284,-23.195175]},"properties":{"nome":"Jundiaí","linhas":"Rubi","id_fonte":"estacao_trem.3027","id":"trem-3027"}},{"type":"Feature","geometry":{"type":"Point","coordinates":[-46.702128,-23.677436]},"properties":{"nome":"Jurubatuba","linhas":"Esmeralda","id_fonte":"estacao_trem.3063","id":"trem-3063"}},{"type":"Feature","geometry":{"type":"Point","coordinates":[-46.640984,-23.532597]},"properties":{"nome":"Júlio Prestes","linhas":"Diamante","id_fonte":"estacao_trem.3055","id":"trem-3055"}},{"type":"Feature","geometry":{"type":"Point","coordinates":[-46.703659,-23.517734]},"properties":{"nome":"Lapa (linha 7)","linhas":"Rubi","id_fonte":"estacao_trem.3084","id":"trem-3084"}},{"type":"Feature","geometry":{"type":"Point","coordinates":[-46.699005,-23.520164]},"properties":{"nome":"Lapa (linha 8)","linhas":"Diamante","id_fonte":"estacao_trem.3056","id":"trem-3056"}},{"type":"Feature","geometry":{"type":"Point","coordinates":[-46.635115,-23.534961]},"properties":{"nome":"Luz","linhas":"Turquesa, Coral","id_fonte":"estacao_trem.3087","id":"trem-3087"}},{"type":"Feature","geometry":{"type":"Point","coordinates":[-46.46154,-23.668266]},"properties":{"nome":"Mauá","linhas":"Turquesa","id_fonte":"estacao_trem.3001","id":"trem-3001"}},{"type":"Feature","geometry":{"type":"Point","coordinates":[-46.709279,-23.754291]},"properties":{"nome":"Mendes / Bruno Covas","linhas":"Esmeralda","id_fonte":"estacao_trem.3107","id":"trem-3107"}},{"type":"Feature","geometry":{"type":"Point","coordinates":[-46.197979,-23.521773]},"properties":{"nome":"Mogi das Cruzes","linhas":"Coral","id_fonte":"estacao_trem.3002","id":"trem-3002"}},{"type":"Feature","geometry":{"type":"Point","coordinates":[-46.608352,-23.558066]},"properties":{"nome":"Mooca","linhas":"Turquesa","id_fonte":"estacao_trem.3089","id":"trem-3089"}},{"type":"Feature","geometry":{"type":"Point","coordinates":[-46.701822,-23.621845]},"properties":{"nome":"Morumbi","linhas":"Esmeralda","id_fonte":"estacao_trem.3073","id":"trem-3073"}},{"type":"Feature","geometry":{"type":"Point","coordinates":[-46.775884,-23.527747]},"properties":{"nome":"Osasco","linhas":"Diamante, Esmeralda","id_fonte":"estacao_trem.3041","id":"trem-3041"}},{"type":"Feature","geometry":{"type":"Point","coordinates":[-46.667516,-23.525584]},"properties":{"nome":"Palmeiras - Barra Funda","linhas":"Rubi, Diamante, Turquesa, Coral","id_fonte":"estacao_trem.3100","id":"trem-3100"}},{"type":"Feature","geometry":{"type":"Point","coordinates":[-46.753753,-23.404774]},"properties":{"nome":"Perus","linhas":"Rubi","id_fonte":"estacao_trem.3003","id":"trem-3003"}},{"type":"Feature","geometry":{"type":"Point","coordinates":[-46.703044,-23.566468]},"properties":{"nome":"Pinheiros","linhas":"Esmeralda","id_fonte":"estacao_trem.3066","id":"trem-3066"}},{"type":"Feature","geometry":{"type":"Point","coordinates":[-46.714866,-23.502893]},"properties":{"nome":"Piqueri","linhas":"Rubi","id_fonte":"estacao_trem.3004","id":"trem-3004"}},{"type":"Feature","geometry":{"type":"Point","coordinates":[-46.726029,-23.48852]},"properties":{"nome":"Pirituba","linhas":"Rubi","id_fonte":"estacao_trem.3005","id":"trem-3005"}},{"type":"Feature","geometry":{"type":"Point","coordinates":[-46.34363,-23.525415]},"properties":{"nome":"Poá","linhas":"Coral","id_fonte":"estacao_trem.3006","id":"trem-3006"}},{"type":"Feature","geometry":{"type":"Point","coordinates":[-46.528295,-23.65208]},"properties":{"nome":"Prefeito Celso Daniel - Santo André","linhas":"Turquesa","id_fonte":"estacao_trem.3028","id":"trem-3028"}},{"type":"Feature","geometry":{"type":"Point","coordinates":[-46.536939,-23.637812]},"properties":{"nome":"Prefeito Saladino","linhas":"Turquesa","id_fonte":"estacao_trem.3007","id":"trem-3007"}},{"type":"Feature","geometry":{"type":"Point","coordinates":[-46.761773,-23.531224]},"properties":{"nome":"Presidente Altino","linhas":"Diamante, Esmeralda","id_fonte":"estacao_trem.3090","id":"trem-3090"}},{"type":"Feature","geometry":{"type":"Point","coordinates":[-46.691759,-23.722712]},"properties":{"nome":"Primavera - Interlagos","linhas":"Esmeralda","id_fonte":"estacao_trem.3068","id":"trem-3068"}},{"type":"Feature","geometry":{"type":"Point","coordinates":[-46.806766,-23.522823]},"properties":{"nome":"Quitaúna","linhas":"Diamante","id_fonte":"estacao_trem.3058","id":"trem-3058"}},{"type":"Feature","geometry":{"type":"Point","coordinates":[-46.414541,-23.713827]},"properties":{"nome":"Ribeirão Pires","linhas":"Turquesa","id_fonte":"estacao_trem.3008","id":"trem-3008"}},{"type":"Feature","geometry":{"type":"Point","coordinates":[-46.391597,-23.743504]},"properties":{"nome":"Rio Grande da Serra","linhas":"Turquesa","id_fonte":"estacao_trem.3009","id":"trem-3009"}},{"type":"Feature","geometry":{"type":"Point","coordinates":[-46.917131,-23.529143]},"properties":{"nome":"Sagrado Coração","linhas":"Diamante","id_fonte":"estacao_trem.3059","id":"trem-3059"}},{"type":"Feature","geometry":{"type":"Point","coordinates":[-46.947517,-23.544975]},"properties":{"nome":"Santa Rita","linhas":"Diamante","id_fonte":"estacao_trem.3085","id":"trem-3085"}},{"type":"Feature","geometry":{"type":"Point","coordinates":[-46.84795,-23.516579]},"properties":{"nome":"Santa Terezinha","linhas":"Diamante","id_fonte":"estacao_trem.3060","id":"trem-3060"}},{"type":"Feature","geometry":{"type":"Point","coordinates":[-46.719184,-23.656208]},"properties":{"nome":"Santo Amaro (linha 9)","linhas":"Esmeralda","id_fonte":"estacao_trem.3057","id":"trem-3057"}},{"type":"Feature","geometry":{"type":"Point","coordinates":[-46.710909,-23.663473]},"properties":{"nome":"Socorro","linhas":"Esmeralda","id_fonte":"estacao_trem.3075","id":"trem-3075"}},{"type":"Feature","geometry":{"type":"Point","coordinates":[-46.308034,-23.533975]},"properties":{"nome":"Suzano","linhas":"Coral","id_fonte":"estacao_trem.3012","id":"trem-3012"}},{"type":"Feature","geometry":{"type":"Point","coordinates":[-46.570058,-23.609845]},"properties":{"nome":"São Caetano","linhas":"Turquesa","id_fonte":"estacao_trem.3010","id":"trem-3010"}},{"type":"Feature","geometry":{"type":"Point","coordinates":[-46.443723,-23.49053]},"properties":{"nome":"São Miguel Paulista","linhas":"Safira","id_fonte":"estacao_trem.3011","id":"trem-3011"}},{"type":"Feature","geometry":{"type":"Point","coordinates":[-46.589416,-23.592754]},"properties":{"nome":"Tamanduateí","linhas":"Turquesa","id_fonte":"estacao_trem.3013","id":"trem-3013"}},{"type":"Feature","geometry":{"type":"Point","coordinates":[-46.576457,-23.540228]},"properties":{"nome":"Tatuapé","linhas":"Coral, Safira","id_fonte":"estacao_trem.3095","id":"trem-3095"}},{"type":"Feature","geometry":{"type":"Point","coordinates":[-46.500711,-23.48548]},"properties":{"nome":"USP Leste","linhas":"Safira","id_fonte":"estacao_trem.3099","id":"trem-3099"}},{"type":"Feature","geometry":{"type":"Point","coordinates":[-46.544172,-23.626255]},"properties":{"nome":"Utinga","linhas":"Turquesa","id_fonte":"estacao_trem.3014","id":"trem-3014"}},{"type":"Feature","geometry":{"type":"Point","coordinates":[-46.711901,-23.770001]},"properties":{"nome":"Varginha","linhas":"Esmeralda","id_fonte":"estacao_trem.3108","id":"trem-3108"}},{"type":"Feature","geometry":{"type":"Point","coordinates":[-46.747371,-23.437453]},"properties":{"nome":"Vila Aurora","linhas":"Rubi","id_fonte":"estacao_trem.3017","id":"trem-3017"}},{"type":"Feature","geometry":{"type":"Point","coordinates":[-46.744164,-23.469903]},"properties":{"nome":"Vila Clarice","linhas":"Rubi","id_fonte":"estacao_trem.3016","id":"trem-3016"}},{"type":"Feature","geometry":{"type":"Point","coordinates":[-46.692855,-23.593454]},"properties":{"nome":"Vila Olímpia","linhas":"Esmeralda","id_fonte":"estacao_trem.3072","id":"trem-3072"}},{"type":"Feature","geometry":{"type":"Point","coordinates":[-46.732817,-23.54602]},"properties":{"nome":"Villa-Lobos - Jaguaré","linhas":"Esmeralda","id_fonte":"estacao_trem.3061","id":"trem-3061"}},{"type":"Feature","geometry":{"type":"Point","coordinates":[-46.829091,-23.208987]},"properties":{"nome":"Várzea Paulista","linhas":"Rubi","id_fonte":"estacao_trem.3015","id":"trem-3015"}},{"type":"Feature","geometry":{"type":"Point","coordinates":[-46.689045,-23.521435]},"properties":{"nome":"Água Branca","linhas":"Rubi","id_fonte":"estacao_trem.3034","id":"trem-3034"}}]}