{"type":"FeatureCollection","metadata":{"camada":"urgencia","fonte":"GeoSampa (Prefeitura de São Paulo)","camada_fonte":"geoportal:equipamento_saude_urgencia_emergencia","atualizado_em":"2026-10-06","total":53},"features":[{"type":"Feature","geometry":{"type":"Point","coordinates":[-46.773638,-23.675127]},"properties":{"nome":"AMA 24H Capão Redondo","endereco":"Av. Comendador Santana, 774","bairro":"Jd Boa Esperança","telefone":"5872-9917 / 5872-9919","tipo":"Assistência Médica Ambulatorial","id_fonte":"equipamento_saude_urgencia_emergencia.120007","id":"urgencia-120007"}},{"type":"Feature","geometry":{"type":"Point","coordinates":[-46.5172,-23.500315]},"properties":{"nome":"AMA 24H Engenheiro Goulart - Dr. José Pires","endereco":"R. Augusto Correia Leite, 538","bairro":"Eng. Goulart","telefone":"2038-1626 / 2622-0366","tipo":"Assistência Médica Ambulatorial","id_fonte":"equipamento_saude_urgencia_emergencia.120008","id":"urgencia-120008"}},{"type":"Feature","geometry":{"type":"Point","coordinates":[-46.479604,-23.531225]},"properties":{"nome":"AMA 24H Jardim Nordeste - Dr. Carlos Neder","endereco":"R. Nicolo Tartaglia, 45","bairro":"Jd Coimbra","telefone":"2280-6211","tipo":"Assistência Médica Ambulatorial","id_fonte":"equipamento_saude_urgencia_emergencia.120009","id":"urgencia-120009"}},{"type":"Feature","geometry":{"type":"Point","coordinates":[-46.766154,-23.631528]},"properties":{"nome":"AMA 24H Jardim Pirajussara","endereco":"Av. Amadeu da Silva Samelo, 423","bairro":"Jd Martinica","telefone":"5844-7937","tipo":"Assistência Médica Ambulatorial","id_fonte":"equipamento_saude_urgencia_emergencia.120010","id":"urgencia-120010"}},{"type":"Feature","geometry":{"type":"Point","coordinates":[-46.439289,-23.540462]},"properties":{"nome":"AMA 24H Jose Bonifacio - Itaquera","endereco":"R. Silvio Barbini, 40","bairro":"Itaquera","telefone":"2944-6086","tipo":"Assistência Médica Ambulatorial","id_fonte":"equipamento_saude_urgencia_emergencia.120011","id":"urgencia-120011"}},{"type":"Feature","geometry":{"type":"Point","coordinates":[-46.719822,-23.617073]},"properties":{"nome":"AMA 24H Paraisopolis","endereco":"R. Silveira Sampaio, 660","bairro":"Jd Morumbi","telefone":"3742-5394","tipo":"Assistência Médica Ambulatorial","id_fonte":"equipamento_saude_urgencia_emergencia.120012","id":"urgencia-120012"}},{"type":"Feature","geometry":{"type":"Point","coordinates":[-46.74906,-23.67927]},"properties":{"nome":"AMA 24H Parque Figueira Grande","endereco":"R. Daniel Klein, 211","bairro":"Pq Figueira Grande","telefone":"5515-7070","tipo":"Assistência Médica Ambulatorial","id_fonte":"equipamento_saude_urgencia_emergencia.120013","id":"urgencia-120013"}},{"type":"Feature","geometry":{"type":"Point","coordinates":[-46.780897,-23.699015]},"properties":{"nome":"AMA 24H Parque Novo Santo Amaro","endereco":"R. Porta do Prado, 18","bairro":"Parque Novo Santo Amaro","telefone":"5898-5656","tipo":"Assistência Médica Ambulatorial","id_fonte":"equipamento_saude_urgencia_emergencia.120014","id":"urgencia-120014"}},{"type":"Feature","geometry":{"type":"Point","coordinates":[-46.492935,-23.611647]},"properties":{"nome":"AMA 24H Sapopemba","endereco":"R. João Lopes de Lima, 1151","bairro":"Jd Sapopemba","telefone":"2018-5674","tipo":"Assistência Médica Ambulatorial","id_fonte":"equipamento_saude_urgencia_emergencia.120015","id":"urgencia-120015"}},{"type":"Feature","geometry":{"type":"Point","coordinates":[-46.700669,-23.524415]},"properties":{"nome":"AMA 24H Sorocabana","endereco":"R. Catão, 380","bairro":"Vila Romana","telefone":"3879-3090","tipo":"Assistência Médica Ambulatorial","id_fonte":"equipamento_saude_urgencia_emergencia.120017","id":"urgencia-120017"}},{"type":"Feature","geometry":{"type":"Point","coordinates":[-46.628102,-23.551244]},"properties":{"nome":"AMA 24H Sé","endereco":"R. Frederico Alvarenga, 259","bairro":"Se","telefone":"4210-5398","tipo":"Assistência Médica Ambulatorial","id_fonte":"equipamento_saude_urgencia_emergencia.120016","id":"urgencia-120016"}},{"type":"Feature","geometry":{"type":"Point","coordinates":[-46.612487,-23.633529]},"properties":{"nome":"PS Municipal Augusto Gomes de Mattos","endereco":"R. Giovanni Di Balduccio, 250","bairro":"Vila Moraes","telefone":"3245-8300","tipo":"Pronto Socorro Geral","id_fonte":"equipamento_saude_urgencia_emergencia.120492","id":"urgencia-120492"}},{"type":"Feature","geometry":{"type":"Point","coordinates":[-46.723228,-23.771848]},"properties":{"nome":"PS Municipal Balneario São Jose","endereco":"R. Gaspar Leme, 200","bairro":"Balneário São Jose","telefone":"5979-7073","tipo":"Pronto Socorro Geral","id_fonte":"equipamento_saude_urgencia_emergencia.120493","id":"urgencia-120493"}},{"type":"Feature","geometry":{"type":"Point","coordinates":[-46.653016,-23.530993]},"properties":{"nome":"PS Municipal Barra Funda - Dr Álvaro Dino de Almeida","endereco":"R. Vitorino Carmilo, 717","bairro":"Barra Funda","telefone":"5210-5425","tipo":"Pronto Socorro Geral","id_fonte":"equipamento_saude_urgencia_emergencia.120494","id":"urgencia-120494"}},{"type":"Feature","geometry":{"type":"Point","coordinates":[-46.738602,-23.584118]},"properties":{"nome":"PS Municipal Dr Caetano Virgílio Netto","endereco":"R. Augusto Farinha, 1125","bairro":"Jd Pinheiros","telefone":"3731-6018","tipo":"Pronto Socorro Geral","id_fonte":"equipamento_saude_urgencia_emergencia.120495","id":"urgencia-120495"}},{"type":"Feature","geometry":{"type":"Point","coordinates":[-46.721961,-23.537596]},"properties":{"nome":"PS Municipal Lapa - Prof. João Catarin Mezomo","endereco":"Av. Queiroz Filho, 313","bairro":"Pq da Lapa","telefone":"4878-1701","tipo":"Pronto Socorro Geral","id_fonte":"equipamento_saude_urgencia_emergencia.120496","id":"urgencia-120496"}},{"type":"Feature","geometry":{"type":"Point","coordinates":[-46.626498,-23.512036]},"properties":{"nome":"PS Municipal Santana - Lauro Ribas Braga","endereco":"R. Voluntários da Patria, 943","bairro":"Santana","telefone":"2223-2919","tipo":"Pronto Socorro Geral","id_fonte":"equipamento_saude_urgencia_emergencia.120497","id":"urgencia-120497"}},{"type":"Feature","geometry":{"type":"Point","coordinates":[-46.397948,-23.603624]},"properties":{"nome":"Pa Municipal Dra Glória Rodrigues dos Santos Bonfim","endereco":"Av. dos Metalurgicos, 2820","bairro":"Cidade Tiradentes","telefone":"2558-3252","tipo":"Pronto Atendimento","id_fonte":"equipamento_saude_urgencia_emergencia.120481","id":"urgencia-120481"}},{"type":"Feature","geometry":{"type":"Point","coordinates":[-46.789974,-23.653652]},"properties":{"nome":"Pa Municipal Jardim Macedônia","endereco":"R. Louis Boulogne, 133","bairro":"Jd Macedonia","telefone":"5821-1147","tipo":"Pronto Atendimento","id_fonte":"equipamento_saude_urgencia_emergencia.120482","id":"urgencia-120482"}},{"type":"Feature","geometry":{"type":"Point","coordinates":[-46.479521,-23.610635]},"properties":{"nome":"Pa Municipal São Mateus II","endereco":"R. Maestro João Balan, 88","bairro":"Cidade São Mateus","telefone":"2013-1346","tipo":"Pronto Atendimento","id_fonte":"equipamento_saude_urgencia_emergencia.120483","id":"urgencia-120483"}},{"type":"Feature","geometry":{"type":"Point","coordinates":[-46.688672,-23.490081]},"properties":{"nome":"Upa 21 de Junho","endereco":"Av. João Paulo I, 421","bairro":"Freguesia do O","telefone":"3975-1349","tipo":"Pronto Atendimento","id_fonte":"equipamento_saude_urgencia_emergencia.120997","id":"urgencia-120997"}},{"type":"Feature","geometry":{"type":"Point","coordinates":[-46.463861,-23.544325]},"properties":{"nome":"Upa 26 de Agosto","endereco":"Av. Miguel Ignacio Curi, 44","bairro":"Itaquera","telefone":"4780-5081 / 2070-6456","tipo":"Pronto Atendimento","id_fonte":"equipamento_saude_urgencia_emergencia.120998","id":"urgencia-120998"}},{"type":"Feature","geometry":{"type":"Point","coordinates":[-46.749386,-23.648963]},"properties":{"nome":"Upa Campo Limpo - Dr Fernando Mauro Proença de Gouvea","endereco":"R. Tereza Mouco de Oliveira, 121","bairro":"Campo Limpo","telefone":"5814-3776 / 5584-6674","tipo":"Pronto Atendimento","id_fonte":"equipamento_saude_urgencia_emergencia.120999","id":"urgencia-120999"}},{"type":"Feature","geometry":{"type":"Point","coordinates":[-46.533878,-23.550048]},"properties":{"nome":"Upa Carrão - Masataka Ota","endereco":"Av. Conselheiro Carrão, 2893","bairro":"Vila Carrao","telefone":"3469-8877","tipo":"Pronto Atendimento","id_fonte":"equipamento_saude_urgencia_emergencia.121000","id":"urgencia-121000"}},{"type":"Feature","geometry":{"type":"Point","coordinates":[-46.403307,-23.571717]},"properties":{"nome":"Upa Cidade Tiradentes","endereco":"R. Igarape da Diana, 1","bairro":"Conj. Hab. Inacio Monteiro","telefone":"5555-7348","tipo":"Pronto Atendimento","id_fonte":"equipamento_saude_urgencia_emergencia.121001","id":"urgencia-121001"}},{"type":"Feature","geometry":{"type":"Point","coordinates":[-46.734552,-23.441987]},"properties":{"nome":"Upa City Jaragua","endereco":"Estrada das Taipas, 1650","bairro":"Jaragua","telefone":"3245-9030","tipo":"Pronto Atendimento","id_fonte":"equipamento_saude_urgencia_emergencia.121002","id":"urgencia-121002"}},{"type":"Feature","geometry":{"type":"Point","coordinates":[-46.690435,-23.748891]},"properties":{"nome":"Upa Dona Maria Antonieta Ferreira de Barros","endereco":"R. Antonio Felipe Filho, 180","bairro":"Grajaú","telefone":"5928-0345","tipo":"Pronto Atendimento","id_fonte":"equipamento_saude_urgencia_emergencia.121003","id":"urgencia-121003"}},{"type":"Feature","geometry":{"type":"Point","coordinates":[-46.39566,-23.508328]},"properties":{"nome":"Upa Dr. Atualpa Girão Rabelo","endereco":"R. Ilha do Arvoredo, 251","bairro":"Itaim Paulista","telefone":"2562-0270","tipo":"Pronto Atendimento","id_fonte":"equipamento_saude_urgencia_emergencia.121004","id":"urgencia-121004"}},{"type":"Feature","geometry":{"type":"Point","coordinates":[-46.473706,-23.499126]},"properties":{"nome":"Upa Ermelino Matarazzo","endereco":"R. Miguel Novais, 113","bairro":"Vila Paranagua","telefone":"2574-3258","tipo":"Pronto Atendimento","id_fonte":"equipamento_saude_urgencia_emergencia.121005","id":"urgencia-121005"}},{"type":"Feature","geometry":{"type":"Point","coordinates":[-46.645293,-23.653146]},"properties":{"nome":"Upa Jabaquara","endereco":"R. Cruz das Almas, 290","bairro":"Vila Campestre","telefone":"2476-7356","tipo":"Pronto Atendimento","id_fonte":"equipamento_saude_urgencia_emergencia.121006","id":"urgencia-121006"}},{"type":"Feature","geometry":{"type":"Point","coordinates":[-46.769219,-23.683928]},"properties":{"nome":"Upa Jardim Angela","endereco":"Estrada Guavirituba, 49","bairro":"Vila Santa Lúcia","telefone":"5834-0840","tipo":"Pronto Atendimento","id_fonte":"equipamento_saude_urgencia_emergencia.121008","id":"urgencia-121008"}},{"type":"Feature","geometry":{"type":"Point","coordinates":[-46.685491,-23.456158]},"properties":{"nome":"Upa Jardim Elisa Maria I","endereco":"R. Romulo Naldi, 57","bairro":"Conj. Promorar Estrada da Parada","telefone":"","tipo":"Pronto Atendimento","id_fonte":"equipamento_saude_urgencia_emergencia.121009","id":"urgencia-121009"}},{"type":"Feature","geometry":{"type":"Point","coordinates":[-46.419588,-23.479009]},"properties":{"nome":"Upa Jardim Helena","endereco":"R. Kumaki Aoki, 785","bairro":"Jardim Helena","telefone":"","tipo":"Pronto Atendimento","id_fonte":"equipamento_saude_urgencia_emergencia.121010","id":"urgencia-121010"}},{"type":"Feature","geometry":{"type":"Point","coordinates":[-46.705289,-23.744159]},"properties":{"nome":"Upa Jardim Icarai Quintana","endereco":"R. São Roque do Paraguaçu, 190","bairro":"Vila Quintana","telefone":"5925-2222","tipo":"Pronto Atendimento","id_fonte":"equipamento_saude_urgencia_emergencia.121011","id":"urgencia-121011"}},{"type":"Feature","geometry":{"type":"Point","coordinates":[-46.667498,-23.467309]},"properties":{"nome":"Upa Jardim Peri","endereco":"R. Afonso Lopes Vieira, 35","bairro":"Vila Dionisia","telefone":"3984-7571","tipo":"Pronto Atendimento","id_fonte":"equipamento_saude_urgencia_emergencia.121012","id":"urgencia-121012"}},{"type":"Feature","geometry":{"type":"Point","coordinates":[-46.580232,-23.459457]},"properties":{"nome":"Upa Jaçanã","endereco":"R. Ester Elisa, 229","bairro":"Vila Nilo","telefone":"2243-1669","tipo":"Pronto Atendimento","id_fonte":"equipamento_saude_urgencia_emergencia.121007","id":"urgencia-121007"}},{"type":"Feature","geometry":{"type":"Point","coordinates":[-46.411117,-23.527757]},"properties":{"nome":"Upa Julio Tupy","endereco":"R. Serra da Queimada, 800","bairro":"Pq Guaianases","telefone":"2511-6665","tipo":"Pronto Atendimento","id_fonte":"equipamento_saude_urgencia_emergencia.121013","id":"urgencia-121013"}},{"type":"Feature","geometry":{"type":"Point","coordinates":[-46.5904,-23.54613]},"properties":{"nome":"Upa Mooca - Dom Paulo Evaristo Arns","endereco":"R. Dr Fomm, 261","bairro":"Belenzinho","telefone":"","tipo":"Pronto Atendimento","id_fonte":"equipamento_saude_urgencia_emergencia.121014","id":"urgencia-121014"}},{"type":"Feature","geometry":{"type":"Point","coordinates":[-46.73535,-23.815802]},"properties":{"nome":"Upa Parelheiros","endereco":"Estrada Ecoturistica de Parelheiros, 5252","bairro":"Jd dos Alamos","telefone":"5683-8900","tipo":"Pronto Atendimento","id_fonte":"equipamento_saude_urgencia_emergencia.121015","id":"urgencia-121015"}},{"type":"Feature","geometry":{"type":"Point","coordinates":[-46.648489,-23.697373]},"properties":{"nome":"Upa Parque Doroteia","endereco":"R. dos Aniquis, 3","bairro":"Jardim Santa Terezinha","telefone":"5560-1164","tipo":"Pronto Atendimento","id_fonte":"equipamento_saude_urgencia_emergencia.121016","id":"urgencia-121016"}},{"type":"Feature","geometry":{"type":"Point","coordinates":[-46.676624,-23.695049]},"properties":{"nome":"Upa Pedreira - Dr. Cesar Antunes da Rocha","endereco":"Av. Nossa Senhora do Sabara, 4901","bairro":"Vila Emir","telefone":"5614-7473","tipo":"Pronto Atendimento","id_fonte":"equipamento_saude_urgencia_emergencia.121017","id":"urgencia-121017"}},{"type":"Feature","geometry":{"type":"Point","coordinates":[-46.746767,-23.400544]},"properties":{"nome":"Upa Perus - Dr. Luiz Antonio de Abreu Sampaio Doria","endereco":"R. ESTEVAN RIBEIRO RESENDE, S/Nº","bairro":"Perus","telefone":"3917-1242","tipo":"Pronto Atendimento","id_fonte":"equipamento_saude_urgencia_emergencia.121018","id":"urgencia-121018"}},{"type":"Feature","geometry":{"type":"Point","coordinates":[-46.727648,-23.484607]},"properties":{"nome":"Upa Pirituba","endereco":"Av. Menotti Laudísio, 100","bairro":"Pirituba","telefone":"2039-5555","tipo":"Pronto Atendimento","id_fonte":"equipamento_saude_urgencia_emergencia.121019","id":"urgencia-121019"}},{"type":"Feature","geometry":{"type":"Point","coordinates":[-46.765363,-23.576263]},"properties":{"nome":"Upa Rio Pequeno","endereco":"R. Jose Vicente da Cruz, 90","bairro":"Vila Antonio","telefone":"5043-5558","tipo":"Pronto Atendimento","id_fonte":"equipamento_saude_urgencia_emergencia.121020","id":"urgencia-121020"}},{"type":"Feature","geometry":{"type":"Point","coordinates":[-46.593917,-23.61397]},"properties":{"nome":"Upa Sacomã","endereco":"Estrada das Lagrimas, 1403","bairro":"Sacomã","telefone":"2063-9098","tipo":"Pronto Atendimento","id_fonte":"equipamento_saude_urgencia_emergencia.121021","id":"urgencia-121021"}},{"type":"Feature","geometry":{"type":"Point","coordinates":[-46.704757,-23.65164]},"properties":{"nome":"Upa Santo Amaro - Dr José Sylvio de Camargo","endereco":"R. Promotor Gabriel Nettuzzi Perez, 41","bairro":"Santo Amaro","telefone":"5521-2553","tipo":"Pronto Atendimento","id_fonte":"equipamento_saude_urgencia_emergencia.121022","id":"urgencia-121022"}},{"type":"Feature","geometry":{"type":"Point","coordinates":[-46.564684,-23.533454]},"properties":{"nome":"Upa Tatuape - Waldemar Rossi","endereco":"Av. Celso Garcia, 4974","bairro":"Tatuape","telefone":"3245-8333","tipo":"Pronto Atendimento","id_fonte":"equipamento_saude_urgencia_emergencia.121023","id":"urgencia-121023"}},{"type":"Feature","geometry":{"type":"Point","coordinates":[-46.44298,-23.498968]},"properties":{"nome":"Upa Tito Lopes","endereco":"Av. Pires do Rio, 294","bairro":"Vila Americana","telefone":"4780-5114","tipo":"Pronto Atendimento","id_fonte":"equipamento_saude_urgencia_emergencia.121024","id":"urgencia-121024"}},{"type":"Feature","geometry":{"type":"Point","coordinates":[-46.780848,-23.737055]},"properties":{"nome":"Upa Vera Cruz","endereco":"Av. dos Funcionarios Publicos, 379","bairro":"Jardim Vera Cruz","telefone":"5898-5900","tipo":"Pronto Atendimento","id_fonte":"equipamento_saude_urgencia_emergencia.121025","id":"urgencia-121025"}},{"type":"Feature","geometry":{"type":"Point","coordinates":[-46.639647,-23.567474]},"properties":{"nome":"Upa Vergueiro","endereco":"R. Vergueiro, 613","bairro":"Liberdade","telefone":"4040-1067","tipo":"Pronto Atendimento","id_fonte":"equipamento_saude_urgencia_emergencia.121026","id":"urgencia-121026"}},{"type":"Feature","geometry":{"type":"Point","coordinates":[-46.57732,-23.517303]},"properties":{"nome":"Upa Vila Maria - Dr Jose Mauro Del Roio Correa","endereco":"Praça Engenheiro Hugo Brandi, 15","bairro":"Vila Maria Baixa","telefone":"3500-2560","tipo":"Pronto Atendimento","id_fonte":"equipamento_saude_urgencia_emergencia.121027","id":"urgencia-121027"}},{"type":"Feature","geometry":{"type":"Point","coordinates":[-46.64269,-23.59583]},"properties":{"nome":"Upa Vila Mariana","endereco":"R. Diogo de Faria, 609","bairro":"V Clementino","telefone":"3245-9010","tipo":"Pronto Atendimento","id_fonte":"equipamento_saude_urgencia_emergencia.121028","id":"urgencia-121028"}},{"type":"Feature","geometry":{"type":"Point","coordinates":[-46.653502,-23.656714]},"properties":{"nome":"Upa Vila Santa Catarina","endereco":"R. Cidade de Bagdá, 529","bairro":"Jardim Mira","telefone":"5671-9200","tipo":"Pronto Atendimento","id_fonte":"equipamento_saude_urgencia_emergencia.121029","id":"urgencia-121029"}}]}